{
"type": "FeatureCollection",
"name": "Antipolo-Masinag-Sumulong",
"crs": { "type": "name", "properties": { "name": "urn:ogc:def:crs:OGC:1.3:CRS84" } },
"xy_coordinate_resolution": 1e-15,
"features": [
{ "type": "Feature", "properties": { "route name": "Antipolo-Masinag-Sumulong", "weight": 5, "Color": "#ffc401" }, "geometry": { "type": "MultiLineString", "coordinates": [ [ [ 121.120465249291684, 14.624965970608178 ], [ 121.120529975444441, 14.624517862823184 ], [ 121.12327590812032, 14.625061806529247 ], [ 121.124186849986529, 14.625258412688016 ], [ 121.124393286452602, 14.6252158146872 ], [ 121.12455629576705, 14.624674338144967 ], [ 121.124720134231396, 14.623861699357395 ], [ 121.124864312080376, 14.623540575965629 ], [ 121.125139560701527, 14.623180131342339 ], [ 121.125788361022856, 14.622459242095916 ], [ 121.127010595971711, 14.6212239000692 ], [ 121.127941198452916, 14.620267083433109 ], [ 121.128675194776122, 14.619519980032321 ], [ 121.128930782781623, 14.619362695105982 ], [ 121.129186370787167, 14.619211963718243 ], [ 121.131204860677286, 14.618346896624038 ], [ 121.132731835172265, 14.617848827691443 ], [ 121.134645468444958, 14.617252455680159 ], [ 121.135608838620144, 14.617141045524946 ], [ 121.136487012793538, 14.617167259680468 ], [ 121.13707027772972, 14.617265562760339 ], [ 121.137515918355177, 14.617403187071714 ], [ 121.137889470056109, 14.61767188215522 ], [ 121.138387538990614, 14.618006112625004 ], [ 121.138865947309398, 14.618379664326426 ], [ 121.139508194093366, 14.618831858491376 ], [ 121.139848978101071, 14.618910500955133 ], [ 121.140098012568131, 14.618890840339589 ], [ 121.140471564268623, 14.618753216029212 ], [ 121.140635402733551, 14.618536949255249 ], [ 121.140782857351724, 14.618107692476391 ], [ 121.140881160430411, 14.617694819544015 ], [ 121.140976186739763, 14.617291776919542 ], [ 121.14111381105009, 14.616901841372357 ], [ 121.141294033361518, 14.616688851367709 ], [ 121.141651201215339, 14.616436540131621 ], [ 121.141788825526007, 14.616341513821924 ], [ 121.14210011860979, 14.616269424897583 ], [ 121.142322938922405, 14.616246487512703 ], [ 121.142509714772771, 14.61627925520599 ], [ 121.142801347240933, 14.616407049209267 ], [ 121.143109363555766, 14.616682297831298 ], [ 121.143555004181579, 14.61714432230395 ], [ 121.14364020018364, 14.617278669845573 ], [ 121.143699182031256, 14.617416294156465 ], [ 121.143781101264167, 14.617694819547555 ], [ 121.143899064959385, 14.617956961092142 ], [ 121.144033412501031, 14.618153567250634 ], [ 121.144177590350594, 14.618291191561664 ], [ 121.144387303586143, 14.618415708795519 ], [ 121.14472808759389, 14.618536949260237 ], [ 121.144885372520577, 14.618648359416815 ], [ 121.145026273600806, 14.618818751420886 ], [ 121.145380164686344, 14.619523256822012 ], [ 121.145589877922205, 14.619916469138929 ], [ 121.145878233621232, 14.620178610683729 ], [ 121.146114161011226, 14.620263806685957 ], [ 121.146618783484087, 14.620335895611303 ], [ 121.146887478566896, 14.620257253148297 ], [ 121.147241369651468, 14.620060646990389 ], [ 121.148132650901275, 14.619352864821476 ], [ 121.148611059219235, 14.619005527275661 ], [ 121.148846986608945, 14.61887445650374 ], [ 121.149037039228503, 14.618835135272294 ], [ 121.149181217077881, 14.618808921118019 ], [ 121.150079051867166, 14.618894117121073 ], [ 121.151547044515482, 14.619077616203967 ], [ 121.151789525443917, 14.619067785896352 ], [ 121.151992685140698, 14.619025187895625 ], [ 121.152176184221588, 14.618917054508762 ], [ 121.152225335760974, 14.618792537275207 ], [ 121.152359683301981, 14.618382941112182 ], [ 121.152710297616224, 14.617259009240797 ], [ 121.152720127924084, 14.617167259700254 ], [ 121.152697190538575, 14.616875627232025 ], [ 121.152608717767095, 14.616636423072617 ], [ 121.152497307610602, 14.616410325990396 ], [ 121.152369513607596, 14.616282531987324 ], [ 121.152222058988784, 14.616148184445608 ], [ 121.151940256828496, 14.616007283365127 ], [ 121.151599472820678, 14.61580084689847 ], [ 121.151465125279159, 14.615709097357747 ], [ 121.151350438353376, 14.615600963970513 ], [ 121.151248858504829, 14.615473169967474 ], [ 121.151248848550409, 14.615473179563068 ], [ 121.151180046349282, 14.615319161810035 ], [ 121.151183323118474, 14.615243796116005 ], [ 121.151225921119092, 14.614929226262717 ], [ 121.151373375737478, 14.614676915026385 ], [ 121.151566705125944, 14.614293533017866 ], [ 121.151619133434693, 14.614165739014997 ], [ 121.151694499128567, 14.614080543013154 ], [ 121.151910765902414, 14.613880660085776 ], [ 121.152284317602678, 14.613572643771509 ], [ 121.152516968223082, 14.613425189153039 ], [ 121.152657869303098, 14.61335310022849 ], [ 121.152841368383989, 14.613281011303991 ], [ 121.153126447313355, 14.613202368841003 ], [ 121.153552427322651, 14.613064744530696 ], [ 121.153768694096598, 14.612972994990399 ], [ 121.154214334721715, 14.612822263602885 ], [ 121.154368342878982, 14.612825540372393 ], [ 121.154515797497638, 14.612815710064652 ], [ 121.154768108734103, 14.612887798989668 ], [ 121.154958161353818, 14.612972994991845 ], [ 121.155354650439719, 14.613074574840804 ], [ 121.155754416294755, 14.613120449611564 ], [ 121.155993620453984, 14.613146663766303 ], [ 121.156252485228976, 14.613117172842863 ], [ 121.156386832770366, 14.613068021303459 ], [ 121.156531010619616, 14.612982825301678 ], [ 121.156612929852059, 14.612858308068168 ], [ 121.156809536009973, 14.612569952369512 ], [ 121.156930776474056, 14.612445435136053 ], [ 121.157025802783792, 14.612340578518408 ], [ 121.157333819098028, 14.612078436974326 ], [ 121.1577204778755, 14.611744206505627 ], [ 121.158310296349711, 14.611341163881757 ], [ 121.158667464203603, 14.611138004185245 ], [ 121.158873900669519, 14.61094795156578 ], [ 121.159162256368063, 14.610784113100848 ], [ 121.159460442374439, 14.610541632172604 ], [ 121.159568575761227, 14.610345026014404 ], [ 121.159925743614764, 14.609801082310105 ], [ 121.15992573366016, 14.609801091907435 ], [ 121.160073198233235, 14.609614306459886 ], [ 121.160194438697289, 14.609473405379875 ], [ 121.160194428742614, 14.609473414977163 ], [ 121.160286188237677, 14.609361995223603 ], [ 121.160538499473915, 14.609224370913074 ], [ 121.160833408711156, 14.609149005219397 ], [ 121.161331477645305, 14.609099853680421 ], [ 121.161983554736693, 14.60909985368122 ], [ 121.16242591859266, 14.609096576912448 ], [ 121.162933817834769, 14.60909985368238 ], [ 121.163202512917636, 14.609076916297568 ], [ 121.163382735229263, 14.609021211219597 ], [ 121.163526913078542, 14.608922908140608 ], [ 121.163749733390958, 14.608700087828092 ], [ 121.164270739709494, 14.60801851981317 ], [ 121.164729487411392, 14.607487683186216 ], [ 121.164978521878226, 14.607218988103476 ], [ 121.165158744189753, 14.607117408255208 ], [ 121.165397948348826, 14.60698633748329 ], [ 121.165624045430704, 14.606956846559807 ], [ 121.165794437434585, 14.606999444560985 ], [ 121.166233524521459, 14.607169836565417 ], [ 121.16667261160832, 14.60733039826192 ], [ 121.167105145156512, 14.607435254880217 ], [ 121.167321411930644, 14.607477852881464 ], [ 121.167619597937247, 14.607487683189746 ], [ 121.167783436402459, 14.607487683189946 ], [ 121.168215969950495, 14.607425424573663 ], [ 121.16884510965663, 14.607264862878464 ], [ 121.169770796984608, 14.607058426413317 ], [ 121.170773488391376, 14.60681922225524 ], [ 121.171204383554638, 14.606699620176121 ], [ 121.171523868561678, 14.606637361559704 ], [ 121.171766349490142, 14.606601317097647 ], [ 121.171949848571145, 14.606591486789945 ], [ 121.172408596273698, 14.606620977714256 ], [ 121.172719889357566, 14.60665046863838 ], [ 121.172959093516724, 14.60662425448424 ], [ 121.173149146136268, 14.606555442329034 ], [ 121.173149136184364, 14.606555451932383 ], [ 121.17333264521713, 14.606470246327325 ], [ 121.17350959075938, 14.60630968463156 ], [ 121.174207542619797, 14.605146431528935 ], [ 121.175911462654412, 14.602200615925288 ], [ 121.175996658656075, 14.601987625920527 ], [ 121.17606219404189, 14.601764805607834 ], [ 121.176062194041819, 14.601689439913796 ], [ 121.17598355157827, 14.601469896370219 ], [ 121.175829543420832, 14.601286397288932 ], [ 121.175369157333066, 14.600781774815319 ], [ 121.175218425944962, 14.600650704042907 ], [ 121.175111930942478, 14.600567146425481 ], [ 121.174966114708369, 14.60046556657684 ], [ 121.174374657848745, 14.600170657338607 ], [ 121.174102685996417, 14.600072354259101 ], [ 121.173852013144582, 14.599967497641025 ], [ 121.173657045370874, 14.5998593642537 ], [ 121.173553827137695, 14.599770891482333 ], [ 121.173455524058454, 14.599641459094631 ], [ 121.173014798586109, 14.598741985919709 ], [ 121.172703505501659, 14.598191488675996 ], [ 121.172139901180302, 14.597198627575715 ], [ 121.171844991942493, 14.596739879872587 ], [ 121.171733581785332, 14.596018990625215 ], [ 121.171799117170451, 14.595147369989999 ] ] ] } },
{ "type": "Feature", "properties": { "route name": "Antipolo-Masinag-Sumulong", "weight": 5, "Color": "#ffc401" }, "geometry": { "type": "MultiLineString", "coordinates": [ [ [ 121.120465249291684, 14.624965970608178 ], [ 121.120529975444441, 14.624517862823184 ], [ 121.12327590812032, 14.625061806529247 ], [ 121.124186849986529, 14.625258412688016 ], [ 121.124393286452602, 14.6252158146872 ], [ 121.12455629576705, 14.624674338144967 ], [ 121.124720134231396, 14.623861699357395 ], [ 121.124864312080376, 14.623540575965629 ], [ 121.125139560701527, 14.623180131342339 ], [ 121.125788361022856, 14.622459242095916 ], [ 121.127010595971711, 14.6212239000692 ], [ 121.127941198452916, 14.620267083433109 ], [ 121.128675194776122, 14.619519980032321 ], [ 121.128930782781623, 14.619362695105982 ], [ 121.129186370787167, 14.619211963718243 ], [ 121.131204860677286, 14.618346896624038 ], [ 121.132731835172265, 14.617848827691443 ], [ 121.134645468444958, 14.617252455680159 ], [ 121.135608838620144, 14.617141045524946 ], [ 121.136487012793538, 14.617167259680468 ], [ 121.13707027772972, 14.617265562760339 ], [ 121.137515918355177, 14.617403187071714 ], [ 121.137889470056109, 14.61767188215522 ], [ 121.138387538990614, 14.618006112625004 ], [ 121.138865947309398, 14.618379664326426 ], [ 121.139508194093366, 14.618831858491376 ], [ 121.139848978101071, 14.618910500955133 ], [ 121.140098012568131, 14.618890840339589 ], [ 121.140471564268623, 14.618753216029212 ], [ 121.140635402733551, 14.618536949255249 ], [ 121.140782857351724, 14.618107692476391 ], [ 121.140881160430411, 14.617694819544015 ], [ 121.140976186739763, 14.617291776919542 ], [ 121.14111381105009, 14.616901841372357 ], [ 121.141294033361518, 14.616688851367709 ], [ 121.141651201215339, 14.616436540131621 ], [ 121.141788825526007, 14.616341513821924 ], [ 121.14210011860979, 14.616269424897583 ], [ 121.142322938922405, 14.616246487512703 ], [ 121.142509714772771, 14.61627925520599 ], [ 121.142801347240933, 14.616407049209267 ], [ 121.143109363555766, 14.616682297831298 ], [ 121.143555004181579, 14.61714432230395 ], [ 121.14364020018364, 14.617278669845573 ], [ 121.143699182031256, 14.617416294156465 ], [ 121.143781101264167, 14.617694819547555 ], [ 121.143899064959385, 14.617956961092142 ], [ 121.144033412501031, 14.618153567250634 ], [ 121.144177590350594, 14.618291191561664 ], [ 121.144387303586143, 14.618415708795519 ], [ 121.14472808759389, 14.618536949260237 ], [ 121.144885372520577, 14.618648359416815 ], [ 121.145026273600806, 14.618818751420886 ], [ 121.145380164686344, 14.619523256822012 ], [ 121.145589877922205, 14.619916469138929 ], [ 121.145878233621232, 14.620178610683729 ], [ 121.146114161011226, 14.620263806685957 ], [ 121.146618783484087, 14.620335895611303 ], [ 121.146887478566896, 14.620257253148297 ], [ 121.147241369651468, 14.620060646990389 ], [ 121.148132650901275, 14.619352864821476 ], [ 121.148611059219235, 14.619005527275661 ], [ 121.148846986608945, 14.61887445650374 ], [ 121.149037039228503, 14.618835135272294 ], [ 121.149181217077881, 14.618808921118019 ], [ 121.150079051867166, 14.618894117121073 ], [ 121.151547044515482, 14.619077616203967 ], [ 121.151789525443917, 14.619067785896352 ], [ 121.151992685140698, 14.619025187895625 ], [ 121.152176184221588, 14.618917054508762 ], [ 121.152225335760974, 14.618792537275207 ], [ 121.152359683301981, 14.618382941112182 ], [ 121.152710297616224, 14.617259009240797 ], [ 121.152720127924084, 14.617167259700254 ], [ 121.152697190538575, 14.616875627232025 ], [ 121.152608717767095, 14.616636423072617 ], [ 121.152497307610602, 14.616410325990396 ], [ 121.152369513607596, 14.616282531987324 ], [ 121.152222058988784, 14.616148184445608 ], [ 121.151940256828496, 14.616007283365127 ], [ 121.151599472820678, 14.61580084689847 ], [ 121.151465125279159, 14.615709097357747 ], [ 121.151350438353376, 14.615600963970513 ], [ 121.151248858504829, 14.615473169967474 ], [ 121.151248848550409, 14.615473179563068 ], [ 121.151180046349282, 14.615319161810035 ], [ 121.151183323118474, 14.615243796116005 ], [ 121.151225921119092, 14.614929226262717 ], [ 121.151373375737478, 14.614676915026385 ], [ 121.151566705125944, 14.614293533017866 ], [ 121.151619133434693, 14.614165739014997 ], [ 121.151694499128567, 14.614080543013154 ], [ 121.151910765902414, 14.613880660085776 ], [ 121.152284317602678, 14.613572643771509 ], [ 121.152516968223082, 14.613425189153039 ], [ 121.152657869303098, 14.61335310022849 ], [ 121.152841368383989, 14.613281011303991 ], [ 121.153126447313355, 14.613202368841003 ], [ 121.153552427322651, 14.613064744530696 ], [ 121.153768694096598, 14.612972994990399 ], [ 121.154214334721715, 14.612822263602885 ], [ 121.154368342878982, 14.612825540372393 ], [ 121.154515797497638, 14.612815710064652 ], [ 121.154768108734103, 14.612887798989668 ], [ 121.154958161353818, 14.612972994991845 ], [ 121.155354650439719, 14.613074574840804 ], [ 121.155754416294755, 14.613120449611564 ], [ 121.155993620453984, 14.613146663766303 ], [ 121.156252485228976, 14.613117172842863 ], [ 121.156386832770366, 14.613068021303459 ], [ 121.156531010619616, 14.612982825301678 ], [ 121.156612929852059, 14.612858308068168 ], [ 121.156809536009973, 14.612569952369512 ], [ 121.156930776474056, 14.612445435136053 ], [ 121.157025802783792, 14.612340578518408 ], [ 121.157333819098028, 14.612078436974326 ], [ 121.1577204778755, 14.611744206505627 ], [ 121.158310296349711, 14.611341163881757 ], [ 121.158667464203603, 14.611138004185245 ], [ 121.158873900669519, 14.61094795156578 ], [ 121.159162256368063, 14.610784113100848 ], [ 121.159460442374439, 14.610541632172604 ], [ 121.159568575761227, 14.610345026014404 ], [ 121.159925743614764, 14.609801082310105 ], [ 121.15992573366016, 14.609801091907435 ], [ 121.160073198233235, 14.609614306459886 ], [ 121.160194438697289, 14.609473405379875 ], [ 121.160194428742614, 14.609473414977163 ], [ 121.160286188237677, 14.609361995223603 ], [ 121.160538499473915, 14.609224370913074 ], [ 121.160833408711156, 14.609149005219397 ], [ 121.161331477645305, 14.609099853680421 ], [ 121.161983554736693, 14.60909985368122 ], [ 121.16242591859266, 14.609096576912448 ], [ 121.162933817834769, 14.60909985368238 ], [ 121.163202512917636, 14.609076916297568 ], [ 121.163382735229263, 14.609021211219597 ], [ 121.163526913078542, 14.608922908140608 ], [ 121.163749733390958, 14.608700087828092 ], [ 121.164270739709494, 14.60801851981317 ], [ 121.164729487411392, 14.607487683186216 ], [ 121.164978521878226, 14.607218988103476 ], [ 121.165158744189753, 14.607117408255208 ], [ 121.165397948348826, 14.60698633748329 ], [ 121.165624045430704, 14.606956846559807 ], [ 121.165794437434585, 14.606999444560985 ], [ 121.166233524521459, 14.607169836565417 ], [ 121.16667261160832, 14.60733039826192 ], [ 121.167105145156512, 14.607435254880217 ], [ 121.167321411930644, 14.607477852881464 ], [ 121.167619597937247, 14.607487683189746 ], [ 121.167783436402459, 14.607487683189946 ], [ 121.168215969950495, 14.607425424573663 ], [ 121.16884510965663, 14.607264862878464 ], [ 121.169770796984608, 14.607058426413317 ], [ 121.170773488391376, 14.60681922225524 ], [ 121.171204383554638, 14.606699620176121 ], [ 121.171523868561678, 14.606637361559704 ], [ 121.171766349490142, 14.606601317097647 ], [ 121.171949848571145, 14.606591486789945 ], [ 121.172408596273698, 14.606620977714256 ], [ 121.172719889357566, 14.60665046863838 ], [ 121.172959093516724, 14.60662425448424 ], [ 121.173149146136268, 14.606555442329034 ], [ 121.173149136184364, 14.606555451932383 ], [ 121.17333264521713, 14.606470246327325 ], [ 121.17350959075938, 14.60630968463156 ], [ 121.174207542619797, 14.605146431528935 ], [ 121.175911462654412, 14.602200615925288 ], [ 121.175996658656075, 14.601987625920527 ], [ 121.17606219404189, 14.601764805607834 ], [ 121.176062194041819, 14.601689439913796 ], [ 121.17598355157827, 14.601469896370219 ], [ 121.175829543420832, 14.601286397288932 ], [ 121.175369157333066, 14.600781774815319 ], [ 121.175218425944962, 14.600650704042907 ], [ 121.175111930942478, 14.600567146425481 ], [ 121.174966114708369, 14.60046556657684 ], [ 121.174374657848745, 14.600170657338607 ], [ 121.174102685996417, 14.600072354259101 ], [ 121.173852013144582, 14.599967497641025 ], [ 121.173657045370874, 14.5998593642537 ], [ 121.173553827137695, 14.599770891482333 ], [ 121.173455524058454, 14.599641459094631 ], [ 121.173014798586109, 14.598741985919709 ], [ 121.172703505501659, 14.598191488675996 ], [ 121.172139901180302, 14.597198627575715 ], [ 121.171844991942493, 14.596739879872587 ], [ 121.171733581785332, 14.596018990625215 ], [ 121.171799117170451, 14.595147369989999 ] ] ] } }
]
}
