{
"type": "FeatureCollection",
"name": "Antipolo-Tikling-Ortigas-Sm Megamall",
"crs": { "type": "name", "properties": { "name": "urn:ogc:def:crs:OGC:1.3:CRS84" } },
"xy_coordinate_resolution": 1e-15,
"features": [
{ "type": "Feature", "properties": { "route name": "Antipolo-Tikling-Ortigas-Sm Megamall", "weight": 5, "Color": "#a80000" }, "geometry": { "type": "MultiLineString", "coordinates": [ [ [ 121.172578988263481, 14.594118464428991 ], [ 121.173267109817218, 14.59412174119913 ], [ 121.173283493663504, 14.593908751194299 ], [ 121.172506899337876, 14.593332039795548 ], [ 121.17215628502214, 14.593076451789287 ], [ 121.171910527324229, 14.592961764863301 ], [ 121.171713921166017, 14.592958488093743 ], [ 121.171333815926801, 14.592994532555656 ], [ 121.171333805966782, 14.592994542149402 ], [ 121.171104442075659, 14.593079728557308 ], [ 121.170884898532478, 14.593250120560938 ], [ 121.170717783298286, 14.593502431797267 ], [ 121.170481855908804, 14.593849769343379 ], [ 121.170304910366653, 14.59406603611732 ], [ 121.170032938514609, 14.594223321043659 ], [ 121.169669217122021, 14.594338007968917 ], [ 121.169479164502434, 14.594383882738963 ], [ 121.1703131022837, 14.588461122220108 ], [ 121.170391744746212, 14.587779554204642 ], [ 121.170417958900487, 14.587602608662179 ], [ 121.170286888128047, 14.587379788349242 ], [ 121.169788819193613, 14.587084879111124 ], [ 121.168963073328797, 14.586835844642888 ], [ 121.168759913631945, 14.586848951719865 ], [ 121.168235630543506, 14.586953808337004 ], [ 121.167960381922171, 14.58716352157224 ], [ 121.167547508990339, 14.587523966195345 ], [ 121.167377116986728, 14.587694358199039 ], [ 121.167088761288113, 14.58778610773922 ], [ 121.166238439653952, 14.587913901741118 ], [ 121.165984490032912, 14.587917178510114 ], [ 121.165900932415653, 14.587892602740226 ], [ 121.165846865722088, 14.587831982508003 ], [ 121.165737093950284, 14.587718933966828 ], [ 121.165628960563012, 14.587507582346479 ], [ 121.165502804944651, 14.587325721649878 ], [ 121.165388118018882, 14.587247079186382 ], [ 121.165152190628945, 14.587183182184642 ], [ 121.163792331367489, 14.58676047894256 ], [ 121.163199236123262, 14.586596640476555 ], [ 121.162861728884977, 14.586554042475171 ], [ 121.162517668108109, 14.586550765705462 ], [ 121.161973724403779, 14.586613024321609 ], [ 121.161331477620351, 14.586717880938606 ], [ 121.16096775622772, 14.586780139554968 ], [ 121.160522115602419, 14.586786693093032 ], [ 121.159889699126794, 14.586796523400182 ], [ 121.159529254503596, 14.587009513404601 ], [ 121.159322818037765, 14.587232333717125 ], [ 121.159136042187754, 14.587510859107873 ], [ 121.15892960572171, 14.587638653110538 ], [ 121.15876904402586, 14.587638653110343 ], [ 121.158647803561607, 14.58758294803201 ], [ 121.158411056979148, 14.587381426719423 ], [ 121.158336510477483, 14.587351116603259 ], [ 121.158221004359532, 14.587378969142218 ], [ 121.158006375970288, 14.587505124760227 ], [ 121.157822876889398, 14.587603427839163 ], [ 121.157713105117722, 14.587618173300903 ], [ 121.157606610115323, 14.5876034278389 ], [ 121.157495199958944, 14.587539530837295 ], [ 121.157416557495552, 14.587465803527836 ], [ 121.157339553416719, 14.587270835754067 ], [ 121.157293678646283, 14.58710044375011 ], [ 121.157234696798668, 14.586971011362468 ], [ 121.157169161412455, 14.586874346667869 ], [ 121.157033175486305, 14.586803896127638 ], [ 121.156723520787068, 14.586787512280738 ], [ 121.156461379242728, 14.586717061740339 ], [ 121.15617793869788, 14.586661356661793 ], [ 121.156027207309918, 14.586654803123007 ], [ 121.155209653368686, 14.586715423354168 ], [ 121.154147980114374, 14.586794065816202 ], [ 121.154147970145104, 14.586794075395577 ], [ 121.153885838569977, 14.586708869813938 ], [ 121.153885828600565, 14.586708879393093 ], [ 121.153374662558349, 14.586453281807488 ], [ 121.153119074552393, 14.586250122110217 ], [ 121.152942129009688, 14.585968319949725 ], [ 121.152830718852883, 14.585522679324034 ], [ 121.152889700700001, 14.585214663009376 ], [ 121.152988003778802, 14.584939414387835 ], [ 121.152994557317328, 14.584860771924497 ], [ 121.152955236085504, 14.584716594075001 ], [ 121.152955226114685, 14.584716603652337 ], [ 121.152906084545918, 14.584628121303675 ], [ 121.152725862234107, 14.584552755609447 ], [ 121.152480104536238, 14.584467559607202 ], [ 121.152306435763023, 14.584362702989205 ], [ 121.151883732522307, 14.583877741131467 ], [ 121.151238208968635, 14.583120807421091 ], [ 121.150795845112143, 14.582671890025676 ], [ 121.150228964022062, 14.582186928167779 ], [ 121.149907840629979, 14.581901849237797 ], [ 121.149734171856736, 14.581760948157449 ], [ 121.149603101084494, 14.581672475386029 ], [ 121.149416325234128, 14.581623323846227 ], [ 121.149078817995758, 14.581547958151777 ], [ 121.148587302600163, 14.581511913688818 ], [ 121.148200643822264, 14.581433271225007 ], [ 121.14794505581645, 14.581351351992064 ], [ 121.147656700117508, 14.581131808448236 ], [ 121.147483031344152, 14.580918818443145 ], [ 121.147309362570752, 14.580643569821282 ], [ 121.147224166568662, 14.580401088892565 ], [ 121.147132417027876, 14.580178268579667 ], [ 121.14703083717923, 14.579955448266757 ], [ 121.146860445175207, 14.579739181492391 ], [ 121.146585196553602, 14.579647431951496 ], [ 121.146005208386782, 14.57958189656468 ], [ 121.145667701148327, 14.57947048640788 ], [ 121.145421943450359, 14.579290264095778 ], [ 121.144651902662829, 14.578307233303148 ], [ 121.144406144964805, 14.578090966528691 ], [ 121.144242306499422, 14.577900913908753 ], [ 121.143790112335353, 14.577773119905284 ], [ 121.143226508015175, 14.577764927981331 ], [ 121.143005326087206, 14.577820633059266 ], [ 121.142444998536476, 14.577994301831774 ], [ 121.135827562929848, 14.58000787656202 ], [ 121.132665480552802, 14.581013844734965 ], [ 121.130466768350857, 14.581698689517172 ], [ 121.128346698612091, 14.582373703991523 ], [ 121.116144009729339, 14.586191140217688 ], [ 121.114856239393347, 14.586587629302102 ], [ 121.113447228593074, 14.586856324383444 ], [ 121.110511243297609, 14.587433035777648 ], [ 121.108427218020935, 14.587839355168999 ], [ 121.107858698546906, 14.587975341094484 ], [ 121.104809664710572, 14.588689676799378 ], [ 121.102550332276195, 14.589186107346432 ], [ 121.101462444867593, 14.589371244810874 ], [ 121.101000420395835, 14.589413842811286 ], [ 121.100381110997489, 14.589487570119916 ], [ 121.095590474275909, 14.589898804661928 ], [ 121.093070638681667, 14.590118348202331 ], [ 121.091812359269184, 14.590249418973018 ], [ 121.089292523674871, 14.590432918051064 ], [ 121.087608264252907, 14.590603310052895 ], [ 121.086405689918621, 14.590711443438517 ], [ 121.085792934058858, 14.590747487900138 ], [ 121.084967188194256, 14.59068195251302 ], [ 121.083715462319972, 14.590459132198717 ], [ 121.082313005057685, 14.590157669420892 ], [ 121.08110715395371, 14.589931572337342 ], [ 121.080448523323568, 14.589869313719717 ], [ 121.079691589614384, 14.589836546025754 ], [ 121.078544720357968, 14.589728412637269 ], [ 121.07446841934383, 14.589453164010644 ], [ 121.067010492408059, 14.588941987989884 ], [ 121.064602066969684, 14.588755212136535 ], [ 121.064323541578915, 14.588797810137162 ], [ 121.063887731261588, 14.588850238445524 ], [ 121.063471581560208, 14.589053398141957 ], [ 121.062760522621971, 14.589626832769564 ], [ 121.061898732295916, 14.590370659400884 ], [ 121.061898722297357, 14.590370668926312 ], [ 121.060191535490389, 14.591894357125899 ], [ 121.059729511018986, 14.592264632056855 ] ] ] } },
{ "type": "Feature", "properties": { "route name": "Antipolo-Tikling-Ortigas-Sm Megamall", "weight": 5, "Color": "#a80000" }, "geometry": { "type": "MultiLineString", "coordinates": [ [ [ 121.172578988263481, 14.594118464428991 ], [ 121.173267109817218, 14.59412174119913 ], [ 121.173283493663504, 14.593908751194299 ], [ 121.172506899337876, 14.593332039795548 ], [ 121.17215628502214, 14.593076451789287 ], [ 121.171910527324229, 14.592961764863301 ], [ 121.171713921166017, 14.592958488093743 ], [ 121.171333815926801, 14.592994532555656 ], [ 121.171333805966782, 14.592994542149402 ], [ 121.171104442075659, 14.593079728557308 ], [ 121.170884898532478, 14.593250120560938 ], [ 121.170717783298286, 14.593502431797267 ], [ 121.170481855908804, 14.593849769343379 ], [ 121.170304910366653, 14.59406603611732 ], [ 121.170032938514609, 14.594223321043659 ], [ 121.169669217122021, 14.594338007968917 ], [ 121.169479164502434, 14.594383882738963 ], [ 121.1703131022837, 14.588461122220108 ], [ 121.170391744746212, 14.587779554204642 ], [ 121.170417958900487, 14.587602608662179 ], [ 121.170286888128047, 14.587379788349242 ], [ 121.169788819193613, 14.587084879111124 ], [ 121.168963073328797, 14.586835844642888 ], [ 121.168759913631945, 14.586848951719865 ], [ 121.168235630543506, 14.586953808337004 ], [ 121.167960381922171, 14.58716352157224 ], [ 121.167547508990339, 14.587523966195345 ], [ 121.167377116986728, 14.587694358199039 ], [ 121.167088761288113, 14.58778610773922 ], [ 121.166238439653952, 14.587913901741118 ], [ 121.165984490032912, 14.587917178510114 ], [ 121.165900932415653, 14.587892602740226 ], [ 121.165846865722088, 14.587831982508003 ], [ 121.165737093950284, 14.587718933966828 ], [ 121.165628960563012, 14.587507582346479 ], [ 121.165502804944651, 14.587325721649878 ], [ 121.165388118018882, 14.587247079186382 ], [ 121.165152190628945, 14.587183182184642 ], [ 121.163792331367489, 14.58676047894256 ], [ 121.163199236123262, 14.586596640476555 ], [ 121.162861728884977, 14.586554042475171 ], [ 121.162517668108109, 14.586550765705462 ], [ 121.161973724403779, 14.586613024321609 ], [ 121.161331477620351, 14.586717880938606 ], [ 121.16096775622772, 14.586780139554968 ], [ 121.160522115602419, 14.586786693093032 ], [ 121.159889699126794, 14.586796523400182 ], [ 121.159529254503596, 14.587009513404601 ], [ 121.159322818037765, 14.587232333717125 ], [ 121.159136042187754, 14.587510859107873 ], [ 121.15892960572171, 14.587638653110538 ], [ 121.15876904402586, 14.587638653110343 ], [ 121.158647803561607, 14.58758294803201 ], [ 121.158411056979148, 14.587381426719423 ], [ 121.158336510477483, 14.587351116603259 ], [ 121.158221004359532, 14.587378969142218 ], [ 121.158006375970288, 14.587505124760227 ], [ 121.157822876889398, 14.587603427839163 ], [ 121.157713105117722, 14.587618173300903 ], [ 121.157606610115323, 14.5876034278389 ], [ 121.157495199958944, 14.587539530837295 ], [ 121.157416557495552, 14.587465803527836 ], [ 121.157339553416719, 14.587270835754067 ], [ 121.157293678646283, 14.58710044375011 ], [ 121.157234696798668, 14.586971011362468 ], [ 121.157169161412455, 14.586874346667869 ], [ 121.157033175486305, 14.586803896127638 ], [ 121.156723520787068, 14.586787512280738 ], [ 121.156461379242728, 14.586717061740339 ], [ 121.15617793869788, 14.586661356661793 ], [ 121.156027207309918, 14.586654803123007 ], [ 121.155209653368686, 14.586715423354168 ], [ 121.154147980114374, 14.586794065816202 ], [ 121.154147970145104, 14.586794075395577 ], [ 121.153885838569977, 14.586708869813938 ], [ 121.153885828600565, 14.586708879393093 ], [ 121.153374662558349, 14.586453281807488 ], [ 121.153119074552393, 14.586250122110217 ], [ 121.152942129009688, 14.585968319949725 ], [ 121.152830718852883, 14.585522679324034 ], [ 121.152889700700001, 14.585214663009376 ], [ 121.152988003778802, 14.584939414387835 ], [ 121.152994557317328, 14.584860771924497 ], [ 121.152955236085504, 14.584716594075001 ], [ 121.152955226114685, 14.584716603652337 ], [ 121.152906084545918, 14.584628121303675 ], [ 121.152725862234107, 14.584552755609447 ], [ 121.152480104536238, 14.584467559607202 ], [ 121.152306435763023, 14.584362702989205 ], [ 121.151883732522307, 14.583877741131467 ], [ 121.151238208968635, 14.583120807421091 ], [ 121.150795845112143, 14.582671890025676 ], [ 121.150228964022062, 14.582186928167779 ], [ 121.149907840629979, 14.581901849237797 ], [ 121.149734171856736, 14.581760948157449 ], [ 121.149603101084494, 14.581672475386029 ], [ 121.149416325234128, 14.581623323846227 ], [ 121.149078817995758, 14.581547958151777 ], [ 121.148587302600163, 14.581511913688818 ], [ 121.148200643822264, 14.581433271225007 ], [ 121.14794505581645, 14.581351351992064 ], [ 121.147656700117508, 14.581131808448236 ], [ 121.147483031344152, 14.580918818443145 ], [ 121.147309362570752, 14.580643569821282 ], [ 121.147224166568662, 14.580401088892565 ], [ 121.147132417027876, 14.580178268579667 ], [ 121.14703083717923, 14.579955448266757 ], [ 121.146860445175207, 14.579739181492391 ], [ 121.146585196553602, 14.579647431951496 ], [ 121.146005208386782, 14.57958189656468 ], [ 121.145667701148327, 14.57947048640788 ], [ 121.145421943450359, 14.579290264095778 ], [ 121.144651902662829, 14.578307233303148 ], [ 121.144406144964805, 14.578090966528691 ], [ 121.144242306499422, 14.577900913908753 ], [ 121.143790112335353, 14.577773119905284 ], [ 121.143226508015175, 14.577764927981331 ], [ 121.143005326087206, 14.577820633059266 ], [ 121.142444998536476, 14.577994301831774 ], [ 121.135827562929848, 14.58000787656202 ], [ 121.132665480552802, 14.581013844734965 ], [ 121.130466768350857, 14.581698689517172 ], [ 121.128346698612091, 14.582373703991523 ], [ 121.116144009729339, 14.586191140217688 ], [ 121.114856239393347, 14.586587629302102 ], [ 121.113447228593074, 14.586856324383444 ], [ 121.110511243297609, 14.587433035777648 ], [ 121.108427218020935, 14.587839355168999 ], [ 121.107858698546906, 14.587975341094484 ], [ 121.104809664710572, 14.588689676799378 ], [ 121.102550332276195, 14.589186107346432 ], [ 121.101462444867593, 14.589371244810874 ], [ 121.101000420395835, 14.589413842811286 ], [ 121.100381110997489, 14.589487570119916 ], [ 121.095590474275909, 14.589898804661928 ], [ 121.093070638681667, 14.590118348202331 ], [ 121.091812359269184, 14.590249418973018 ], [ 121.089292523674871, 14.590432918051064 ], [ 121.087608264252907, 14.590603310052895 ], [ 121.086405689918621, 14.590711443438517 ], [ 121.085792934058858, 14.590747487900138 ], [ 121.084967188194256, 14.59068195251302 ], [ 121.083715462319972, 14.590459132198717 ], [ 121.082313005057685, 14.590157669420892 ], [ 121.08110715395371, 14.589931572337342 ], [ 121.080448523323568, 14.589869313719717 ], [ 121.079691589614384, 14.589836546025754 ], [ 121.078544720357968, 14.589728412637269 ], [ 121.07446841934383, 14.589453164010644 ], [ 121.067010492408059, 14.588941987989884 ], [ 121.064602066969684, 14.588755212136535 ], [ 121.064323541578915, 14.588797810137162 ], [ 121.063887731261588, 14.588850238445524 ], [ 121.063471581560208, 14.589053398141957 ], [ 121.062760522621971, 14.589626832769564 ], [ 121.061898732295916, 14.590370659400884 ], [ 121.061898722297357, 14.590370668926312 ], [ 121.060191535490389, 14.591894357125899 ], [ 121.059729511018986, 14.592264632056855 ] ] ] } }
]
}
