{
"type": "FeatureCollection",
"name": "LRT1_Alignment",
"crs": { "type": "name", "properties": { "name": "urn:ogc:def:crs:OGC:1.3:CRS84" } },
"features": [
{ "type": "Feature", "properties": { "fid": 1.0, "full_id": "r110418", "osm_id": "110418", "osm_type": "relation", "type": "route", "height": null, "circuits": null, "abandoned": null, "ferry": null, "abandoned_": null, "proposed_r": null, "contact_fa": null, "short_name": null, "planned_re": null, "planned_ra": null, "reservatio": null, "vehicle": null, "sidewalk_r": null, "status": null, "payment_gc": null, "year_of_co": null, "payment_ep": null, "proposed_1": null, "voltage_le": null, "structure": null, "nhn_class": null, "cycle_netw": null, "evacuation": null, "source_url": null, "name_tl": null, "constructi": null, "timestamp": null, "motor_vehi": null, "interval_c": null, "foot": null, "facebook": null, "check_date": null, "affiliatio": null, "passenger": null, "access": null, "reservat_1": null, "descriptio": null, "not_networ": null, "int_ref_co": null, "int_name": null, "service_ti": null, "state": null, "charge": null, "operator_t": null, "direction": null, "through": null, "start_date": null, "alt_name": null, "payment__1": null, "motor_ve_1": null, "bicycle_co": null, "bicycle": null, "distance": null, "detour": null, "destinatio": null, "payment__2": null, "internet_a": null, "internet_1": null, "duration": null, "sac_scale": null, "opening_ho": null, "interval": null, "fee": null, "network_wi": null, "name_desc": null, "operationa": null, "payment__3": null, "symbol": null, "owner": null, "int_ref": null, "brand": null, "mtb_type": null, "surveillan": null, "surveill_1": null, "payment_ca": null, "old_name": null, "official_n": null, "nat_name": null, "wires": null, "frequency": null, "cables": null, "disused_ro": null, "bus": null, "wheelchair": null, "via": null, "source_ref": null, "source_r_1": null, "smoking": null, "old_ref": null, "network__1": null, "osmc_symbo": null, "voltage": null, "operator_s": null, "related_la": null, "ref_colour": null, "roundtrip": null, "operator_w": "en:Light Rail Manila Corporation", "operator_1": "Q65087474", "website": "http://www.lrmc.com.ph", "wikipedia": null, "wikidata": "Q4165124", "to": "Dr. A. Santos", "route": "light_rail", "ref": "1", "public_tra": "2", "operator": "Light Rail Manila Corporation", "network": "Manila LRT", "name_zh": null, "name_ko": null, "name_ja": null, "name": "LRT Line 1: FPJ/Roosevelt → Dr. Santos", "from": "FPJ/Roosevelt", "colour": "#008000", "air_condit": "yes" }, "geometry": { "type": "MultiLineString", "coordinates": [ [ [ 120.989131389918725, 14.484822409414674 ], [ 120.989153589918743, 14.484811909414686 ], [ 120.989596789919361, 14.48569540941552 ], [ 120.989574489919391, 14.485705909415511 ], [ 120.989423489919176, 14.485404809415225 ], [ 120.989131389918725, 14.484822409414674 ] ], [ [ 121.031321190026318, 14.654100609546472 ], [ 121.030752490026615, 14.654969409546656 ], [ 121.030738090026617, 14.654991409546659 ] ], [ [ 121.030738090026617, 14.654991409546659 ], [ 121.030550490026698, 14.655283009546721 ], [ 121.030469990026774, 14.655406909546755 ], [ 121.030410090026791, 14.65549550954678 ], [ 121.030353290026795, 14.655571609546788 ], [ 121.030291790026794, 14.655629009546782 ], [ 121.030217690026831, 14.655688909546765 ], [ 121.030114290026816, 14.655749909546746 ], [ 121.030039390026815, 14.655788009546722 ], [ 121.029953590026835, 14.655823409546702 ], [ 121.029846590026764, 14.655862809546644 ], [ 121.029761890026776, 14.655885709546626 ], [ 121.028274390026482, 14.656223309545929 ], [ 121.026494890025972, 14.656416609544955 ] ], [ [ 121.026494890025972, 14.656416609544955 ], [ 121.026084290025864, 14.656502809544756 ], [ 121.023631490025323, 14.657055609543592 ], [ 121.023426490025301, 14.65710280954351 ], [ 121.022255790025071, 14.657372509542954 ], [ 121.021842790024962, 14.65745290954275 ], [ 121.021638390024918, 14.657487009542651 ], [ 121.020688090024663, 14.657621709542141 ] ], [ [ 121.020688090024663, 14.657621709542141 ], [ 121.020655990024636, 14.657625909542137 ], [ 121.020381290024559, 14.657662009541994 ], [ 121.020263390024553, 14.657668509541921 ], [ 121.019959090024443, 14.657677009541741 ], [ 121.01339249002217, 14.65758170953767 ], [ 121.013026090022052, 14.657574609537441 ], [ 121.012511590021859, 14.657569509537128 ], [ 121.008883490020622, 14.657509409534869 ], [ 121.006152490019645, 14.657462209533172 ], [ 121.005312490019378, 14.657449209532661 ], [ 121.003517190018741, 14.657422009531542 ] ], [ [ 121.003517190018741, 14.657422009531542 ], [ 121.00348109001871, 14.657421509531524 ], [ 120.998576490017044, 14.657346709528481 ], [ 120.990439590014233, 14.657245009523447 ], [ 120.990225290014124, 14.657240709523316 ], [ 120.985204190012396, 14.657167309520206 ], [ 120.985000690012285, 14.657148209520072 ], [ 120.98489969001227, 14.657130209519995 ], [ 120.9847775900122, 14.657102709519908 ], [ 120.984604790012114, 14.657047209519769 ], [ 120.984486590012068, 14.656992009519657 ], [ 120.984361890011968, 14.656914009519527 ], [ 120.984252390011903, 14.656828209519405 ], [ 120.984192190011825, 14.656756909519331 ], [ 120.984139490011756, 14.656687409519263 ], [ 120.984105590011723, 14.656632909519207 ], [ 120.984047590011627, 14.656526909519116 ], [ 120.984005790011551, 14.656422009519012 ], [ 120.983967990011507, 14.656311709518921 ], [ 120.983931990011413, 14.656134009518793 ], [ 120.983922990010967, 14.6553542095183 ], [ 120.983920690010834, 14.655153109518169 ], [ 120.983919090010772, 14.655020809518099 ], [ 120.983912990010751, 14.654975409518061 ], [ 120.983894590010721, 14.654914409518007 ], [ 120.983885590010658, 14.654847109517961 ], [ 120.983847790010088, 14.653833909517319 ] ], [ [ 120.983847790010088, 14.653833909517319 ], [ 120.983844990010027, 14.653756809517267 ], [ 120.9837060900079, 14.649948109514821 ], [ 120.983669290007128, 14.648604909513971 ], [ 120.983591690005952, 14.646451009512598 ], [ 120.983534490004786, 14.644425009511306 ], [ 120.983524890004645, 14.644163109511139 ], [ 120.983479190003919, 14.642835909510278 ], [ 120.983430390002979, 14.641261209509279 ], [ 120.983384890002327, 14.640050709508504 ], [ 120.983340290001564, 14.638771409507683 ], [ 120.983273490001309, 14.638346009507373 ], [ 120.983237690001275, 14.638201809507269 ], [ 120.983140490001048, 14.637892009507018 ], [ 120.982761490000456, 14.637076409506284 ], [ 120.982407589999895, 14.636329609505593 ], [ 120.982263689999712, 14.636025809505334 ], [ 120.98180038999898, 14.635019809504421 ], [ 120.981597989998718, 14.634606309504028 ], [ 120.981034689997827, 14.633384009502937 ], [ 120.980800089997445, 14.632887209502485 ], [ 120.980719589997321, 14.632674209502303 ], [ 120.980683589997184, 14.632449709502151 ], [ 120.980682789996862, 14.631903609501798 ], [ 120.980707189996792, 14.631743909501722 ], [ 120.980774389996725, 14.63153610950163 ], [ 120.980875589996614, 14.631278509501541 ], [ 120.981011689996535, 14.631076809501494 ], [ 120.981420489996424, 14.630606809501458 ], [ 120.982726989996081, 14.629205209501377 ], [ 120.982880989995991, 14.628933509501312 ], [ 120.982953389995927, 14.628767209501241 ], [ 120.982998789995847, 14.628595209501166 ], [ 120.98304388999567, 14.628249409500986 ], [ 120.983045889995594, 14.628110209500898 ], [ 120.982974489994106, 14.625468709499213 ], [ 120.982871689992592, 14.62282580949751 ], [ 120.982710789989483, 14.61719420949391 ], [ 120.982710689989133, 14.616665609493584 ], [ 120.982699789988942, 14.616292609493339 ], [ 120.982698089988901, 14.616235009493309 ], [ 120.982614089987834, 14.614282209492051 ], [ 120.982569189987188, 14.613178409491329 ], [ 120.982438189986013, 14.611120109489962 ], [ 120.982237189984573, 14.608675309488319 ], [ 120.982080389983295, 14.606451609486838 ], [ 120.981997789982657, 14.605346209486108 ], [ 120.981950589982162, 14.604498009485553 ], [ 120.981889189981572, 14.60346940948487 ], [ 120.981851489981082, 14.602541509484265 ], [ 120.981829389980945, 14.602325909484117 ], [ 120.981798189980807, 14.602110809483969 ], [ 120.981441189979421, 14.599815809482319 ], [ 120.981321989978952, 14.599027709481753 ], [ 120.98127638997876, 14.598696609481518 ], [ 120.981222389978598, 14.598499309481362 ], [ 120.981155289978517, 14.598341309481224 ], [ 120.981017989978312, 14.598034609480951 ], [ 120.980924289978105, 14.597809209480754 ], [ 120.980867489978039, 14.597618909480607 ], [ 120.980807589977871, 14.597388309480429 ], [ 120.980779889977754, 14.597173009480271 ], [ 120.980717889977356, 14.596499209479811 ], [ 120.98068308997712, 14.596089909479545 ], [ 120.980677789976966, 14.595851909479387 ], [ 120.980726489976874, 14.595603809479252 ], [ 120.980869289976653, 14.595151109479069 ], [ 120.981336389975951, 14.593561809478352 ], [ 120.981354089975923, 14.593501809478322 ], [ 120.981372189975886, 14.59345990947832 ], [ 120.981415289975828, 14.593360109478276 ], [ 120.981436289975832, 14.593311609478265 ], [ 120.981453689975794, 14.59327370947824 ], [ 120.981466489975801, 14.593236509478238 ], [ 120.981705389975446, 14.592446809477885 ], [ 120.981796189975299, 14.592146909477746 ], [ 120.981844789975199, 14.591936409477652 ], [ 120.981877089975086, 14.591715409477541 ], [ 120.981894589974971, 14.591459209477382 ], [ 120.981925489974714, 14.590978809477106 ], [ 120.981937989974625, 14.590773409476981 ], [ 120.981953689974461, 14.590514209476829 ], [ 120.982026889974264, 14.590068709476597 ], [ 120.982134689973861, 14.589285209476181 ], [ 120.982160889973727, 14.589058609476053 ], [ 120.982168589973611, 14.588828709475912 ], [ 120.982141089973467, 14.588576609475744 ], [ 120.982111289973346, 14.588368609475591 ], [ 120.982065689973226, 14.588165109475428 ], [ 120.982010789973032, 14.587919709475248 ], [ 120.981974989972912, 14.587695209475081 ], [ 120.981973089972854, 14.587558709474983 ], [ 120.981971689972809, 14.587464209474932 ], [ 120.981997289972682, 14.587285809474832 ], [ 120.982008589972679, 14.587207009474797 ], [ 120.982070589972594, 14.587012809474716 ], [ 120.982078289972549, 14.586988609474707 ], [ 120.982179789972449, 14.586767809474628 ], [ 120.982389889972339, 14.586417509474533 ], [ 120.982491789972286, 14.586252509474496 ], [ 120.982694089972171, 14.585910609474405 ], [ 120.984387189971073, 14.582905609473556 ], [ 120.984546489971009, 14.582622909473475 ], [ 120.985709389970239, 14.580559409472905 ], [ 120.987769889968959, 14.576976409471914 ], [ 120.987998589968825, 14.576579209471806 ], [ 120.988625689968458, 14.575489409471508 ], [ 120.991303889966716, 14.570700109470135 ], [ 120.991560589966525, 14.570214909469993 ], [ 120.991749989966365, 14.569857109469881 ], [ 120.994737289963851, 14.563460509467697 ], [ 120.994937689963692, 14.563032209467536 ], [ 120.995100889963567, 14.562681509467421 ], [ 120.995168289963487, 14.562517409467361 ], [ 120.995218289963418, 14.562348309467284 ], [ 120.995564589962768, 14.560930509466607 ], [ 120.996579789960663, 14.556511309464446 ], [ 120.997008789959793, 14.554643809463544 ], [ 120.99714438995953, 14.554053709463252 ], [ 120.997222689959315, 14.55371200946308 ], [ 120.998491989956747, 14.5482155094604 ], [ 120.998612589956494, 14.547684209460133 ], [ 120.998704689956298, 14.547280109459944 ], [ 120.999308489955055, 14.544628009458645 ], [ 121.000379589952814, 14.539930209456337 ], [ 121.000521489952547, 14.53930050945603 ], [ 121.000588389952384, 14.538951909455845 ], [ 121.000696689952107, 14.538379609455552 ] ], [ [ 121.000696689952107, 14.538379609455552 ], [ 121.000712989951964, 14.538157909455421 ], [ 121.000716789951881, 14.537980009455316 ], [ 121.000687089951711, 14.537719209455135 ], [ 121.000626489951586, 14.537486809454949 ], [ 121.000546189951407, 14.537277809454771 ], [ 121.000447289951296, 14.53707770945458 ], [ 121.000326189951139, 14.536890009454387 ], [ 120.999237189949937, 14.535429609452812 ] ], [ [ 120.999237189949937, 14.535429609452812 ], [ 120.998705989949428, 14.534751009452062 ] ], [ [ 120.998705989949428, 14.534751009452062 ], [ 120.998619189949309, 14.534641109451936 ], [ 120.998570289949257, 14.53457850945186 ] ], [ [ 120.998570289949257, 14.53457850945186 ], [ 120.998050189948728, 14.533913109451126 ], [ 120.998028889948714, 14.533885809451109 ] ], [ [ 120.998028889948714, 14.533885809451109 ], [ 120.997934589948571, 14.533765009450965 ], [ 120.997540089948174, 14.533264109450402 ], [ 120.996976089947623, 14.532542909449619 ], [ 120.996937389947561, 14.532500309449555 ], [ 120.996894789947532, 14.532453409449504 ], [ 120.99679978994746, 14.532386109449407 ], [ 120.996641389947357, 14.532306709449262 ], [ 120.996409989947267, 14.53225640944909 ], [ 120.993814389946309, 14.532108009447416 ], [ 120.99366888994625, 14.532083509447309 ], [ 120.993523289946182, 14.532043809447202 ], [ 120.99338648994609, 14.531993909447095 ], [ 120.993251189945994, 14.531918009446962 ], [ 120.993092489945894, 14.531786509446775 ], [ 120.99298788994578, 14.531660709446625 ], [ 120.992898189945635, 14.53147390944647 ], [ 120.992835989945505, 14.53126530944629 ], [ 120.992827789945366, 14.531046109446144 ], [ 120.992851689945297, 14.530847409446041 ] ], [ [ 120.992851689945297, 14.530847409446041 ], [ 120.992985189944719, 14.529736609445418 ], [ 120.992988489944693, 14.529709309445398 ], [ 120.99323968994365, 14.527631709444256 ], [ 120.993289889943412, 14.527231409444026 ], [ 120.993320589943224, 14.526838609443788 ], [ 120.993347989942947, 14.52629930944348 ], [ 120.993331589940723, 14.522283109440931 ], [ 120.993023989938763, 14.518902509438606 ] ], [ [ 120.993023989938763, 14.518902509438606 ], [ 120.992916489938253, 14.517991809437971 ], [ 120.992913389938238, 14.517965309437949 ] ], [ [ 120.992913389938238, 14.517965309437949 ], [ 120.992516789936019, 14.514241509435367 ], [ 120.99237478993534, 14.513092809434545 ], [ 120.99235308993525, 14.512936109434429 ], [ 120.992333489935177, 14.512805209434349 ], [ 120.992257989934899, 14.512346109434002 ], [ 120.992236789934836, 14.512223409433917 ], [ 120.992212989934771, 14.512103309433822 ], [ 120.991379489932754, 14.508967609431338 ] ], [ [ 120.991379489932754, 14.508967609431338 ], [ 120.991108989932059, 14.507883709430487 ], [ 120.991102089932056, 14.507856709430468 ] ], [ [ 120.991102089932056, 14.507856709430468 ], [ 120.990864489931511, 14.507034209429797 ], [ 120.990158489930351, 14.505324609428284 ], [ 120.989824089929797, 14.504531709427582 ], [ 120.98973768992964, 14.504272109427363 ], [ 120.989665989929449, 14.504011509427166 ], [ 120.989647889929287, 14.503742609426988 ], [ 120.989665789929148, 14.503468909426813 ], [ 120.989734689929023, 14.503210609426693 ], [ 120.989855189928932, 14.502933009426597 ], [ 120.99003848992885, 14.502717709426564 ], [ 120.990230389928826, 14.502513909426565 ], [ 120.990469789928824, 14.502344309426595 ], [ 120.99069978992884, 14.502232309426669 ], [ 120.990968689928891, 14.502148109426773 ], [ 120.99130128992897, 14.502103409426942 ], [ 120.992043089929211, 14.502076209427381 ], [ 120.992494489929328, 14.502055609427632 ], [ 120.992908389929411, 14.50200180942786 ], [ 120.993343289929484, 14.501829509428013 ], [ 120.993618289929501, 14.501652409428065 ], [ 120.993866689929462, 14.501413609428061 ], [ 120.994023789929386, 14.501206409428036 ], [ 120.994149089929323, 14.500976209427957 ], [ 120.994235089929205, 14.500748409427873 ], [ 120.994300689929091, 14.50049240942775 ], [ 120.99432388992895, 14.500199909427581 ], [ 120.994364889927965, 14.498466709426502 ], [ 120.994371189927747, 14.49800300942621 ] ], [ [ 120.994371189927747, 14.49800300942621 ], [ 120.994336089927515, 14.497653109425974 ], [ 120.994245289927377, 14.497394309425751 ], [ 120.994119689927174, 14.49715610942553 ], [ 120.993972289927029, 14.496960609425306 ], [ 120.993817389926875, 14.496788209425107 ], [ 120.993395889926504, 14.496346709424582 ], [ 120.992744089925878, 14.495607409423705 ], [ 120.992626789925751, 14.495419409423512 ], [ 120.992563389925635, 14.495276109423383 ], [ 120.992510489925522, 14.495137209423278 ], [ 120.992459889925442, 14.495009309423155 ], [ 120.991539389922124, 14.489540609419123 ], [ 120.991461689921877, 14.489146209418836 ], [ 120.991341989921651, 14.488809109418549 ], [ 120.991276889921579, 14.488684409418427 ], [ 120.990986789921251, 14.48827050941799 ], [ 120.990772989921012, 14.487952209417658 ], [ 120.990609489920814, 14.487699009417407 ], [ 120.990378989920515, 14.487258209416984 ], [ 120.98997348991989, 14.486418509416202 ], [ 120.989924989919814, 14.486317909416117 ] ], [ [ 120.989924989919814, 14.486317909416117 ], [ 120.989780289919594, 14.485928209415775 ] ], [ [ 120.989096589918589, 14.484554309414488 ], [ 120.989433189919041, 14.485233309415115 ], [ 120.989699489919445, 14.485758309415615 ], [ 120.989711389919478, 14.485783409415646 ], [ 120.989780289919594, 14.485928209415775 ] ] ] } },
{ "type": "Feature", "properties": { "fid": 2.0, "full_id": "r8000260", "osm_id": "8000260", "osm_type": "relation", "type": "route", "height": null, "circuits": null, "abandoned": null, "ferry": null, "abandoned_": null, "proposed_r": null, "contact_fa": null, "short_name": null, "planned_re": null, "planned_ra": null, "reservatio": null, "vehicle": null, "sidewalk_r": null, "status": null, "payment_gc": null, "year_of_co": null, "payment_ep": null, "proposed_1": null, "voltage_le": null, "structure": null, "nhn_class": null, "cycle_netw": null, "evacuation": null, "source_url": null, "name_tl": null, "constructi": null, "timestamp": null, "motor_vehi": null, "interval_c": null, "foot": null, "facebook": null, "check_date": null, "affiliatio": null, "passenger": null, "access": null, "reservat_1": null, "descriptio": null, "not_networ": null, "int_ref_co": null, "int_name": null, "service_ti": null, "state": null, "charge": null, "operator_t": null, "direction": null, "through": null, "start_date": null, "alt_name": null, "payment__1": null, "motor_ve_1": null, "bicycle_co": null, "bicycle": null, "distance": null, "detour": null, "destinatio": null, "payment__2": null, "internet_a": null, "internet_1": null, "duration": null, "sac_scale": null, "opening_ho": null, "interval": null, "fee": null, "network_wi": null, "name_desc": null, "operationa": null, "payment__3": null, "symbol": null, "owner": null, "int_ref": null, "brand": null, "mtb_type": null, "surveillan": null, "surveill_1": null, "payment_ca": null, "old_name": null, "official_n": null, "nat_name": null, "wires": null, "frequency": null, "cables": null, "disused_ro": null, "bus": null, "wheelchair": null, "via": null, "source_ref": null, "source_r_1": null, "smoking": null, "old_ref": null, "network__1": null, "osmc_symbo": null, "voltage": null, "operator_s": null, "related_la": null, "ref_colour": null, "roundtrip": null, "operator_w": "en:Light Rail Manila Corporation", "operator_1": "Q65087474", "website": "http://www.lrmc.com.ph", "wikipedia": null, "wikidata": "Q4165124", "to": "FPJ/Roosevelt", "route": "light_rail", "ref": "1", "public_tra": "2", "operator": "Light Rail Manila Corporation", "network": "Manila LRT", "name_zh": null, "name_ko": null, "name_ja": null, "name": "LRT Line 1: Dr. Santos → FPJ/Roosevelt", "from": "Dr. A. Santos", "colour": "#008000", "air_condit": "yes" }, "geometry": { "type": "MultiLineString", "coordinates": [ [ [ 120.989131389918725, 14.484822409414674 ], [ 120.989153589918743, 14.484811909414686 ], [ 120.989596789919361, 14.48569540941552 ], [ 120.989574489919391, 14.485705909415511 ], [ 120.989423489919176, 14.485404809415225 ], [ 120.989131389918725, 14.484822409414674 ] ], [ [ 120.998583589956795, 14.54823420946046 ], [ 120.998538289956798, 14.548224609460432 ], [ 120.998546989956765, 14.54818630946041 ], [ 120.998738889956357, 14.547340609459996 ], [ 120.998750189956311, 14.547290909459969 ], [ 120.998795489956336, 14.547300509460008 ], [ 120.998773089956373, 14.547399909460056 ], [ 120.998757089956413, 14.547470409460097 ], [ 120.998635289956667, 14.548007809460358 ], [ 120.998597189956755, 14.548174309460443 ], [ 120.998583589956795, 14.54823420946046 ] ], [ [ 120.997096889959835, 14.554663309463608 ], [ 120.997121089959776, 14.554557709463547 ], [ 120.997148189959717, 14.554439609463495 ], [ 120.997272589959437, 14.553897609463231 ], [ 120.997300789959397, 14.553775109463164 ], [ 120.997311089959382, 14.553730009463145 ], [ 120.997269289959334, 14.553721009463121 ], [ 120.997064889959802, 14.554611409463551 ], [ 120.997054989959821, 14.554654309463572 ], [ 120.99706498995981, 14.554656409463579 ], [ 120.997096889959835, 14.554663309463608 ] ], [ [ 120.994590489964054, 14.563877509467853 ], [ 120.994573989964053, 14.563912809467876 ], [ 120.994586489964064, 14.563918309467878 ], [ 120.994620889964082, 14.56393330946791 ], [ 120.994857789963902, 14.563427309467746 ], [ 120.994915989963829, 14.563299509467697 ], [ 120.994941689963838, 14.563244809467678 ], [ 120.995023289963754, 14.563071509467619 ], [ 120.99498898996373, 14.563056509467589 ], [ 120.994976389963725, 14.563051009467584 ], [ 120.994955989963756, 14.563094609467587 ], [ 120.994590489964054, 14.563877509467853 ] ], [ [ 120.991797289966428, 14.569870909469925 ], [ 120.991776389966418, 14.569910409469921 ], [ 120.991367189966709, 14.570683709470163 ], [ 120.991345489966719, 14.570724709470174 ], [ 120.991353689966715, 14.570728809470186 ], [ 120.991367089966758, 14.570735409470194 ], [ 120.991386789966754, 14.570745209470209 ], [ 120.991404289966724, 14.570712309470204 ], [ 120.991464289966714, 14.570598909470167 ], [ 120.991724089966525, 14.57010770947001 ], [ 120.991790089966472, 14.569983009469974 ], [ 120.991838589966434, 14.569891409469951 ], [ 120.991816289966422, 14.569880409469937 ], [ 120.991805089966377, 14.569874809469917 ], [ 120.991797289966428, 14.569870909469925 ] ], [ [ 120.988322189968713, 14.576204009471761 ], [ 120.988303189968718, 14.576193709471754 ], [ 120.988290389968711, 14.576186809471734 ], [ 120.988281089968709, 14.576181709471728 ], [ 120.988253089968694, 14.57623000947174 ], [ 120.987826089968976, 14.576967409471942 ], [ 120.98780958996899, 14.576995809471949 ], [ 120.987821389969, 14.577002209471967 ], [ 120.987834389968995, 14.57700930947197 ], [ 120.987850789969031, 14.577018109471988 ], [ 120.988089089968895, 14.576606709471875 ], [ 120.98814818996884, 14.576504509471846 ], [ 120.988322189968713, 14.576204009471761 ] ], [ [ 120.984416789971092, 14.582954209473606 ], [ 120.984432089971122, 14.582927209473612 ], [ 120.984862389970829, 14.582163809473398 ], [ 120.984887389970822, 14.582119509473376 ], [ 120.984893989970814, 14.582123009473381 ], [ 120.984919489970849, 14.582135709473391 ], [ 120.98493208997084, 14.582143109473417 ], [ 120.984920889970851, 14.582163009473422 ], [ 120.984851289970891, 14.58228660947346 ], [ 120.984529189971099, 14.582857909473624 ], [ 120.984472989971167, 14.582957509473649 ], [ 120.984461589971147, 14.582977809473647 ], [ 120.984448589971151, 14.582971909473642 ], [ 120.984416789971092, 14.582954209473606 ] ], [ [ 120.981499589979364, 14.599610109482231 ], [ 120.981490089979317, 14.599611409482232 ], [ 120.981469489979318, 14.599614209482221 ], [ 120.981462889979284, 14.599615209482206 ], [ 120.981330289978771, 14.598716309481562 ], [ 120.981367089978775, 14.59871130948159 ], [ 120.981398989978899, 14.598928009481751 ], [ 120.981468189979196, 14.599396909482081 ], [ 120.981499589979364, 14.599610109482231 ] ], [ [ 120.987283689915941, 14.480840209411028 ], [ 120.988273289917373, 14.482867509412911 ], [ 120.988915989918326, 14.484187909414143 ], [ 120.989051189918527, 14.484461209414407 ], [ 120.989096589918589, 14.484554309414488 ] ], [ [ 120.989096589918589, 14.484554309414488 ], [ 120.989433189919041, 14.485233309415115 ], [ 120.989699489919445, 14.485758309415615 ], [ 120.989711389919478, 14.485783409415646 ], [ 120.989780289919594, 14.485928209415775 ] ], [ [ 120.989780289919594, 14.485928209415775 ], [ 120.990407789920454, 14.487247509416989 ], [ 120.990640689920824, 14.487682309417403 ], [ 120.990803389921012, 14.487931009417665 ], [ 120.991013389921264, 14.488245709417997 ], [ 120.991303989921576, 14.488662309418434 ], [ 120.99137388992169, 14.488796309418557 ], [ 120.99149918992191, 14.489136009418855 ], [ 120.991575389922161, 14.489532109419139 ], [ 120.992499189925468, 14.495002909423178 ], [ 120.992546489925573, 14.495127509423281 ], [ 120.992597289925669, 14.4952621094234 ], [ 120.992653989925756, 14.495395009423524 ], [ 120.992770689925891, 14.495582409423708 ], [ 120.993417989926499, 14.496323709424564 ], [ 120.99384618992687, 14.496766209425111 ], [ 120.994006589927068, 14.496955409425329 ], [ 120.9941479899272, 14.497144009425535 ], [ 120.994279789927404, 14.497396709425772 ], [ 120.994368389927558, 14.497643709425983 ], [ 120.994412289927737, 14.497991809426228 ] ], [ [ 120.994412289927737, 14.497991809426228 ], [ 120.99441158992785, 14.498158109426329 ], [ 120.994383389928501, 14.499396209427101 ], [ 120.994365089928948, 14.500201309427601 ], [ 120.994338089929101, 14.500493909427766 ], [ 120.994273389929219, 14.500763609427901 ], [ 120.994194789929324, 14.500992609428003 ], [ 120.99405928992941, 14.501231109428058 ], [ 120.993905289929472, 14.501439609428113 ], [ 120.993646189929521, 14.501683909428101 ], [ 120.993373089929563, 14.501872909428061 ], [ 120.992913889929483, 14.502040809427873 ], [ 120.992499189929376, 14.502095709427671 ], [ 120.992050989929211, 14.502114309427407 ], [ 120.991301489928986, 14.502150509426979 ], [ 120.990974489928917, 14.502196809426811 ], [ 120.990708089928845, 14.502279209426694 ], [ 120.990480389928805, 14.502386709426629 ], [ 120.990258689928837, 14.502546409426595 ], [ 120.990085189928891, 14.502745209426612 ], [ 120.989901189928986, 14.502956709426641 ], [ 120.989786489929031, 14.503226309426735 ], [ 120.989720889929188, 14.503481109426859 ], [ 120.989701989929316, 14.503743609427017 ], [ 120.98971438992946, 14.504008209427189 ], [ 120.989777989929621, 14.504262209427385 ], [ 120.989871389929803, 14.504512809427597 ], [ 120.990195989930328, 14.505303809428298 ], [ 120.990896189931519, 14.507018709429811 ], [ 120.991131189932062, 14.507849909430485 ] ], [ [ 120.991131189932062, 14.507849909430485 ], [ 120.991403389932728, 14.508941109431333 ], [ 120.991408389932772, 14.508960809431352 ] ], [ [ 120.991408389932772, 14.508960809431352 ], [ 120.99224668993476, 14.512094809433833 ], [ 120.992271489934836, 14.512218409433935 ], [ 120.992293989934907, 14.512342809434026 ], [ 120.9923670899352, 14.512798609434354 ], [ 120.992389589935243, 14.512930809434453 ], [ 120.992410789935377, 14.513088909434559 ], [ 120.992550689936039, 14.514238109435377 ], [ 120.992950189938213, 14.517961209437974 ] ], [ [ 120.992950189938213, 14.517961209437974 ], [ 120.993058289938759, 14.518877009438611 ], [ 120.993060789938781, 14.518898409438625 ] ], [ [ 120.993060789938781, 14.518898409438625 ], [ 120.993369889940752, 14.522278209440948 ], [ 120.993383789942968, 14.526300009443496 ], [ 120.993360889943233, 14.526844409443816 ], [ 120.993325489943459, 14.527233509444041 ], [ 120.993276589943648, 14.527638309444271 ], [ 120.99302568994473, 14.529713009445421 ], [ 120.992892889945239, 14.530811309446037 ], [ 120.99288818994529, 14.530849909446067 ] ], [ [ 120.99288818994529, 14.530849909446067 ], [ 120.992863989945405, 14.531049909446173 ], [ 120.992871789945525, 14.531261409446307 ], [ 120.992934889945644, 14.531465209446475 ], [ 120.99302228994577, 14.531648209446645 ], [ 120.993120989945893, 14.53176140944678 ], [ 120.993270789946024, 14.53188650944695 ], [ 120.993400589946063, 14.531960809447071 ], [ 120.993532789946173, 14.532008709447183 ], [ 120.993674989946228, 14.532047409447294 ], [ 120.993816889946274, 14.532071309447403 ], [ 120.996413889947235, 14.532219809449069 ], [ 120.996651389947374, 14.532268409449248 ], [ 120.99681718994745, 14.532357509449392 ], [ 120.996917589947557, 14.532432609449511 ], [ 120.996961289947564, 14.532478009449562 ], [ 120.997005789947593, 14.532524309449627 ], [ 120.997706889948333, 14.533420309450616 ], [ 120.997827789948445, 14.533574709450777 ], [ 120.99805558994872, 14.533865509451106 ] ], [ [ 120.99805558994872, 14.533865509451106 ], [ 120.998597389949268, 14.534558609451866 ] ], [ [ 120.998597389949268, 14.534558609451866 ], [ 120.998646789949319, 14.534621909451939 ] ], [ [ 120.998646789949319, 14.534621909451939 ], [ 120.998735489949397, 14.534734609452059 ] ], [ [ 120.998735489949397, 14.534734609452059 ], [ 120.998851089949511, 14.534882609452227 ], [ 120.999089189949771, 14.535183309452565 ] ], [ [ 120.999089189949771, 14.535183309452565 ], [ 120.999148089949827, 14.53525470945263 ] ], [ [ 120.999148089949827, 14.53525470945263 ], [ 121.000354589951115, 14.536871309454398 ], [ 121.000478289951289, 14.537062509454586 ], [ 121.000578189951398, 14.537264809454774 ], [ 121.000658989951575, 14.537482909454965 ], [ 121.000719989951733, 14.537714009455149 ], [ 121.000751289951879, 14.537978809455332 ], [ 121.000747089951972, 14.538161809455445 ], [ 121.00073018995208, 14.538386709455571 ] ], [ [ 121.00073018995208, 14.538386709455571 ], [ 121.000683989952236, 14.538632309455693 ], [ 121.000623389952366, 14.538950609455867 ], [ 121.000555589952555, 14.539306809456054 ], [ 121.000411089952834, 14.539938309456357 ], [ 120.998647389956488, 14.547690209460166 ], [ 120.998525989956775, 14.548223709460425 ], [ 120.997257389959358, 14.553718209463103 ], [ 120.997178789959491, 14.554060109463267 ], [ 120.997042989959795, 14.554651509463556 ], [ 120.996513389960896, 14.556957009464689 ], [ 120.995598389962794, 14.560940309466627 ], [ 120.995251789963461, 14.562356509467305 ], [ 120.995201189963524, 14.562528109467387 ], [ 120.995132789963591, 14.562694909467448 ], [ 120.994770489963869, 14.563470809467711 ], [ 120.991780889966392, 14.569872709469902 ], [ 120.991590389966547, 14.570232909470011 ], [ 120.991333689966723, 14.570718009470161 ], [ 120.988655589968445, 14.575506509471529 ], [ 120.988026189968863, 14.576589209471821 ], [ 120.987794389968997, 14.576987909471944 ], [ 120.985739489970257, 14.58057700947292 ], [ 120.984581389971012, 14.582631909473509 ], [ 120.982723389972193, 14.585928609474429 ], [ 120.982522589972319, 14.586268509474522 ], [ 120.982424989972344, 14.586440109474577 ], [ 120.982211489972485, 14.586782209474649 ], [ 120.982110789972594, 14.587000309474735 ], [ 120.982043489972682, 14.587214009474829 ], [ 120.982006589972812, 14.587467209474957 ], [ 120.982010089972889, 14.5876927094751 ], [ 120.982045489973046, 14.587913709475256 ], [ 120.982145589973314, 14.588361309475602 ], [ 120.982176089973478, 14.588574709475759 ], [ 120.982203289973597, 14.588827709475924 ], [ 120.982195789973744, 14.589062609476073 ], [ 120.982169889973861, 14.5892896094762 ], [ 120.982061589974279, 14.590072309476621 ], [ 120.981988489974484, 14.590516209476847 ], [ 120.981960389974731, 14.590984309477134 ], [ 120.981947989974813, 14.591177809477241 ], [ 120.981929489975002, 14.591460609477409 ], [ 120.981912189975105, 14.591717909477557 ], [ 120.981878789975255, 14.591941609477683 ], [ 120.981830089975318, 14.592155909477775 ], [ 120.981532589975771, 14.593139309478218 ], [ 120.981500089975839, 14.593246909478257 ], [ 120.981466189975862, 14.593359209478304 ], [ 120.981397989976003, 14.593584309478407 ], [ 120.980893189976726, 14.595253209479143 ], [ 120.98078168997688, 14.595623909479302 ], [ 120.980741689976966, 14.595854909479428 ], [ 120.980723289977092, 14.596088509479559 ], [ 120.980814689977777, 14.597171409480286 ], [ 120.980841789977873, 14.597382209480436 ], [ 120.980901589978018, 14.597611009480618 ], [ 120.980957689978155, 14.597799009480763 ], [ 120.981050789978326, 14.598022909480962 ], [ 120.981186789978509, 14.598328209481229 ], [ 120.981255489978608, 14.598488509481378 ], [ 120.981310689978741, 14.598691109481537 ], [ 120.98147478997943, 14.59981140948233 ], [ 120.981832189980821, 14.602105909483992 ], [ 120.981863089980934, 14.602317109484131 ], [ 120.981884689981058, 14.602540409484286 ], [ 120.981914689981579, 14.603469709484882 ], [ 120.981985589982173, 14.604500009485571 ], [ 120.982046689982695, 14.605342909486136 ], [ 120.98248258998602, 14.611115309489991 ], [ 120.982607289987186, 14.613185909491357 ], [ 120.982742089989173, 14.616669509493608 ], [ 120.982742289989162, 14.616676809493613 ], [ 120.982913389992618, 14.622824709497527 ], [ 120.983005589993809, 14.624935209498897 ], [ 120.983075389995591, 14.628108009500915 ], [ 120.983027089995872, 14.628601109501192 ], [ 120.982959989995962, 14.628820409501284 ], [ 120.982765589996077, 14.629199309501406 ], [ 120.981461989996433, 14.630621609501487 ], [ 120.98103958999657, 14.631101609501524 ], [ 120.980910789996628, 14.631279409501564 ], [ 120.980804889996705, 14.631533709501642 ], [ 120.980743189996787, 14.631716709501733 ], [ 120.980703589996921, 14.631897009501815 ], [ 120.980716389997212, 14.632444609502169 ], [ 120.980753289997338, 14.632664109502327 ], [ 120.980833889997484, 14.632882009502511 ], [ 120.981055589997837, 14.633360709502933 ], [ 120.981758389998859, 14.634838709504281 ], [ 120.982308189999713, 14.636010509505342 ], [ 120.982336489999753, 14.636071809505399 ], [ 120.983175890001021, 14.637886709507036 ], [ 120.983311390001333, 14.638321409507382 ], [ 120.9833810900016, 14.638762609507701 ], [ 120.98358219000481, 14.644418809511331 ], [ 120.983627290005828, 14.646315009512525 ], [ 120.983922490010571, 14.654649309517866 ] ], [ [ 120.983922490010571, 14.654649309517866 ], [ 120.98392579001063, 14.654744009517925 ], [ 120.983929290010707, 14.654844509517995 ], [ 120.983938990010728, 14.65491060951803 ], [ 120.983949990010771, 14.654972709518077 ], [ 120.983956090010793, 14.655015609518118 ], [ 120.983961090010993, 14.655397109518351 ], [ 120.983968490011307, 14.655967709518706 ], [ 120.9839678900114, 14.656127909518814 ], [ 120.984003490011503, 14.656289909518936 ], [ 120.984048990011615, 14.656403609519039 ], [ 120.984089590011664, 14.656510409519113 ], [ 120.984137490011733, 14.656619009519204 ], [ 120.984170690011808, 14.656673109519268 ], [ 120.984221190011809, 14.656739509519337 ], [ 120.984285690011902, 14.656809109519418 ], [ 120.984385590011939, 14.65689180951953 ], [ 120.984511090012049, 14.656966709519663 ], [ 120.984620890012096, 14.657013609519749 ], [ 120.984799390012213, 14.657072409519895 ], [ 120.985002490012292, 14.657117809520052 ], [ 120.985205690012364, 14.657134109520188 ], [ 120.989864990014013, 14.657192809523064 ], [ 120.990224090014124, 14.657199709523292 ], [ 120.990439790014179, 14.657202609523411 ], [ 120.998577190017002, 14.657311209528459 ], [ 121.004372790019005, 14.65739920953205 ] ], [ [ 121.004372790019005, 14.65739920953205 ], [ 121.004406390019028, 14.657399709532076 ], [ 121.005583390019453, 14.657417109532808 ], [ 121.006156690019651, 14.65742770953316 ], [ 121.008884390020597, 14.657474109534849 ], [ 121.012513090021855, 14.657533409537109 ], [ 121.013025790021999, 14.657539909537423 ], [ 121.013393090022149, 14.657545109537658 ], [ 121.019958890024427, 14.657631009541712 ], [ 121.02024999002451, 14.657624609541886 ], [ 121.020372590024564, 14.657614309541954 ], [ 121.02158559002487, 14.657455109542601 ] ], [ [ 121.02158559002487, 14.657455109542601 ], [ 121.021618790024888, 14.65745040954261 ], [ 121.021836090024948, 14.657419509542731 ], [ 121.022240890025031, 14.657332609542916 ], [ 121.023419790025272, 14.657064809543471 ], [ 121.026483790025964, 14.656369009544916 ] ], [ [ 121.026483790025964, 14.656369009544916 ], [ 121.026894090026047, 14.656327909545141 ] ] ] } },
{ "type": "Feature", "properties": { "fid": 3.0, "full_id": "r10463194", "osm_id": "10463194", "osm_type": "relation", "type": "route", "height": null, "circuits": null, "abandoned": null, "ferry": null, "abandoned_": null, "proposed_r": null, "contact_fa": null, "short_name": null, "planned_re": null, "planned_ra": null, "reservatio": null, "vehicle": null, "sidewalk_r": null, "status": null, "payment_gc": null, "year_of_co": null, "payment_ep": null, "proposed_1": null, "voltage_le": null, "structure": null, "nhn_class": null, "cycle_netw": null, "evacuation": null, "source_url": null, "name_tl": null, "constructi": null, "timestamp": null, "motor_vehi": null, "interval_c": null, "foot": null, "facebook": null, "check_date": null, "affiliatio": null, "passenger": null, "access": null, "reservat_1": null, "descriptio": null, "not_networ": null, "int_ref_co": null, "int_name": null, "service_ti": null, "state": null, "charge": null, "operator_t": null, "direction": null, "through": null, "start_date": null, "alt_name": null, "payment__1": null, "motor_ve_1": null, "bicycle_co": null, "bicycle": null, "distance": null, "detour": null, "destinatio": null, "payment__2": null, "internet_a": null, "internet_1": null, "duration": null, "sac_scale": null, "opening_ho": null, "interval": null, "fee": null, "network_wi": null, "name_desc": null, "operationa": null, "payment__3": null, "symbol": null, "owner": null, "int_ref": null, "brand": null, "mtb_type": null, "surveillan": null, "surveill_1": null, "payment_ca": null, "old_name": null, "official_n": null, "nat_name": null, "wires": null, "frequency": null, "cables": null, "disused_ro": null, "bus": null, "wheelchair": null, "via": null, "source_ref": null, "source_r_1": null, "smoking": null, "old_ref": null, "network__1": null, "osmc_symbo": null, "voltage": null, "operator_s": null, "related_la": null, "ref_colour": null, "roundtrip": null, "operator_w": "en:Light Rail Manila Corporation", "operator_1": "Q65087474", "website": "http://www.lrmc.com.ph", "wikipedia": null, "wikidata": "Q4165124", "to": "Dr. A. Santos", "route": "light_rail", "ref": "1", "public_tra": "2", "operator": "Light Rail Manila Corporation", "network": "Manila LRT", "name_zh": null, "name_ko": null, "name_ja": null, "name": "LRT Line 1: Monumento → Dr. Santos", "from": "Monumento", "colour": "#008000", "air_condit": "yes" }, "geometry": { "type": "MultiLineString", "coordinates": [ [ [ 120.989131389918725, 14.484822409414674 ], [ 120.989153589918743, 14.484811909414686 ], [ 120.989596789919361, 14.48569540941552 ], [ 120.989574489919391, 14.485705909415511 ], [ 120.989423489919176, 14.485404809415225 ], [ 120.989131389918725, 14.484822409414674 ] ], [ [ 120.983847790010088, 14.653833909517319 ], [ 120.983844990010027, 14.653756809517267 ], [ 120.9837060900079, 14.649948109514821 ], [ 120.983669290007128, 14.648604909513971 ], [ 120.983591690005952, 14.646451009512598 ], [ 120.983534490004786, 14.644425009511306 ], [ 120.983524890004645, 14.644163109511139 ], [ 120.983479190003919, 14.642835909510278 ], [ 120.983430390002979, 14.641261209509279 ], [ 120.983384890002327, 14.640050709508504 ], [ 120.983340290001564, 14.638771409507683 ], [ 120.983273490001309, 14.638346009507373 ], [ 120.983237690001275, 14.638201809507269 ], [ 120.983140490001048, 14.637892009507018 ], [ 120.982761490000456, 14.637076409506284 ], [ 120.982407589999895, 14.636329609505593 ], [ 120.982263689999712, 14.636025809505334 ], [ 120.98180038999898, 14.635019809504421 ], [ 120.981597989998718, 14.634606309504028 ], [ 120.981034689997827, 14.633384009502937 ], [ 120.980800089997445, 14.632887209502485 ], [ 120.980719589997321, 14.632674209502303 ], [ 120.980683589997184, 14.632449709502151 ], [ 120.980682789996862, 14.631903609501798 ], [ 120.980707189996792, 14.631743909501722 ], [ 120.980774389996725, 14.63153610950163 ], [ 120.980875589996614, 14.631278509501541 ], [ 120.981011689996535, 14.631076809501494 ], [ 120.981420489996424, 14.630606809501458 ], [ 120.982726989996081, 14.629205209501377 ], [ 120.982880989995991, 14.628933509501312 ], [ 120.982953389995927, 14.628767209501241 ], [ 120.982998789995847, 14.628595209501166 ], [ 120.98304388999567, 14.628249409500986 ], [ 120.983045889995594, 14.628110209500898 ], [ 120.982974489994106, 14.625468709499213 ], [ 120.982871689992592, 14.62282580949751 ], [ 120.982710789989483, 14.61719420949391 ], [ 120.982710689989133, 14.616665609493584 ], [ 120.982699789988942, 14.616292609493339 ], [ 120.982698089988901, 14.616235009493309 ], [ 120.982614089987834, 14.614282209492051 ], [ 120.982569189987188, 14.613178409491329 ], [ 120.982438189986013, 14.611120109489962 ], [ 120.982237189984573, 14.608675309488319 ], [ 120.982080389983295, 14.606451609486838 ], [ 120.981997789982657, 14.605346209486108 ], [ 120.981950589982162, 14.604498009485553 ], [ 120.981889189981572, 14.60346940948487 ], [ 120.981851489981082, 14.602541509484265 ], [ 120.981829389980945, 14.602325909484117 ], [ 120.981798189980807, 14.602110809483969 ], [ 120.981441189979421, 14.599815809482319 ], [ 120.981321989978952, 14.599027709481753 ], [ 120.98127638997876, 14.598696609481518 ], [ 120.981222389978598, 14.598499309481362 ], [ 120.981155289978517, 14.598341309481224 ], [ 120.981017989978312, 14.598034609480951 ], [ 120.980924289978105, 14.597809209480754 ], [ 120.980867489978039, 14.597618909480607 ], [ 120.980807589977871, 14.597388309480429 ], [ 120.980779889977754, 14.597173009480271 ], [ 120.980717889977356, 14.596499209479811 ], [ 120.98068308997712, 14.596089909479545 ], [ 120.980677789976966, 14.595851909479387 ], [ 120.980726489976874, 14.595603809479252 ], [ 120.980869289976653, 14.595151109479069 ], [ 120.981336389975951, 14.593561809478352 ], [ 120.981354089975923, 14.593501809478322 ], [ 120.981372189975886, 14.59345990947832 ], [ 120.981415289975828, 14.593360109478276 ], [ 120.981436289975832, 14.593311609478265 ], [ 120.981453689975794, 14.59327370947824 ], [ 120.981466489975801, 14.593236509478238 ], [ 120.981705389975446, 14.592446809477885 ], [ 120.981796189975299, 14.592146909477746 ], [ 120.981844789975199, 14.591936409477652 ], [ 120.981877089975086, 14.591715409477541 ], [ 120.981894589974971, 14.591459209477382 ], [ 120.981925489974714, 14.590978809477106 ], [ 120.981937989974625, 14.590773409476981 ], [ 120.981953689974461, 14.590514209476829 ], [ 120.982026889974264, 14.590068709476597 ], [ 120.982134689973861, 14.589285209476181 ], [ 120.982160889973727, 14.589058609476053 ], [ 120.982168589973611, 14.588828709475912 ], [ 120.982141089973467, 14.588576609475744 ], [ 120.982111289973346, 14.588368609475591 ], [ 120.982065689973226, 14.588165109475428 ], [ 120.982010789973032, 14.587919709475248 ], [ 120.981974989972912, 14.587695209475081 ], [ 120.981973089972854, 14.587558709474983 ], [ 120.981971689972809, 14.587464209474932 ], [ 120.981997289972682, 14.587285809474832 ], [ 120.982008589972679, 14.587207009474797 ], [ 120.982070589972594, 14.587012809474716 ], [ 120.982078289972549, 14.586988609474707 ], [ 120.982179789972449, 14.586767809474628 ], [ 120.982389889972339, 14.586417509474533 ], [ 120.982491789972286, 14.586252509474496 ], [ 120.982694089972171, 14.585910609474405 ], [ 120.984387189971073, 14.582905609473556 ], [ 120.984546489971009, 14.582622909473475 ], [ 120.985709389970239, 14.580559409472905 ], [ 120.987769889968959, 14.576976409471914 ], [ 120.987998589968825, 14.576579209471806 ], [ 120.988625689968458, 14.575489409471508 ], [ 120.991303889966716, 14.570700109470135 ], [ 120.991560589966525, 14.570214909469993 ], [ 120.991749989966365, 14.569857109469881 ], [ 120.994737289963851, 14.563460509467697 ], [ 120.994937689963692, 14.563032209467536 ], [ 120.995100889963567, 14.562681509467421 ], [ 120.995168289963487, 14.562517409467361 ], [ 120.995218289963418, 14.562348309467284 ], [ 120.995564589962768, 14.560930509466607 ], [ 120.996579789960663, 14.556511309464446 ], [ 120.997008789959793, 14.554643809463544 ], [ 120.99714438995953, 14.554053709463252 ], [ 120.997222689959315, 14.55371200946308 ], [ 120.998491989956747, 14.5482155094604 ], [ 120.998612589956494, 14.547684209460133 ], [ 120.998704689956298, 14.547280109459944 ], [ 120.999308489955055, 14.544628009458645 ], [ 121.000379589952814, 14.539930209456337 ], [ 121.000521489952547, 14.53930050945603 ], [ 121.000588389952384, 14.538951909455845 ], [ 121.000696689952107, 14.538379609455552 ] ], [ [ 121.000696689952107, 14.538379609455552 ], [ 121.000712989951964, 14.538157909455421 ], [ 121.000716789951881, 14.537980009455316 ], [ 121.000687089951711, 14.537719209455135 ], [ 121.000626489951586, 14.537486809454949 ], [ 121.000546189951407, 14.537277809454771 ], [ 121.000447289951296, 14.53707770945458 ], [ 121.000326189951139, 14.536890009454387 ], [ 120.999237189949937, 14.535429609452812 ] ], [ [ 120.999237189949937, 14.535429609452812 ], [ 120.998705989949428, 14.534751009452062 ] ], [ [ 120.998705989949428, 14.534751009452062 ], [ 120.998619189949309, 14.534641109451936 ], [ 120.998570289949257, 14.53457850945186 ] ], [ [ 120.998570289949257, 14.53457850945186 ], [ 120.998050189948728, 14.533913109451126 ], [ 120.998028889948714, 14.533885809451109 ] ], [ [ 120.998028889948714, 14.533885809451109 ], [ 120.997934589948571, 14.533765009450965 ], [ 120.997540089948174, 14.533264109450402 ], [ 120.996976089947623, 14.532542909449619 ], [ 120.996937389947561, 14.532500309449555 ], [ 120.996894789947532, 14.532453409449504 ], [ 120.99679978994746, 14.532386109449407 ], [ 120.996641389947357, 14.532306709449262 ], [ 120.996409989947267, 14.53225640944909 ], [ 120.993814389946309, 14.532108009447416 ], [ 120.99366888994625, 14.532083509447309 ], [ 120.993523289946182, 14.532043809447202 ], [ 120.99338648994609, 14.531993909447095 ], [ 120.993251189945994, 14.531918009446962 ], [ 120.993092489945894, 14.531786509446775 ], [ 120.99298788994578, 14.531660709446625 ], [ 120.992898189945635, 14.53147390944647 ], [ 120.992835989945505, 14.53126530944629 ], [ 120.992827789945366, 14.531046109446144 ], [ 120.992851689945297, 14.530847409446041 ] ], [ [ 120.992851689945297, 14.530847409446041 ], [ 120.992985189944719, 14.529736609445418 ], [ 120.992988489944693, 14.529709309445398 ], [ 120.99323968994365, 14.527631709444256 ], [ 120.993289889943412, 14.527231409444026 ], [ 120.993320589943224, 14.526838609443788 ], [ 120.993347989942947, 14.52629930944348 ], [ 120.993331589940723, 14.522283109440931 ], [ 120.993023989938763, 14.518902509438606 ] ], [ [ 120.993023989938763, 14.518902509438606 ], [ 120.992916489938253, 14.517991809437971 ], [ 120.992913389938238, 14.517965309437949 ] ], [ [ 120.992913389938238, 14.517965309437949 ], [ 120.992516789936019, 14.514241509435367 ], [ 120.99237478993534, 14.513092809434545 ], [ 120.99235308993525, 14.512936109434429 ], [ 120.992333489935177, 14.512805209434349 ], [ 120.992257989934899, 14.512346109434002 ], [ 120.992236789934836, 14.512223409433917 ], [ 120.992212989934771, 14.512103309433822 ], [ 120.991379489932754, 14.508967609431338 ] ], [ [ 120.991379489932754, 14.508967609431338 ], [ 120.991108989932059, 14.507883709430487 ], [ 120.991102089932056, 14.507856709430468 ] ], [ [ 120.991102089932056, 14.507856709430468 ], [ 120.990864489931511, 14.507034209429797 ], [ 120.990158489930351, 14.505324609428284 ], [ 120.989824089929797, 14.504531709427582 ], [ 120.98973768992964, 14.504272109427363 ], [ 120.989665989929449, 14.504011509427166 ], [ 120.989647889929287, 14.503742609426988 ], [ 120.989665789929148, 14.503468909426813 ], [ 120.989734689929023, 14.503210609426693 ], [ 120.989855189928932, 14.502933009426597 ], [ 120.99003848992885, 14.502717709426564 ], [ 120.990230389928826, 14.502513909426565 ], [ 120.990469789928824, 14.502344309426595 ], [ 120.99069978992884, 14.502232309426669 ], [ 120.990968689928891, 14.502148109426773 ], [ 120.99130128992897, 14.502103409426942 ], [ 120.992043089929211, 14.502076209427381 ], [ 120.992494489929328, 14.502055609427632 ], [ 120.992908389929411, 14.50200180942786 ], [ 120.993343289929484, 14.501829509428013 ], [ 120.993618289929501, 14.501652409428065 ], [ 120.993866689929462, 14.501413609428061 ], [ 120.994023789929386, 14.501206409428036 ], [ 120.994149089929323, 14.500976209427957 ], [ 120.994235089929205, 14.500748409427873 ], [ 120.994300689929091, 14.50049240942775 ], [ 120.99432388992895, 14.500199909427581 ], [ 120.994364889927965, 14.498466709426502 ], [ 120.994371189927747, 14.49800300942621 ] ], [ [ 120.994371189927747, 14.49800300942621 ], [ 120.994336089927515, 14.497653109425974 ], [ 120.994245289927377, 14.497394309425751 ], [ 120.994119689927174, 14.49715610942553 ], [ 120.993972289927029, 14.496960609425306 ], [ 120.993817389926875, 14.496788209425107 ], [ 120.993395889926504, 14.496346709424582 ], [ 120.992744089925878, 14.495607409423705 ], [ 120.992626789925751, 14.495419409423512 ], [ 120.992563389925635, 14.495276109423383 ], [ 120.992510489925522, 14.495137209423278 ], [ 120.992459889925442, 14.495009309423155 ], [ 120.991539389922124, 14.489540609419123 ], [ 120.991461689921877, 14.489146209418836 ], [ 120.991341989921651, 14.488809109418549 ], [ 120.991276889921579, 14.488684409418427 ], [ 120.990986789921251, 14.48827050941799 ], [ 120.990772989921012, 14.487952209417658 ], [ 120.990609489920814, 14.487699009417407 ], [ 120.990378989920515, 14.487258209416984 ], [ 120.98997348991989, 14.486418509416202 ], [ 120.989924989919814, 14.486317909416117 ] ], [ [ 120.989924989919814, 14.486317909416117 ], [ 120.989780289919594, 14.485928209415775 ] ], [ [ 120.989096589918589, 14.484554309414488 ], [ 120.989433189919041, 14.485233309415115 ], [ 120.989699489919445, 14.485758309415615 ], [ 120.989711389919478, 14.485783409415646 ], [ 120.989780289919594, 14.485928209415775 ] ] ] } },
{ "type": "Feature", "properties": { "fid": 4.0, "full_id": "r10463195", "osm_id": "10463195", "osm_type": "relation", "type": "route", "height": null, "circuits": null, "abandoned": null, "ferry": null, "abandoned_": null, "proposed_r": null, "contact_fa": null, "short_name": null, "planned_re": null, "planned_ra": null, "reservatio": null, "vehicle": null, "sidewalk_r": null, "status": null, "payment_gc": null, "year_of_co": null, "payment_ep": null, "proposed_1": null, "voltage_le": null, "structure": null, "nhn_class": null, "cycle_netw": null, "evacuation": null, "source_url": null, "name_tl": null, "constructi": null, "timestamp": null, "motor_vehi": null, "interval_c": null, "foot": null, "facebook": null, "check_date": null, "affiliatio": null, "passenger": null, "access": null, "reservat_1": null, "descriptio": null, "not_networ": null, "int_ref_co": null, "int_name": null, "service_ti": null, "state": null, "charge": null, "operator_t": null, "direction": null, "through": null, "start_date": null, "alt_name": null, "payment__1": null, "motor_ve_1": null, "bicycle_co": null, "bicycle": null, "distance": null, "detour": null, "destinatio": null, "payment__2": null, "internet_a": null, "internet_1": null, "duration": null, "sac_scale": null, "opening_ho": null, "interval": null, "fee": null, "network_wi": null, "name_desc": null, "operationa": null, "payment__3": null, "symbol": null, "owner": null, "int_ref": null, "brand": null, "mtb_type": null, "surveillan": null, "surveill_1": null, "payment_ca": null, "old_name": null, "official_n": null, "nat_name": null, "wires": null, "frequency": null, "cables": null, "disused_ro": null, "bus": null, "wheelchair": null, "via": null, "source_ref": null, "source_r_1": null, "smoking": null, "old_ref": null, "network__1": null, "osmc_symbo": null, "voltage": null, "operator_s": null, "related_la": null, "ref_colour": null, "roundtrip": null, "operator_w": "en:Light Rail Manila Corporation", "operator_1": "Q65087474", "website": "http://www.lrmc.com.ph", "wikipedia": null, "wikidata": "Q4165124", "to": "Monumento", "route": "light_rail", "ref": "1", "public_tra": "2", "operator": "Light Rail Manila Corporation", "network": "Manila LRT", "name_zh": null, "name_ko": null, "name_ja": null, "name": "LRT Line 1: Dr. Santos → Monumento", "from": "Dr. A. Santos", "colour": "#008000", "air_condit": "yes" }, "geometry": { "type": "MultiLineString", "coordinates": [ [ [ 120.989131389918725, 14.484822409414674 ], [ 120.989153589918743, 14.484811909414686 ], [ 120.989596789919361, 14.48569540941552 ], [ 120.989574489919391, 14.485705909415511 ], [ 120.989423489919176, 14.485404809415225 ], [ 120.989131389918725, 14.484822409414674 ] ], [ [ 120.998064989948702, 14.533858509451109 ], [ 120.998072889948702, 14.533852609451099 ], [ 120.9980769899487, 14.533849609451106 ], [ 120.998131189948722, 14.533809709451118 ], [ 120.998138889948706, 14.533804109451111 ], [ 120.998730989949294, 14.534560509451952 ], [ 120.998665389949309, 14.534608709451943 ], [ 120.998657289949321, 14.53461460945195 ], [ 120.998607589949245, 14.534551109451867 ], [ 120.998064989948702, 14.533858509451109 ] ], [ [ 120.998583589956795, 14.54823420946046 ], [ 120.998538289956798, 14.548224609460432 ], [ 120.998546989956765, 14.54818630946041 ], [ 120.998738889956357, 14.547340609459996 ], [ 120.998750189956311, 14.547290909459969 ], [ 120.998795489956336, 14.547300509460008 ], [ 120.998773089956373, 14.547399909460056 ], [ 120.998757089956413, 14.547470409460097 ], [ 120.998635289956667, 14.548007809460358 ], [ 120.998597189956755, 14.548174309460443 ], [ 120.998583589956795, 14.54823420946046 ] ], [ [ 120.997096889959835, 14.554663309463608 ], [ 120.997121089959776, 14.554557709463547 ], [ 120.997148189959717, 14.554439609463495 ], [ 120.997272589959437, 14.553897609463231 ], [ 120.997300789959397, 14.553775109463164 ], [ 120.997311089959382, 14.553730009463145 ], [ 120.997269289959334, 14.553721009463121 ], [ 120.997064889959802, 14.554611409463551 ], [ 120.997054989959821, 14.554654309463572 ], [ 120.99706498995981, 14.554656409463579 ], [ 120.997096889959835, 14.554663309463608 ] ], [ [ 120.994590489964054, 14.563877509467853 ], [ 120.994573989964053, 14.563912809467876 ], [ 120.994586489964064, 14.563918309467878 ], [ 120.994620889964082, 14.56393330946791 ], [ 120.994857789963902, 14.563427309467746 ], [ 120.994915989963829, 14.563299509467697 ], [ 120.994941689963838, 14.563244809467678 ], [ 120.995023289963754, 14.563071509467619 ], [ 120.99498898996373, 14.563056509467589 ], [ 120.994976389963725, 14.563051009467584 ], [ 120.994955989963756, 14.563094609467587 ], [ 120.994590489964054, 14.563877509467853 ] ], [ [ 120.991797289966428, 14.569870909469925 ], [ 120.991776389966418, 14.569910409469921 ], [ 120.991367189966709, 14.570683709470163 ], [ 120.991345489966719, 14.570724709470174 ], [ 120.991353689966715, 14.570728809470186 ], [ 120.991367089966758, 14.570735409470194 ], [ 120.991386789966754, 14.570745209470209 ], [ 120.991404289966724, 14.570712309470204 ], [ 120.991464289966714, 14.570598909470167 ], [ 120.991724089966525, 14.57010770947001 ], [ 120.991790089966472, 14.569983009469974 ], [ 120.991838589966434, 14.569891409469951 ], [ 120.991816289966422, 14.569880409469937 ], [ 120.991805089966377, 14.569874809469917 ], [ 120.991797289966428, 14.569870909469925 ] ], [ [ 120.988322189968713, 14.576204009471761 ], [ 120.988303189968718, 14.576193709471754 ], [ 120.988290389968711, 14.576186809471734 ], [ 120.988281089968709, 14.576181709471728 ], [ 120.988253089968694, 14.57623000947174 ], [ 120.987826089968976, 14.576967409471942 ], [ 120.98780958996899, 14.576995809471949 ], [ 120.987821389969, 14.577002209471967 ], [ 120.987834389968995, 14.57700930947197 ], [ 120.987850789969031, 14.577018109471988 ], [ 120.988089089968895, 14.576606709471875 ], [ 120.98814818996884, 14.576504509471846 ], [ 120.988322189968713, 14.576204009471761 ] ], [ [ 120.984416789971092, 14.582954209473606 ], [ 120.984432089971122, 14.582927209473612 ], [ 120.984862389970829, 14.582163809473398 ], [ 120.984887389970822, 14.582119509473376 ], [ 120.984893989970814, 14.582123009473381 ], [ 120.984919489970849, 14.582135709473391 ], [ 120.98493208997084, 14.582143109473417 ], [ 120.984920889970851, 14.582163009473422 ], [ 120.984851289970891, 14.58228660947346 ], [ 120.984529189971099, 14.582857909473624 ], [ 120.984472989971167, 14.582957509473649 ], [ 120.984461589971147, 14.582977809473647 ], [ 120.984448589971151, 14.582971909473642 ], [ 120.984416789971092, 14.582954209473606 ] ], [ [ 120.981499589979364, 14.599610109482231 ], [ 120.981490089979317, 14.599611409482232 ], [ 120.981469489979318, 14.599614209482221 ], [ 120.981462889979284, 14.599615209482206 ], [ 120.981330289978771, 14.598716309481562 ], [ 120.981367089978775, 14.59871130948159 ], [ 120.981398989978899, 14.598928009481751 ], [ 120.981468189979196, 14.599396909482081 ], [ 120.981499589979364, 14.599610109482231 ] ], [ [ 120.987283689915941, 14.480840209411028 ], [ 120.988273289917373, 14.482867509412911 ], [ 120.988915989918326, 14.484187909414143 ], [ 120.989051189918527, 14.484461209414407 ], [ 120.989096589918589, 14.484554309414488 ] ], [ [ 120.989096589918589, 14.484554309414488 ], [ 120.989433189919041, 14.485233309415115 ], [ 120.989699489919445, 14.485758309415615 ], [ 120.989711389919478, 14.485783409415646 ], [ 120.989780289919594, 14.485928209415775 ] ], [ [ 120.989780289919594, 14.485928209415775 ], [ 120.990407789920454, 14.487247509416989 ], [ 120.990640689920824, 14.487682309417403 ], [ 120.990803389921012, 14.487931009417665 ], [ 120.991013389921264, 14.488245709417997 ], [ 120.991303989921576, 14.488662309418434 ], [ 120.99137388992169, 14.488796309418557 ], [ 120.99149918992191, 14.489136009418855 ], [ 120.991575389922161, 14.489532109419139 ], [ 120.992499189925468, 14.495002909423178 ], [ 120.992546489925573, 14.495127509423281 ], [ 120.992597289925669, 14.4952621094234 ], [ 120.992653989925756, 14.495395009423524 ], [ 120.992770689925891, 14.495582409423708 ], [ 120.993417989926499, 14.496323709424564 ], [ 120.99384618992687, 14.496766209425111 ], [ 120.994006589927068, 14.496955409425329 ], [ 120.9941479899272, 14.497144009425535 ], [ 120.994279789927404, 14.497396709425772 ], [ 120.994368389927558, 14.497643709425983 ], [ 120.994412289927737, 14.497991809426228 ] ], [ [ 120.994412289927737, 14.497991809426228 ], [ 120.99441158992785, 14.498158109426329 ], [ 120.994383389928501, 14.499396209427101 ], [ 120.994365089928948, 14.500201309427601 ], [ 120.994338089929101, 14.500493909427766 ], [ 120.994273389929219, 14.500763609427901 ], [ 120.994194789929324, 14.500992609428003 ], [ 120.99405928992941, 14.501231109428058 ], [ 120.993905289929472, 14.501439609428113 ], [ 120.993646189929521, 14.501683909428101 ], [ 120.993373089929563, 14.501872909428061 ], [ 120.992913889929483, 14.502040809427873 ], [ 120.992499189929376, 14.502095709427671 ], [ 120.992050989929211, 14.502114309427407 ], [ 120.991301489928986, 14.502150509426979 ], [ 120.990974489928917, 14.502196809426811 ], [ 120.990708089928845, 14.502279209426694 ], [ 120.990480389928805, 14.502386709426629 ], [ 120.990258689928837, 14.502546409426595 ], [ 120.990085189928891, 14.502745209426612 ], [ 120.989901189928986, 14.502956709426641 ], [ 120.989786489929031, 14.503226309426735 ], [ 120.989720889929188, 14.503481109426859 ], [ 120.989701989929316, 14.503743609427017 ], [ 120.98971438992946, 14.504008209427189 ], [ 120.989777989929621, 14.504262209427385 ], [ 120.989871389929803, 14.504512809427597 ], [ 120.990195989930328, 14.505303809428298 ], [ 120.990896189931519, 14.507018709429811 ], [ 120.991131189932062, 14.507849909430485 ] ], [ [ 120.991131189932062, 14.507849909430485 ], [ 120.991403389932728, 14.508941109431333 ], [ 120.991408389932772, 14.508960809431352 ] ], [ [ 120.991408389932772, 14.508960809431352 ], [ 120.99224668993476, 14.512094809433833 ], [ 120.992271489934836, 14.512218409433935 ], [ 120.992293989934907, 14.512342809434026 ], [ 120.9923670899352, 14.512798609434354 ], [ 120.992389589935243, 14.512930809434453 ], [ 120.992410789935377, 14.513088909434559 ], [ 120.992550689936039, 14.514238109435377 ], [ 120.992950189938213, 14.517961209437974 ] ], [ [ 120.992950189938213, 14.517961209437974 ], [ 120.993058289938759, 14.518877009438611 ], [ 120.993060789938781, 14.518898409438625 ] ], [ [ 120.993060789938781, 14.518898409438625 ], [ 120.993369889940752, 14.522278209440948 ], [ 120.993383789942968, 14.526300009443496 ], [ 120.993360889943233, 14.526844409443816 ], [ 120.993325489943459, 14.527233509444041 ], [ 120.993276589943648, 14.527638309444271 ], [ 120.99302568994473, 14.529713009445421 ], [ 120.992892889945239, 14.530811309446037 ], [ 120.99288818994529, 14.530849909446067 ] ], [ [ 120.99288818994529, 14.530849909446067 ], [ 120.992863989945405, 14.531049909446173 ], [ 120.992871789945525, 14.531261409446307 ], [ 120.992934889945644, 14.531465209446475 ], [ 120.99302228994577, 14.531648209446645 ], [ 120.993120989945893, 14.53176140944678 ], [ 120.993270789946024, 14.53188650944695 ], [ 120.993400589946063, 14.531960809447071 ], [ 120.993532789946173, 14.532008709447183 ], [ 120.993674989946228, 14.532047409447294 ], [ 120.993816889946274, 14.532071309447403 ], [ 120.996413889947235, 14.532219809449069 ], [ 120.996651389947374, 14.532268409449248 ], [ 120.99681718994745, 14.532357509449392 ], [ 120.996917589947557, 14.532432609449511 ], [ 120.996961289947564, 14.532478009449562 ], [ 120.997005789947593, 14.532524309449627 ], [ 120.997706889948333, 14.533420309450616 ], [ 120.997827789948445, 14.533574709450777 ], [ 120.99805558994872, 14.533865509451106 ] ], [ [ 120.99805558994872, 14.533865509451106 ], [ 120.998597389949268, 14.534558609451866 ] ], [ [ 120.998597389949268, 14.534558609451866 ], [ 120.998646789949319, 14.534621909451939 ] ], [ [ 120.998646789949319, 14.534621909451939 ], [ 120.998735489949397, 14.534734609452059 ] ], [ [ 120.998735489949397, 14.534734609452059 ], [ 120.998851089949511, 14.534882609452227 ], [ 120.999089189949771, 14.535183309452565 ] ], [ [ 120.999089189949771, 14.535183309452565 ], [ 120.999148089949827, 14.53525470945263 ] ], [ [ 120.999148089949827, 14.53525470945263 ], [ 121.000354589951115, 14.536871309454398 ], [ 121.000478289951289, 14.537062509454586 ], [ 121.000578189951398, 14.537264809454774 ], [ 121.000658989951575, 14.537482909454965 ], [ 121.000719989951733, 14.537714009455149 ], [ 121.000751289951879, 14.537978809455332 ], [ 121.000747089951972, 14.538161809455445 ], [ 121.00073018995208, 14.538386709455571 ] ], [ [ 121.00073018995208, 14.538386709455571 ], [ 121.000683989952236, 14.538632309455693 ], [ 121.000623389952366, 14.538950609455867 ], [ 121.000555589952555, 14.539306809456054 ], [ 121.000411089952834, 14.539938309456357 ], [ 120.998647389956488, 14.547690209460166 ], [ 120.998525989956775, 14.548223709460425 ], [ 120.997257389959358, 14.553718209463103 ], [ 120.997178789959491, 14.554060109463267 ], [ 120.997042989959795, 14.554651509463556 ], [ 120.996513389960896, 14.556957009464689 ], [ 120.995598389962794, 14.560940309466627 ], [ 120.995251789963461, 14.562356509467305 ], [ 120.995201189963524, 14.562528109467387 ], [ 120.995132789963591, 14.562694909467448 ], [ 120.994770489963869, 14.563470809467711 ], [ 120.991780889966392, 14.569872709469902 ], [ 120.991590389966547, 14.570232909470011 ], [ 120.991333689966723, 14.570718009470161 ], [ 120.988655589968445, 14.575506509471529 ], [ 120.988026189968863, 14.576589209471821 ], [ 120.987794389968997, 14.576987909471944 ], [ 120.985739489970257, 14.58057700947292 ], [ 120.984581389971012, 14.582631909473509 ], [ 120.982723389972193, 14.585928609474429 ], [ 120.982522589972319, 14.586268509474522 ], [ 120.982424989972344, 14.586440109474577 ], [ 120.982211489972485, 14.586782209474649 ], [ 120.982110789972594, 14.587000309474735 ], [ 120.982043489972682, 14.587214009474829 ], [ 120.982006589972812, 14.587467209474957 ], [ 120.982010089972889, 14.5876927094751 ], [ 120.982045489973046, 14.587913709475256 ], [ 120.982145589973314, 14.588361309475602 ], [ 120.982176089973478, 14.588574709475759 ], [ 120.982203289973597, 14.588827709475924 ], [ 120.982195789973744, 14.589062609476073 ], [ 120.982169889973861, 14.5892896094762 ], [ 120.982061589974279, 14.590072309476621 ], [ 120.981988489974484, 14.590516209476847 ], [ 120.981960389974731, 14.590984309477134 ], [ 120.981947989974813, 14.591177809477241 ], [ 120.981929489975002, 14.591460609477409 ], [ 120.981912189975105, 14.591717909477557 ], [ 120.981878789975255, 14.591941609477683 ], [ 120.981830089975318, 14.592155909477775 ], [ 120.981532589975771, 14.593139309478218 ], [ 120.981500089975839, 14.593246909478257 ], [ 120.981466189975862, 14.593359209478304 ], [ 120.981397989976003, 14.593584309478407 ], [ 120.980893189976726, 14.595253209479143 ], [ 120.98078168997688, 14.595623909479302 ], [ 120.980741689976966, 14.595854909479428 ], [ 120.980723289977092, 14.596088509479559 ], [ 120.980814689977777, 14.597171409480286 ], [ 120.980841789977873, 14.597382209480436 ], [ 120.980901589978018, 14.597611009480618 ], [ 120.980957689978155, 14.597799009480763 ], [ 120.981050789978326, 14.598022909480962 ], [ 120.981186789978509, 14.598328209481229 ], [ 120.981255489978608, 14.598488509481378 ], [ 120.981310689978741, 14.598691109481537 ], [ 120.98147478997943, 14.59981140948233 ], [ 120.981832189980821, 14.602105909483992 ], [ 120.981863089980934, 14.602317109484131 ], [ 120.981884689981058, 14.602540409484286 ], [ 120.981914689981579, 14.603469709484882 ], [ 120.981985589982173, 14.604500009485571 ], [ 120.982046689982695, 14.605342909486136 ], [ 120.98248258998602, 14.611115309489991 ], [ 120.982607289987186, 14.613185909491357 ], [ 120.982742089989173, 14.616669509493608 ], [ 120.982742289989162, 14.616676809493613 ], [ 120.982913389992618, 14.622824709497527 ], [ 120.983005589993809, 14.624935209498897 ], [ 120.983075389995591, 14.628108009500915 ], [ 120.983027089995872, 14.628601109501192 ], [ 120.982959989995962, 14.628820409501284 ], [ 120.982765589996077, 14.629199309501406 ], [ 120.981461989996433, 14.630621609501487 ], [ 120.98103958999657, 14.631101609501524 ], [ 120.980910789996628, 14.631279409501564 ], [ 120.980804889996705, 14.631533709501642 ], [ 120.980743189996787, 14.631716709501733 ], [ 120.980703589996921, 14.631897009501815 ], [ 120.980716389997212, 14.632444609502169 ], [ 120.980753289997338, 14.632664109502327 ], [ 120.980833889997484, 14.632882009502511 ], [ 120.981055589997837, 14.633360709502933 ], [ 120.981758389998859, 14.634838709504281 ], [ 120.982308189999713, 14.636010509505342 ], [ 120.982336489999753, 14.636071809505399 ], [ 120.983175890001021, 14.637886709507036 ], [ 120.983311390001333, 14.638321409507382 ], [ 120.9833810900016, 14.638762609507701 ], [ 120.98358219000481, 14.644418809511331 ], [ 120.983627290005828, 14.646315009512525 ], [ 120.983922490010571, 14.654649309517866 ] ] ] } },
{ "type": "Feature", "properties": { "fid": 5.0, "full_id": "r10463196", "osm_id": "10463196", "osm_type": "relation", "type": "route", "height": null, "circuits": null, "abandoned": null, "ferry": null, "abandoned_": null, "proposed_r": null, "contact_fa": null, "short_name": null, "planned_re": null, "planned_ra": null, "reservatio": null, "vehicle": null, "sidewalk_r": null, "status": null, "payment_gc": null, "year_of_co": null, "payment_ep": null, "proposed_1": null, "voltage_le": null, "structure": null, "nhn_class": null, "cycle_netw": null, "evacuation": null, "source_url": null, "name_tl": null, "constructi": null, "timestamp": null, "motor_vehi": null, "interval_c": null, "foot": null, "facebook": null, "check_date": null, "affiliatio": null, "passenger": null, "access": null, "reservat_1": null, "descriptio": null, "not_networ": null, "int_ref_co": null, "int_name": null, "service_ti": null, "state": null, "charge": null, "operator_t": null, "direction": null, "through": null, "start_date": null, "alt_name": null, "payment__1": null, "motor_ve_1": null, "bicycle_co": null, "bicycle": null, "distance": null, "detour": null, "destinatio": null, "payment__2": null, "internet_a": null, "internet_1": null, "duration": null, "sac_scale": null, "opening_ho": null, "interval": null, "fee": null, "network_wi": null, "name_desc": null, "operationa": null, "payment__3": null, "symbol": null, "owner": null, "int_ref": null, "brand": null, "mtb_type": null, "surveillan": null, "surveill_1": null, "payment_ca": null, "old_name": null, "official_n": null, "nat_name": null, "wires": null, "frequency": null, "cables": null, "disused_ro": "light_rail", "bus": null, "wheelchair": null, "via": null, "source_ref": null, "source_r_1": null, "smoking": null, "old_ref": null, "network__1": null, "osmc_symbo": null, "voltage": null, "operator_s": null, "related_la": null, "ref_colour": null, "roundtrip": null, "operator_w": null, "operator_1": null, "website": "http://www.lrmc.com.ph", "wikipedia": null, "wikidata": "Q4165124", "to": "Roosevelt", "route": null, "ref": "1", "public_tra": "2", "operator": "Light Rail Manila Corporation", "network": "Manila LRT", "name_zh": null, "name_ko": null, "name_ja": null, "name": "LRT Line 1: Balintawak → Roosevelt", "from": "Balintawak", "colour": "#008000", "air_condit": null }, "geometry": { "type": "MultiLineString", "coordinates": [ [ [ 121.004372790019005, 14.65739920953205 ], [ 121.004406390019028, 14.657399709532076 ], [ 121.005583390019453, 14.657417109532808 ], [ 121.006156690019651, 14.65742770953316 ], [ 121.008884390020597, 14.657474109534849 ], [ 121.012513090021855, 14.657533409537109 ], [ 121.013025790021999, 14.657539909537423 ], [ 121.013393090022149, 14.657545109537658 ], [ 121.019958890024427, 14.657631009541712 ], [ 121.02024999002451, 14.657624609541886 ], [ 121.020372590024564, 14.657614309541954 ], [ 121.02158559002487, 14.657455109542601 ] ], [ [ 121.02158559002487, 14.657455109542601 ], [ 121.021618790024888, 14.65745040954261 ], [ 121.021836090024948, 14.657419509542731 ], [ 121.022240890025031, 14.657332609542916 ], [ 121.023419790025272, 14.657064809543471 ], [ 121.026483790025964, 14.656369009544916 ] ] ] } },
{ "type": "Feature", "properties": { "fid": 6.0, "full_id": "r10463197", "osm_id": "10463197", "osm_type": "relation", "type": "route", "height": null, "circuits": null, "abandoned": null, "ferry": null, "abandoned_": null, "proposed_r": null, "contact_fa": null, "short_name": null, "planned_re": null, "planned_ra": null, "reservatio": null, "vehicle": null, "sidewalk_r": null, "status": null, "payment_gc": null, "year_of_co": null, "payment_ep": null, "proposed_1": null, "voltage_le": null, "structure": null, "nhn_class": null, "cycle_netw": null, "evacuation": null, "source_url": null, "name_tl": null, "constructi": null, "timestamp": null, "motor_vehi": null, "interval_c": null, "foot": null, "facebook": null, "check_date": null, "affiliatio": null, "passenger": null, "access": null, "reservat_1": null, "descriptio": null, "not_networ": null, "int_ref_co": null, "int_name": null, "service_ti": null, "state": null, "charge": null, "operator_t": null, "direction": null, "through": null, "start_date": null, "alt_name": null, "payment__1": null, "motor_ve_1": null, "bicycle_co": null, "bicycle": null, "distance": null, "detour": null, "destinatio": null, "payment__2": null, "internet_a": null, "internet_1": null, "duration": null, "sac_scale": null, "opening_ho": null, "interval": null, "fee": null, "network_wi": null, "name_desc": null, "operationa": null, "payment__3": null, "symbol": null, "owner": null, "int_ref": null, "brand": null, "mtb_type": null, "surveillan": null, "surveill_1": null, "payment_ca": null, "old_name": null, "official_n": null, "nat_name": null, "wires": null, "frequency": null, "cables": null, "disused_ro": "light_rail", "bus": null, "wheelchair": null, "via": null, "source_ref": null, "source_r_1": null, "smoking": null, "old_ref": null, "network__1": null, "osmc_symbo": null, "voltage": null, "operator_s": null, "related_la": null, "ref_colour": null, "roundtrip": null, "operator_w": null, "operator_1": null, "website": "http://www.lrmc.com.ph", "wikipedia": null, "wikidata": "Q4165124", "to": "Roosevelt", "route": null, "ref": "1", "public_tra": "2", "operator": "Light Rail Manila Corporation", "network": "Manila LRT", "name_zh": null, "name_ko": null, "name_ja": null, "name": "LRT Line 1: Roosevelt → Balintawak", "from": "Balintawak", "colour": "#008000", "air_condit": null }, "geometry": { "type": "MultiLineString", "coordinates": [ [ [ 121.020688090024663, 14.657621709542141 ], [ 121.020655990024636, 14.657625909542137 ], [ 121.020381290024559, 14.657662009541994 ], [ 121.020263390024553, 14.657668509541921 ], [ 121.019959090024443, 14.657677009541741 ], [ 121.01339249002217, 14.65758170953767 ], [ 121.013026090022052, 14.657574609537441 ], [ 121.012511590021859, 14.657569509537128 ], [ 121.008883490020622, 14.657509409534869 ], [ 121.006152490019645, 14.657462209533172 ], [ 121.005312490019378, 14.657449209532661 ], [ 121.003517190018741, 14.657422009531542 ] ] ] } }
]
}
