{
"type": "FeatureCollection",
"name": "LRT1_Stations",
"crs": { "type": "name", "properties": { "name": "urn:ogc:def:crs:OGC:1.3:CRS84" } },
"features": [
{ "type": "Feature", "properties": { "Id": 0, "X": 284310.38270999998, "Y": 1607759.6293599999, "Name": "Baclaran" }, "geometry": { "type": "Point", "coordinates": [ 120.998350143284441, 14.534257401979085 ] } },
{ "type": "Feature", "properties": { "Id": 0, "X": 284560.80211599998, "Y": 1608269.8781399999, "Name": "EDSA / Pasay" }, "geometry": { "type": "Point", "coordinates": [ 121.000631611124788, 14.538887872935872 ] } },
{ "type": "Feature", "properties": { "Id": 0, "X": 284349.13502599997, "Y": 1609256.90824, "Name": "Libertad" }, "geometry": { "type": "Point", "coordinates": [ 120.998587755882753, 14.547789943969017 ] } },
{ "type": "Feature", "properties": { "Id": 0, "X": 284197.64039900003, "Y": 1609966.6873600001, "Name": "Gil Puyat" }, "geometry": { "type": "Point", "coordinates": [ 120.99712452427643, 14.554191504334407 ] } },
{ "type": "Feature", "properties": { "Id": 0, "X": 283951.59448099998, "Y": 1610997.8013200001, "Name": "Vito Cruz" }, "geometry": { "type": "Point", "coordinates": [ 120.994757762705859, 14.563489104999981 ] } },
{ "type": "Feature", "properties": { "Id": 0, "X": 283612.11631100002, "Y": 1611755.8034399999, "Name": "Quirino Ave" }, "geometry": { "type": "Point", "coordinates": [ 120.991546266454108, 14.57031136943505 ] } },
{ "type": "Feature", "properties": { "Id": 0, "X": 283236.971165, "Y": 1612451.91802, "Name": "Pedro Gil" }, "geometry": { "type": "Point", "coordinates": [ 120.988008711094366, 14.576571498477763 ] } },
{ "type": "Feature", "properties": { "Id": 0, "X": 282869.45899499999, "Y": 1613130.6817699999, "Name": "United Nations Ave" }, "geometry": { "type": "Point", "coordinates": [ 120.984543185342957, 14.582675375441402 ] } },
{ "type": "Feature", "properties": { "Id": 0, "X": 282561.077284, "Y": 1614254.50052, "Name": "Central" }, "geometry": { "type": "Point", "coordinates": [ 120.981589426200713, 14.592805392175714 ] } },
{ "type": "Feature", "properties": { "Id": 0, "X": 282538.323072, "Y": 1614943.60919, "Name": "Carriedo" }, "geometry": { "type": "Point", "coordinates": [ 120.981321506944326, 14.599030284013345 ] } },
{ "type": "Feature", "properties": { "Id": 0, "X": 282620.70645400003, "Y": 1615642.7792, "Name": "Doroteo Jose" }, "geometry": { "type": "Point", "coordinates": [ 120.982028298624044, 14.605354526458637 ] } },
{ "type": "Feature", "properties": { "Id": 0, "X": 282673.97465400002, "Y": 1616280.40387, "Name": "Bambang" }, "geometry": { "type": "Point", "coordinates": [ 120.982470011855554, 14.611120313724156 ] } },
{ "type": "Feature", "properties": { "Id": 0, "X": 282706.08364500001, "Y": 1616894.28107, "Name": "Tayuman" }, "geometry": { "type": "Point", "coordinates": [ 120.982717338431769, 14.616669821484805 ] } },
{ "type": "Feature", "properties": { "Id": 0, "X": 282732.54203100002, "Y": 1617567.3824100001, "Name": "Blumentritt" }, "geometry": { "type": "Point", "coordinates": [ 120.982907335746447, 14.622754016900386 ] } },
{ "type": "Feature", "properties": { "Id": 0, "X": 282578.66881800001, "Y": 1618441.33913, "Name": "Abad Santos" }, "geometry": { "type": "Point", "coordinates": [ 120.981407239046163, 14.630638616047097 ] } },
{ "type": "Feature", "properties": { "Id": 0, "X": 282678.92902799998, "Y": 1619036.6221700001, "Name": "R. Papa" }, "geometry": { "type": "Point", "coordinates": [ 120.982288499215556, 14.636025583924173 ] } },
{ "type": "Feature", "properties": { "Id": 0, "X": 282824.97931999998, "Y": 1619964.51777, "Name": "5th Ave" }, "geometry": { "type": "Point", "coordinates": [ 120.983567270348402, 14.644421680328639 ] } },
{ "type": "Feature", "properties": { "Id": 0, "X": 282868.93501199997, "Y": 1621051.1581300001, "Name": "Monumento" }, "geometry": { "type": "Point", "coordinates": [ 120.983885427770048, 14.654243960631376 ] } },
{ "type": "Feature", "properties": { "Id": 0, "X": 285027.99805900001, "Y": 1621384.5637699999, "Name": "Balintawak" }, "geometry": { "type": "Point", "coordinates": [ 121.003896842827771, 14.657429487585416 ] } },
{ "type": "Feature", "properties": { "Id": 0, "X": 286886.20232099999, "Y": 1621379.7774199999, "Name": "Roosevelt" }, "geometry": { "type": "Point", "coordinates": [ 121.021144047033559, 14.65753367879242 ] } }
]
}
