{
"type": "FeatureCollection",
"name": "LRT2_Alignment",
"crs": { "type": "name", "properties": { "name": "urn:ogc:def:crs:OGC:1.3:CRS84" } },
"features": [
{ "type": "Feature", "properties": { "id": null, "Name": null }, "geometry": { "type": "MultiLineString", "coordinates": [ [ [ 120.9833705615453, 14.603554996354696 ], [ 120.984975074837777, 14.603274131800521 ], [ 120.990446539790682, 14.600605240488516 ], [ 120.990707427634135, 14.600544429063778 ], [ 120.991096917035506, 14.600522986089798 ], [ 120.991736259022545, 14.600612482609954 ], [ 120.992524047839467, 14.600869953184592 ], [ 120.993426457449402, 14.601160048226516 ], [ 120.993826968259583, 14.601185117872783 ], [ 120.994040084694149, 14.601188707639965 ], [ 120.994311995114117, 14.601135049174601 ], [ 120.995035870662335, 14.600866721446968 ], [ 120.995796489130711, 14.600587658582242 ], [ 120.99623741992211, 14.600566209405809 ], [ 120.996568114146598, 14.600634209595881 ], [ 120.997089874247891, 14.600795250294119 ], [ 120.997416893914632, 14.600881140112831 ], [ 120.997585917077799, 14.60088472490205 ], [ 120.997894569891685, 14.600845376463807 ], [ 120.998289574724481, 14.600718364895046 ], [ 120.998473297089248, 14.600677222108146 ], [ 120.998719484388786, 14.600637870393514 ], [ 120.999015274609249, 14.600645036592605 ], [ 120.999283505427201, 14.600691561715912 ], [ 120.999423131981487, 14.600730926215922 ], [ 121.00009003007996, 14.601024357895419 ], [ 121.000312330890239, 14.601085193333875 ], [ 121.000633841516489, 14.601137085628395 ], [ 121.001886816902015, 14.601287398567102 ], [ 121.002555560595539, 14.60139296791858 ], [ 121.002968932364269, 14.601478851434981 ], [ 121.00326288625287, 14.601511059595216 ], [ 121.004093306325188, 14.601613048600274 ], [ 121.005053955836871, 14.60173416300375 ], [ 121.005877242492446, 14.601772290705517 ], [ 121.007488482660037, 14.601927941692932 ], [ 121.009134632245178, 14.602081792078428 ], [ 121.010630131786826, 14.602224898908448 ], [ 121.013316155835739, 14.602453841644648 ], [ 121.014954964726783, 14.602614807562643 ], [ 121.015285667472085, 14.602675624821783 ], [ 121.015851544199535, 14.602951124155306 ], [ 121.016185932374924, 14.603248100903887 ], [ 121.017097960844808, 14.604107085793762 ], [ 121.017824820718275, 14.604818855607881 ], [ 121.019199155515295, 14.606178499515435 ], [ 121.021315810363134, 14.608260884719868 ], [ 121.022247367651218, 14.609121379719033 ], [ 121.022447642252388, 14.609278806721436 ], [ 121.022726920864585, 14.609445173584694 ], [ 121.023101736704177, 14.609586486016491 ], [ 121.024395217360947, 14.610010406848943 ], [ 121.025929394083974, 14.61050586452701 ], [ 121.026695567590806, 14.610767007872981 ], [ 121.028727677985415, 14.611423422340017 ], [ 121.031836501809181, 14.612448258842024 ], [ 121.032918720839476, 14.61283458399128 ], [ 121.033209031355938, 14.612965155063797 ], [ 121.03362245757711, 14.61322273736098 ], [ 121.034175528226498, 14.613541131710551 ], [ 121.035037291180458, 14.614025873217246 ], [ 121.036253690710652, 14.614730625465205 ], [ 121.037054827798215, 14.615192108905465 ], [ 121.037879856328942, 14.615673266415415 ], [ 121.038940091576904, 14.616318985258468 ], [ 121.040233695177179, 14.617093480545796 ], [ 121.041248007834398, 14.617723093547058 ], [ 121.042720398977863, 14.618551815796003 ], [ 121.043482440723011, 14.619018055591606 ], [ 121.044184379795482, 14.619415122548602 ], [ 121.044698874831113, 14.619608261270042 ], [ 121.047069218362623, 14.620387907094523 ], [ 121.048921409242112, 14.621017339440225 ], [ 121.049439595199715, 14.621253405248192 ], [ 121.05077732187884, 14.621829243929941 ], [ 121.053427090792482, 14.623066779793685 ], [ 121.055209552903008, 14.623932336311318 ], [ 121.057569042655317, 14.62509116495311 ], [ 121.0596382147084, 14.626124799230769 ], [ 121.061905868813099, 14.627240666230575 ], [ 121.062262372199541, 14.627408756090691 ], [ 121.062681346042453, 14.627566095811074 ], [ 121.063085610958467, 14.627684078290567 ], [ 121.063429232285245, 14.627768082097541 ], [ 121.064645667865875, 14.627978895161171 ], [ 121.065639764075499, 14.628145030991693 ], [ 121.067030773031746, 14.628402303685723 ], [ 121.067277010770553, 14.62847917067351 ], [ 121.068212382983091, 14.628895783792878 ], [ 121.06942157717836, 14.629450079579568 ], [ 121.070689587260645, 14.630043712899614 ], [ 121.07175729400646, 14.630544362571552 ], [ 121.072914232849371, 14.63108778713729 ], [ 121.075871047444622, 14.632489707725455 ], [ 121.076139352018757, 14.632596973285279 ], [ 121.076367197399506, 14.632593326955005 ], [ 121.076738347383568, 14.632532386342975 ], [ 121.07721604070953, 14.632378380074854 ], [ 121.077855293192371, 14.631798519550488 ], [ 121.07851465328423, 14.630908243563027 ], [ 121.079414559201567, 14.629548253862826 ], [ 121.08034386616464, 14.628227611311083 ], [ 121.081614771058355, 14.626459582043898 ], [ 121.082705763688793, 14.625196128712146 ], [ 121.083609435123975, 14.624236877991045 ], [ 121.084682144019368, 14.623291879893555 ], [ 121.087176458695168, 14.620915115054437 ], [ 121.088954530176693, 14.619554782600458 ], [ 121.089597436497883, 14.619100124822419 ], [ 121.090111803722209, 14.618853046205061 ], [ 121.090571087210236, 14.618706175541357 ], [ 121.091136955799499, 14.618609359964733 ], [ 121.091445630036759, 14.618605669632892 ], [ 121.092210013970558, 14.61871989214697 ], [ 121.093691046706581, 14.619034223960243 ], [ 121.097307272970298, 14.619777107573963 ], [ 121.100598561956204, 14.620474064373296 ], [ 121.102709616590062, 14.620909227449545 ], [ 121.104763981098145, 14.621316284360036 ], [ 121.106509666764453, 14.621709142892875 ], [ 121.108938919673307, 14.622219769216585 ], [ 121.111735695271605, 14.622801768288703 ], [ 121.114275224159769, 14.623330179924903 ], [ 121.116009896506171, 14.623680033908336 ], [ 121.118339974553066, 14.624194186589053 ], [ 121.121342614375806, 14.624826065670419 ] ] ] } }
]
}
