{
"type": "FeatureCollection",
"name": "MRT7_Alignment",
"crs": { "type": "name", "properties": { "name": "urn:ogc:def:crs:EPSG::3123" } },
"features": [
{ "type": "Feature", "properties": { "Layer": null, "LenM": 0.0, "Name": null, "Line": null, "Descript": "Recto-Commonwealth-Banaba", "Id": 0, "Remarks": null, "Length": 0.0, "FromSta": null, "ToSta": null, "ProjCode": null, "Status": null, "Plan2016": 0, "Code": null, "Code3": null, "Category": null }, "geometry": { "type": "MultiLineString", "coordinates": [ [ [ 508620.850986148871016, 1631004.718765024328604, 0.0 ], [ 508662.432407216634601, 1631048.500953940907493, 0.0 ], [ 508700.249041736940853, 1631088.320398126961663, 0.0 ], [ 508743.748702225100715, 1631140.141743764746934, 0.0 ], [ 508751.185967676050495, 1631150.346918769879267, 0.0 ], [ 508759.78810940956464, 1631164.073149221017957, 0.0 ], [ 508827.508134699892253, 1631270.653329586843029, 0.0 ], [ 508857.191983300319407, 1631312.543431426398456, 0.0 ], [ 508882.118352448160294, 1631348.84362201532349, 0.0 ], [ 508929.022844228486065, 1631416.006803472759202, 0.0 ], [ 508951.016014342312701, 1631451.178021884523332, 0.0 ], [ 508958.901548029214609, 1631465.413733828347176, 0.0 ], [ 508963.92612415435724, 1631474.779066484887153, 0.0 ], [ 508968.971917212300468, 1631486.523413139628246, 0.0 ], [ 508974.611842959886417, 1631501.208253029733896, 0.0 ], [ 508978.78312973032007, 1631516.111750235315412, 0.0 ], [ 508981.916975622822065, 1631531.496517705498263, 0.0 ], [ 508983.250633599935099, 1631541.006272304803133, 0.0 ], [ 508984.897933988657314, 1631574.2350012534298, 0.0 ], [ 508990.238741012872197, 1631657.12935269670561, 0.0 ], [ 508999.674277033656836, 1631796.773002446163446, 0.0 ], [ 509005.057830639532767, 1631872.149208537535742, 0.0 ], [ 509006.682603269116953, 1631894.685216710204259, 0.0 ], [ 509009.834245442587417, 1631916.108909512637183, 0.0 ], [ 509013.726212317473255, 1631941.281013173051178, 0.0 ], [ 509018.263727700628806, 1631963.809236032422632, 0.0 ], [ 509034.047979831811972, 1632024.062764248345047, 0.0 ], [ 509067.726173083123285, 1632154.959278784226626, 0.0 ], [ 509094.071065554744564, 1632254.925890388665721, 0.0 ], [ 509100.820178386638872, 1632274.150961324106902, 0.0 ], [ 509150.455621867033187, 1632403.40928247757256, 0.0 ], [ 509171.561738707765471, 1632458.888363458914682, 0.0 ], [ 509210.37885058374377, 1632564.535388865042478, 0.0 ], [ 509234.86720566090662, 1632612.238304608501494, 0.0 ], [ 509274.853883298754226, 1632721.933942316565663, 0.0 ], [ 509294.967914664710406, 1632786.45457199215889, 0.0 ], [ 509311.100261769141071, 1632817.547463298775256, 0.0 ], [ 509321.28509338456206, 1632840.383990415139124, 0.0 ], [ 509380.551858632010408, 1632995.202640060335398, 0.0 ], [ 509400.20762475655647, 1633062.415579510852695, 0.0 ], [ 509404.870286907826085, 1633075.776255788514391, 0.0 ], [ 509520.29152356920531, 1633372.159456596244127, 0.0 ], [ 509525.891010554332752, 1633381.254238812951371, 0.0 ], [ 509558.132827646739315, 1633469.013673575595021, 0.0 ], [ 509625.22601149714319, 1633644.756822388852015, 0.0 ], [ 509750.723360686504748, 1633962.185789476148784, 0.0 ] ] ] } },
{ "type": "Feature", "properties": { "Layer": null, "LenM": 24495.49, "Name": "Recto-Quezon-Commonwealth Line", "Line": "MRT-7", "Descript": "Recto-Commonwealth-Banaba", "Id": 0, "Remarks": null, "Length": 26.8, "FromSta": null, "ToSta": null, "ProjCode": null, "Status": null, "Plan2016": 0, "Code": "MRT-7-2", "Code3": "T-R-7", "Category": "Main Line" }, "geometry": { "type": "MultiLineString", "coordinates": [ [ [ 503047.147204170469195, 1620675.890413371380419, 0.0 ], [ 503069.125062752747908, 1620775.657158767106012, 0.0 ], [ 503075.583730382320937, 1620811.26834175712429, 0.0 ], [ 503076.387336463842075, 1620816.142972592264414, 0.0 ], [ 503077.315385227731895, 1620818.902371266391128, 0.0 ], [ 503079.402665420609992, 1620822.201060007791966, 0.0 ], [ 503092.804490703972988, 1620838.403168955817819, 0.0 ], [ 503096.159605670720339, 1620841.924655519193038, 0.0 ], [ 503100.259105052857194, 1620845.029431585455313, 0.0 ], [ 503107.413066304463428, 1620849.748351646354422, 0.0 ], [ 503116.039025198784657, 1620855.53839875664562, 0.0 ], [ 503118.571900095557794, 1620856.301418317481875, 0.0 ], [ 503122.377268882642966, 1620856.758194254012778, 0.0 ], [ 503137.075294182752259, 1620857.945790031692013, 0.0 ], [ 503141.096938560949638, 1620857.875388384098187, 0.0 ], [ 503159.10856374038849, 1620855.282771952683106, 0.0 ], [ 503172.890655967814382, 1620852.335460286354646, 0.0 ], [ 503300.878911171574146, 1620821.929201682563871, 0.0 ], [ 503491.955554219370242, 1620777.052474279887974, 0.0 ], [ 503638.068945491570048, 1620743.207940489053726, 0.0 ], [ 503764.032229325035587, 1620714.476765284314752, 0.0 ], [ 503929.3936812930624, 1620681.859779654303566, 0.0 ], [ 504010.590342624345794, 1620665.855648013297468, 0.0 ], [ 504106.436160979559645, 1620644.583820300642401, 0.0 ], [ 504249.785932302940637, 1620612.19617097475566, 0.0 ], [ 504355.072149343206547, 1620588.361977482447401, 0.0 ], [ 504493.562819891085383, 1620557.434062111889943, 0.0 ], [ 504687.269814371713437, 1620514.39997652778402, 0.0 ], [ 504753.766319808375556, 1620499.874705087393522, 0.0 ], [ 504787.31606320978608, 1620492.022142467088997, 0.0 ], [ 504804.235809455625713, 1620488.467496348777786, 0.0 ], [ 504809.871377986914013, 1620487.776390308048576, 0.0 ], [ 504826.913175828522071, 1620487.185704659670591, 0.0 ], [ 504862.92119939380791, 1620486.169419978512451, 0.0 ], [ 504878.621981049887836, 1620486.455793924862519, 0.0 ], [ 504891.946116771548986, 1620487.461965868016705, 0.0 ], [ 504933.399858929682523, 1620490.49352415301837, 0.0 ], [ 504946.571953081642278, 1620491.942791335750371, 0.0 ], [ 504984.136268310481682, 1620498.628303500358015, 0.0 ], [ 504984.985917934332974, 1620498.747166510438547, 0.0 ], [ 505039.627614812692627, 1620506.391349867219105, 0.0 ], [ 505137.417059744242579, 1620521.622321908129379, 0.0 ], [ 505223.372855682333466, 1620534.823242141399533, 0.0 ], [ 505258.290551060868893, 1620539.871295552467927, 0.0 ], [ 505337.142525987874251, 1620552.268963656388223, 0.0 ], [ 505366.436394398275297, 1620556.674929822562262, 0.0 ], [ 505373.828711973736063, 1620558.36960683693178, 0.0 ], [ 505381.65760436776327, 1620560.956996410386637, 0.0 ], [ 505392.142462595715187, 1620564.75292862043716, 0.0 ], [ 505406.32022018841235, 1620569.766533420886844, 0.0 ], [ 505413.843717553536408, 1620573.388248690403998, 0.0 ], [ 505448.924681655655149, 1620593.54852408519946, 0.0 ], [ 505487.680290683347266, 1620617.000347856432199, 0.0 ], [ 505531.696743150416296, 1620646.709802346304059, 0.0 ], [ 505595.189014020259492, 1620689.352790650911629, 0.0 ], [ 505662.199751468142495, 1620734.238178503233939, 0.0 ], [ 505716.693500143766869, 1620770.56911206827499, 0.0 ], [ 505823.169274735671934, 1620842.468198540387675, 0.0 ], [ 505900.485496823792346, 1620894.703560224501416, 0.0 ], [ 505998.269704257545527, 1620961.04486928647384, 0.0 ], [ 506094.722039662883617, 1621027.226372108329087, 0.0 ], [ 506126.386872125847731, 1621048.393736140104011, 0.0 ], [ 506225.640741814568173, 1621116.081456870539114, 0.0 ], [ 506240.374023047450464, 1621126.284771141363308, 0.0 ], [ 506324.443714486376848, 1621184.506005034781992, 0.0 ], [ 506446.222550540638622, 1621268.243850471684709, 0.0 ], [ 506547.975220940134022, 1621338.17599751567468, 0.0 ], [ 506718.342246399784926, 1621455.971156456740573, 0.0 ], [ 506863.68179141607834, 1621555.916673912666738, 0.0 ], [ 507017.723489415307995, 1621660.235248747747391, 0.0 ], [ 507138.039493353164289, 1621741.886773297097534, 0.0 ], [ 507246.428410635562614, 1621815.285267414757982, 0.0 ], [ 507328.018675121769775, 1621870.077568027889356, 0.0 ], [ 507393.250831705634482, 1621915.096260706428438, 0.0 ], [ 507471.297641036624555, 1621968.524104801937938, 0.0 ], [ 507530.065404971712269, 1622007.411895076511428, 0.0 ], [ 507579.39431033335859, 1622041.475843475433066, 0.0 ], [ 507664.956888318585698, 1622099.41442275326699, 0.0 ], [ 507765.695164052012842, 1622166.820035428740084, 0.0 ], [ 507915.138548907416407, 1622271.839813699480146, 0.0 ], [ 507947.081543776323088, 1622295.084097399609163, 0.0 ], [ 507955.028627079387661, 1622301.080012313555926, 0.0 ], [ 507979.745633802143857, 1622320.556947203353047, 0.0 ], [ 508032.408599599089939, 1622362.946670345263556, 0.0 ], [ 508108.795149940648116, 1622427.076461653225124, 0.0 ], [ 508111.232073281658813, 1622429.122364237671718, 0.0 ], [ 508112.950815752265044, 1622430.682386317290366, 0.0 ], [ 508175.017552397446707, 1622487.01747481059283, 0.0 ], [ 508209.54996461479459, 1622519.02532690227963, 0.0 ], [ 508217.624295165180229, 1622527.39273394132033, 0.0 ], [ 508278.55994753172854, 1622589.262760767247528, 0.0 ], [ 508295.589586885820609, 1622606.894236345542595, 0.0 ], [ 508368.539160232408904, 1622683.981233791215345, 0.0 ], [ 508386.591383552760817, 1622703.251360128633678, 0.0 ], [ 508399.061464519822039, 1622717.138980576535687, 0.0 ], [ 508454.602847593079787, 1622785.924492602935061, 0.0 ], [ 508509.347383904736489, 1622861.07335301511921, 0.0 ], [ 508556.776543171610683, 1622925.787446540314704, 0.0 ], [ 508599.817781430378091, 1622984.092547807376832, 0.0 ], [ 508642.008573464700021, 1623043.375606568064541, 0.0 ], [ 508651.912816530675627, 1623057.292246584547684, 0.0 ], [ 508665.359754899633117, 1623078.003304402111098, 0.0 ], [ 508670.472669024486095, 1623086.196495640324429, 0.0 ], [ 508686.681818578043021, 1623115.663361850194633, 0.0 ], [ 508698.421939075225964, 1623137.005917127477005, 0.0 ], [ 508722.96428566792747, 1623181.621865151450038, 0.0 ], [ 508777.63741095882142, 1623281.65909898839891, 0.0 ], [ 508802.411627363529988, 1623328.247747857822105, 0.0 ], [ 508809.104386503691785, 1623342.084490440087393, 0.0 ], [ 508843.67878960451344, 1623419.722423485014588, 0.0 ], [ 508884.066246196278371, 1623510.152347905561328, 0.0 ], [ 508933.830333564954344, 1623629.257508619921282, 0.0 ], [ 508998.243794739420991, 1623783.899252853123471, 0.0 ], [ 509046.548594616062474, 1623900.473175966413692, 0.0 ], [ 509105.02159859566018, 1624039.951625772984698, 0.0 ], [ 509160.441167525772471, 1624172.884718389715999, 0.0 ], [ 509181.33752919617109, 1624222.402322196168825, 0.0 ], [ 509185.247017843124922, 1624232.659018579404801, 0.0 ], [ 509191.596395004075021, 1624251.82611456583254, 0.0 ], [ 509208.453843818744645, 1624305.752531156176701, 0.0 ], [ 509225.157913518080022, 1624360.270195623161271, 0.0 ], [ 509227.449661109596491, 1624369.179290843196213, 0.0 ], [ 509239.507889599830378, 1624429.730030987178907, 0.0 ], [ 509241.477215713472106, 1624441.59923996636644, 0.0 ], [ 509247.25576499797171, 1624491.872366415336728, 0.0 ], [ 509248.47656156658195, 1624504.62385795195587, 0.0 ], [ 509250.339084817387629, 1624545.380963081959635, 0.0 ], [ 509251.385995436285157, 1624577.834589288569987, 0.0 ], [ 509252.991331499128137, 1624664.515271139098331, 0.0 ], [ 509254.871439529466443, 1624787.198317744536325, 0.0 ], [ 509257.053341246850323, 1624926.032152622472495, 0.0 ], [ 509258.031243600300513, 1624983.077724654460326, 0.0 ], [ 509258.969895807793364, 1625044.567387975286692, 0.0 ], [ 509259.182327768998221, 1625171.532011987408623, 0.0 ], [ 509259.301471827318892, 1625292.273602205794305, 0.0 ], [ 509259.812625042337459, 1625418.944571436149999, 0.0 ], [ 509259.334531200642232, 1625439.532908255932853, 0.0 ], [ 509258.129225556913298, 1625479.991108073620126, 0.0 ], [ 509257.292695514508523, 1625508.070535233011469, 0.0 ], [ 509255.37433470558608, 1625586.016212375601754, 0.0 ], [ 509254.623806123621762, 1625620.676193293416873, 0.0 ], [ 509253.766692650038749, 1625633.853787132538855, 0.0 ], [ 509252.081244360131677, 1625656.949974859366193, 0.0 ], [ 509249.151830554706976, 1625686.701831549173221, 0.0 ], [ 509247.080839596805163, 1625703.127958028577268, 0.0 ], [ 509245.203773810761049, 1625714.370620532194152, 0.0 ], [ 509240.250158219016157, 1625738.474978110054508, 0.0 ], [ 509234.570249635085929, 1625760.943293143063784, 0.0 ], [ 509224.034841463551857, 1625796.405736278742552, 0.0 ], [ 509218.724378681159578, 1625812.542643844848499, 0.0 ], [ 509212.465089757577516, 1625831.562744166702032, 0.0 ], [ 509211.106918220524676, 1625835.032375190639868, 0.0 ], [ 509204.431999180116691, 1625852.08434670814313, 0.0 ], [ 509190.206252363626845, 1625886.032705495133996, 0.0 ], [ 509174.205482008575927, 1625919.669085168745369, 0.0 ], [ 509155.9499509583693, 1625956.989238699432462, 0.0 ], [ 509144.486162120883819, 1625980.147187010617927, 0.0 ], [ 509128.683238857833203, 1626008.155681658303365, 0.0 ], [ 509116.950652192172129, 1626028.200145414099097, 0.0 ], [ 509105.842014263500459, 1626044.694571364670992, 0.0 ], [ 509089.938056892715394, 1626067.368842449272051, 0.0 ], [ 509081.849718672339804, 1626077.371442072791979, 0.0 ], [ 509062.532083972066175, 1626100.756290795747191, 0.0 ], [ 509043.825313594541512, 1626122.072462630691007, 0.0 ], [ 509031.40961864736164, 1626135.592375569278374, 0.0 ], [ 509021.096619635121897, 1626145.871612002840266, 0.0 ], [ 508998.238110315869562, 1626167.595540931681171, 0.0 ], [ 508979.271708976943046, 1626184.761269832961261, 0.0 ], [ 508973.596733119746204, 1626189.896305081201717, 0.0 ], [ 508968.675524555670563, 1626193.556522148894146, 0.0 ], [ 508932.591025788511615, 1626219.904321128735319, 0.0 ], [ 508910.082447542401496, 1626235.557269090786576, 0.0 ], [ 508899.656648695585318, 1626241.835510849952698, 0.0 ], [ 508854.699699251388665, 1626266.327134758932516, 0.0 ], [ 508828.814099192095455, 1626278.542841365095228, 0.0 ], [ 508801.314710990525782, 1626288.966516502667218, 0.0 ], [ 508745.480918180022854, 1626307.629169220803306, 0.0 ], [ 508738.612876140512526, 1626309.745801986660808, 0.0 ], [ 508719.749226128798909, 1626315.282822539797053, 0.0 ], [ 508710.799500691937283, 1626317.688064243644476, 0.0 ], [ 508703.936760351760313, 1626319.217176694655791, 0.0 ], [ 508697.779958957107738, 1626320.199814182939008, 0.0 ], [ 508675.496038413606584, 1626323.002923486521468, 0.0 ], [ 508659.662574759218842, 1626325.122284329030663, 0.0 ], [ 508639.745690973941237, 1626327.578870619880036, 0.0 ], [ 508591.292115103802644, 1626333.555225562071428, 0.0 ], [ 508551.261420341907069, 1626337.053385830018669, 0.0 ], [ 508490.026381796458736, 1626342.734560255194083, 0.0 ], [ 508429.539894213783555, 1626347.53346059564501, 0.0 ], [ 508411.159290456154849, 1626348.704391771228984, 0.0 ], [ 508376.335630851681344, 1626349.730046810815111, 0.0 ], [ 508282.854207562108058, 1626349.793012919370085, 0.0 ], [ 508158.994585386360995, 1626350.772760187508538, 0.0 ], [ 508048.034602439613082, 1626350.533151966519654, 0.0 ], [ 507965.981756961846258, 1626351.20097821787931, 0.0 ], [ 507952.028498349303845, 1626351.314543416723609, 0.0 ], [ 507941.648715486633591, 1626352.221599779557437, 0.0 ], [ 507932.013217849482317, 1626353.063615362159908, 0.0 ], [ 507898.056209182890598, 1626356.615418754518032, 0.0 ], [ 507877.141652467485983, 1626359.541718880180269, 0.0 ], [ 507851.01749754830962, 1626365.236779841128737, 0.0 ], [ 507832.75367416877998, 1626369.964259444037452, 0.0 ], [ 507818.646799881011248, 1626373.691438321955502, 0.0 ], [ 507790.118460451078136, 1626383.217069425852969, 0.0 ], [ 507755.193959369964432, 1626394.864548115292564, 0.0 ], [ 507626.972665524226613, 1626437.626907002646476, 0.0 ], [ 507610.240581251680851, 1626443.348496592370793, 0.0 ], [ 507562.779384022345766, 1626459.578001206507906, 0.0 ], [ 507463.975130816281307, 1626492.037957909051329, 0.0 ], [ 507450.454276826756541, 1626496.511030334979296, 0.0 ], [ 507444.958886994339991, 1626498.09208489023149, 0.0 ], [ 507413.511094115441665, 1626502.703047903487459, 0.0 ], [ 507406.838479717785958, 1626503.38482132111676, 0.0 ], [ 507398.26805325265741, 1626503.37222818727605, 0.0 ], [ 507326.396020063664764, 1626503.266621424118057, 0.0 ], [ 507321.970517461886629, 1626503.279917505569756, 0.0 ], [ 507188.764425543078687, 1626503.680124438134953, 0.0 ], [ 507089.358207660028711, 1626503.690652341581881, 0.0 ], [ 506957.060938767448533, 1626504.003139470005408, 0.0 ], [ 506911.72130749549251, 1626504.78768830629997, 0.0 ], [ 506895.122391665994655, 1626505.529896966647357, 0.0 ], [ 506886.525356442900375, 1626506.046517894137651, 0.0 ], [ 506866.202138754772022, 1626509.126154859084636, 0.0 ], [ 506850.317720785213169, 1626512.837596504949033, 0.0 ], [ 506838.882572746428195, 1626515.995767417363822, 0.0 ], [ 506820.160042287665419, 1626522.348758020903915, 0.0 ], [ 506809.900808697275352, 1626526.554340193746611, 0.0 ], [ 506792.493165232066531, 1626534.992990816477686, 0.0 ], [ 506762.695347461034544, 1626553.469192588469014, 0.0 ], [ 506762.10489676828729, 1626553.835302784573287, 0.0 ], [ 506749.871487471449655, 1626563.504837208194658, 0.0 ], [ 506733.596563945233356, 1626577.879327707691118, 0.0 ], [ 506725.677376878040377, 1626585.512938539730385, 0.0 ], [ 506715.623823926842306, 1626597.028973436681554, 0.0 ], [ 506478.025388347916305, 1626890.064614619594067, 0.0 ], [ 506461.372702327091247, 1626910.73184700566344, 0.0 ], [ 506456.457319330365863, 1626916.832205086480826, 0.0 ], [ 506453.229230606288183, 1626921.692482962273061, 0.0 ], [ 506450.667090762173757, 1626926.632719343528152, 0.0 ], [ 506449.08026050333865, 1626930.174191451398656, 0.0 ], [ 506447.783806811901741, 1626934.384885595878586, 0.0 ], [ 506445.87124992912868, 1626941.256757006514817, 0.0 ], [ 506444.540755201305728, 1626949.318938362412155, 0.0 ], [ 506444.434108480520081, 1626951.207119667902589, 0.0 ], [ 506443.57479682873236, 1626966.421229251893237, 0.0 ], [ 506443.909311704162974, 1626987.238656809320673, 0.0 ], [ 506443.934863627539016, 1626996.182213685242459, 0.0 ], [ 506444.017876491649076, 1627025.238988741999492, 0.0 ], [ 506443.93375105119776, 1627261.01213151938282, 0.0 ], [ 506443.651218100509141, 1627477.302364352159202, 0.0 ], [ 506443.673993451695424, 1627709.298745627515018, 0.0 ], [ 506443.371392783417832, 1627944.551459938287735, 0.0 ], [ 506443.335449466947466, 1628082.622947558527812, 0.0 ], [ 506443.332644801121205, 1628334.174349575070664, 0.0 ], [ 506443.054117406078149, 1628549.872053370112553, 0.0 ], [ 506442.622143289714586, 1629167.932195039466023, 0.0 ], [ 506443.038356974371709, 1629422.190989030525088, 0.0 ], [ 506442.903826853027567, 1629495.966373180272058, 0.0 ], [ 506443.0558543355437, 1629512.26374960783869, 0.0 ], [ 506444.375906470988411, 1629530.497360117733479, 0.0 ], [ 506445.300073050020728, 1629543.246074223192409, 0.0 ], [ 506447.408000428578816, 1629556.15341315465048, 0.0 ], [ 506449.53428557125153, 1629566.986874547321349, 0.0 ], [ 506451.377852752746549, 1629574.970578618813306, 0.0 ], [ 506455.953789333987515, 1629594.895102002192289, 0.0 ], [ 506462.91211016359739, 1629612.141607317375019, 0.0 ], [ 506465.240292606351431, 1629616.902881750604138, 0.0 ], [ 506474.02474255755078, 1629628.684161770157516, 0.0 ], [ 506477.397732033976354, 1629632.565811448497698, 0.0 ], [ 506483.569533735222649, 1629638.249987461138517, 0.0 ], [ 506494.440975395264104, 1629648.568287496222183, 0.0 ], [ 506502.242253003409132, 1629654.266889933263883, 0.0 ], [ 506524.025790609826799, 1629670.311335215112194, 0.0 ], [ 506542.27509138348978, 1629683.954162778332829, 0.0 ], [ 506548.318430866638664, 1629687.415017878171057, 0.0 ], [ 506557.169763308193069, 1629691.64146139845252, 0.0 ], [ 506564.403422571835108, 1629694.52027157577686, 0.0 ], [ 506568.578210896463133, 1629695.423934874823317, 0.0 ], [ 506581.849163578066509, 1629698.526510456809774, 0.0 ], [ 506595.468333115102723, 1629699.684102046303451, 0.0 ], [ 506608.346832384529989, 1629700.835136618698016, 0.0 ], [ 506625.82405183010269, 1629701.28615450905636, 0.0 ], [ 506731.293054424808361, 1629702.516165560809895, 0.0 ], [ 506899.116230274375994, 1629705.483368730172515, 0.0 ], [ 506916.446653733903076, 1629705.784941599238664, 0.0 ], [ 507024.278104207129218, 1629707.924746344331652, 0.0 ], [ 507112.711845370067749, 1629709.003946137847379, 0.0 ], [ 507186.329534107120708, 1629710.248271766584367, 0.0 ], [ 507280.094892172841355, 1629711.522819749778137, 0.0 ], [ 507304.966370404872578, 1629712.119432794163004, 0.0 ], [ 507308.236732105084229, 1629712.197881712345406, 0.0 ], [ 507310.06940849928651, 1629712.269661393715069, 0.0 ], [ 507311.862592254939955, 1629712.618865985423326, 0.0 ], [ 507318.014113792101853, 1629714.321454714983702, 0.0 ], [ 507321.190323902410455, 1629715.331043985439464, 0.0 ], [ 507323.659451139974408, 1629716.723257818259299, 0.0 ], [ 507327.879318858729675, 1629719.075404649833217, 0.0 ], [ 507330.199327751994133, 1629720.577408249257132, 0.0 ], [ 507331.348032179113943, 1629721.672629909124225, 0.0 ], [ 507347.02011155319633, 1629736.615030945511535, 0.0 ], [ 507441.449522888811771, 1629826.042653233511373, 0.0 ], [ 507468.483385252242442, 1629851.466914586024359, 0.0 ], [ 507519.756220968905836, 1629900.068514316342771, 0.0 ], [ 507529.893591929401737, 1629909.639653182821348, 0.0 ], [ 507536.220113171788398, 1629914.584506629966199, 0.0 ], [ 507541.187862441933248, 1629918.221046846825629, 0.0 ], [ 507542.371674834867008, 1629918.972261518007144, 0.0 ], [ 507542.845199789677281, 1629919.272747385781258, 0.0 ], [ 507547.966986387153156, 1629922.243991977302358, 0.0 ], [ 507561.21058799646562, 1629929.520453279139474, 0.0 ], [ 507564.958224839065224, 1629931.579525792039931, 0.0 ], [ 507573.813765568425879, 1629936.29272238840349, 0.0 ], [ 507608.124729366390966, 1629954.55409638909623, 0.0 ], [ 507653.399542584316805, 1629977.843638731632382, 0.0 ], [ 507662.982414694095496, 1629983.113624374149367, 0.0 ], [ 507675.662351600651164, 1629989.966574002988636, 0.0 ], [ 507677.502235277206637, 1629991.316185702569783, 0.0 ], [ 507684.122406255453825, 1629996.55993931600824, 0.0 ], [ 507692.147006790793967, 1630002.989719853270799, 0.0 ], [ 507722.074994315335061, 1630026.969782470725477, 0.0 ], [ 507805.993862563162111, 1630094.60114716226235, 0.0 ], [ 507824.598510985961184, 1630109.950942769879475, 0.0 ], [ 507848.996783438895363, 1630131.870506718987599, 0.0 ], [ 507855.828665218839888, 1630138.301319655962288, 0.0 ], [ 507860.749874466564506, 1630143.011524528032169, 0.0 ], [ 507872.344335976871662, 1630155.336313967127353, 0.0 ], [ 507883.483241297537461, 1630168.916319244308397, 0.0 ], [ 507888.829179139633197, 1630175.852490039775148, 0.0 ], [ 507914.500930455862544, 1630212.894331670366228, 0.0 ], [ 507955.016221540572587, 1630271.771162416553125, 0.0 ], [ 507998.727507781994063, 1630337.787378132110462, 0.0 ], [ 508012.251603103766683, 1630358.055141960270703, 0.0 ], [ 508018.258898991742171, 1630365.589768219972029, 0.0 ], [ 508025.661017079197336, 1630374.544144704006612, 0.0 ], [ 508029.990995411993936, 1630379.100976776564494, 0.0 ], [ 508037.187309980741702, 1630386.201694092946127, 0.0 ], [ 508045.208209031494334, 1630392.198612434323877, 0.0 ], [ 508050.583663006254937, 1630395.801749226870015, 0.0 ], [ 508056.605482816521544, 1630399.067591184284538, 0.0 ], [ 508064.885228791681584, 1630403.557985113468021, 0.0 ], [ 508076.913000442320481, 1630408.775584174320102, 0.0 ], [ 508085.107619868882466, 1630411.885176028124988, 0.0 ], [ 508104.098413663101383, 1630417.090372527716681, 0.0 ], [ 508151.978842460201122, 1630430.551382777281106, 0.0 ], [ 508172.463791720860172, 1630436.473303475184366, 0.0 ], [ 508173.257542420062236, 1630436.702766038943082, 0.0 ], [ 508187.177327738434542, 1630441.56675970251672, 0.0 ], [ 508193.894532517530024, 1630444.218828026438132, 0.0 ], [ 508199.940207631152589, 1630447.420500594191253, 0.0 ], [ 508200.317834114655852, 1630447.635441698133945, 0.0 ], [ 508204.104371293389704, 1630449.790699676610529, 0.0 ], [ 508207.00971117435256, 1630452.112712736940011, 0.0 ], [ 508210.966366264270619, 1630456.068165083881468, 0.0 ], [ 508211.121424686280079, 1630456.223176373867318, 0.0 ], [ 508217.425650142191444, 1630463.686370050068945, 0.0 ], [ 508221.887365781411063, 1630470.096214974299073, 0.0 ], [ 508226.472287899116054, 1630479.321947372052819, 0.0 ], [ 508229.653202291170601, 1630488.16487683611922, 0.0 ], [ 508231.733596352452878, 1630495.812881821533665, 0.0 ], [ 508232.43425601371564, 1630500.337576032849029, 0.0 ], [ 508233.478356924257241, 1630507.902328989235684, 0.0 ], [ 508234.462757818691898, 1630522.207249057712033, 0.0 ], [ 508237.545585111132823, 1630583.937848218018189, 0.0 ], [ 508244.411685953265987, 1630728.66437744256109, 0.0 ], [ 508245.765752823615912, 1630743.046648054383695, 0.0 ], [ 508246.877350490423851, 1630751.352736850036308, 0.0 ], [ 508248.597237221081741, 1630757.886448232922703, 0.0 ], [ 508252.649236437107902, 1630768.737087192945182, 0.0 ], [ 508255.69053199631162, 1630776.615829499438405, 0.0 ], [ 508260.652340288506821, 1630785.104174091247842, 0.0 ], [ 508267.082380916108377, 1630795.086997766047716, 0.0 ], [ 508274.706691900151782, 1630804.043371594976634, 0.0 ], [ 508281.89840688300319, 1630811.662589025916532, 0.0 ], [ 508289.251380593399517, 1630817.801763538038358, 0.0 ], [ 508297.425005541066639, 1630823.281546157551929, 0.0 ], [ 508302.865778945677448, 1630826.281699813203886, 0.0 ], [ 508307.118332807905972, 1630828.626645004143938, 0.0 ], [ 508314.274694004096091, 1630831.875208271434531, 0.0 ], [ 508326.681339170841966, 1630836.133241029921919, 0.0 ], [ 508363.088420079846401, 1630848.144378260942176, 0.0 ], [ 508376.978474547038786, 1630852.726876237196848, 0.0 ], [ 508475.944600952498149, 1630885.751601223135367, 0.0 ], [ 508490.420562593673822, 1630890.546489475527778, 0.0 ], [ 508504.343885609472636, 1630895.606789430603385, 0.0 ], [ 508504.343885612208396, 1630895.606789431069046, 0.0 ], [ 508515.214188656420447, 1630901.284607536392286, 0.0 ], [ 508521.775388767244294, 1630904.824199107708409, 0.0 ], [ 508526.487516777240671, 1630908.051114518195391, 0.0 ], [ 508536.189014802395832, 1630916.655539376894012, 0.0 ], [ 508542.436226420046296, 1630922.192340133711696, 0.0 ], [ 508570.114150854933541, 1630951.529014640487731, 0.0 ], [ 508583.311443295271602, 1630965.517229775898159, 0.0 ], [ 508606.131978153192904, 1630989.941521907225251, 0.0 ], [ 508611.107607280544471, 1630994.686658478574827, 0.0 ], [ 508620.850986148871016, 1631004.718765024328604, 0.0 ] ] ] } }
]
}
