{
"type": "FeatureCollection",
"name": "PUV_Routes",
"crs": { "type": "name", "properties": { "name": "urn:ogc:def:crs:OGC:1.3:CRS84" } },
"features": [
{ "type": "Feature", "properties": { "Name": "Antipolo UV Express Terminal to SM Megamall", "Agency": "LTFRB", "Type": "UV", "Route_Code": "UV03A", "Route_Name": "Antipolo - SM Megamall", "Route_Begi": "Antipolo UV Express Terminal", "Route_End": "SM Megamall", "Sched_T": "07:00-22:00", "Sched_D": "Mondays to Sundays" }, "geometry": { "type": "MultiLineString", "coordinates": [ [ [ 121.175264437893546, 14.587447023704668 ], [ 121.175291404707949, 14.587769504890986 ], [ 121.174423009466423, 14.587831470611802 ], [ 121.174041290776842, 14.587850332492016 ], [ 121.173136512813073, 14.587756180853534 ], [ 121.172737572935603, 14.587717430278049 ], [ 121.170702764721241, 14.587484660666993 ], [ 121.170187331521902, 14.587356765429652 ], [ 121.169400680835352, 14.586972544655849 ], [ 121.168915815277998, 14.58688180116371 ], [ 121.16856082835092, 14.586913647059433 ], [ 121.168303226219365, 14.587004906435459 ], [ 121.167595508826508, 14.587548163162559 ], [ 121.167307321874731, 14.587738231164204 ], [ 121.16661853168587, 14.587905722963034 ], [ 121.16616621286434, 14.587954361042456 ], [ 121.165982123831952, 14.587949869111041 ], [ 121.165895885906963, 14.587918647711371 ], [ 121.165765294267757, 14.587817083809158 ], [ 121.165654455608362, 14.587627562298193 ], [ 121.165545476457964, 14.587369264075736 ], [ 121.165400241049781, 14.587122143210781 ], [ 121.165115683363737, 14.586888128392037 ], [ 121.16477775163365, 14.586748947881031 ], [ 121.164630737444156, 14.586682130782378 ], [ 121.16448748766544, 14.586540959265406 ], [ 121.164321285282071, 14.586331027756595 ], [ 121.164157092323336, 14.586262363156614 ], [ 121.163863148166755, 14.586245832073057 ], [ 121.163578789448124, 14.586288775606318 ], [ 121.162746737917985, 14.586460342359523 ], [ 121.161027259141477, 14.586773762902581 ], [ 121.160632180295138, 14.586792611695357 ], [ 121.160294349457118, 14.586794693008203 ], [ 121.159051846259118, 14.586841977073698 ], [ 121.158149064360643, 14.586861152458308 ], [ 121.157160323222257, 14.586778146046237 ], [ 121.156625889390426, 14.586763619530467 ], [ 121.156192566697669, 14.586678392847766 ], [ 121.155738550311469, 14.586689619361389 ], [ 121.155414096330176, 14.586715849411906 ], [ 121.155030489493072, 14.586765351546401 ], [ 121.154630657032271, 14.586812075142078 ], [ 121.154343425875368, 14.586844785900423 ], [ 121.15408572684953, 14.586799408260219 ], [ 121.153890766342826, 14.586737478185418 ], [ 121.153285519256443, 14.586431157785819 ], [ 121.153176657135077, 14.586327133573155 ], [ 121.152912996690915, 14.585923940236482 ], [ 121.152878548965901, 14.585784552143298 ], [ 121.152870848110496, 14.585684182004879 ], [ 121.152864902531476, 14.585351461316076 ], [ 121.152922009655171, 14.585120934896919 ], [ 121.152987993808097, 14.584939423965334 ], [ 121.152977136803585, 14.584782599550701 ], [ 121.152955216143852, 14.584716613229681 ], [ 121.15284533149692, 14.584617249274668 ], [ 121.152742234394637, 14.58457084389328 ], [ 121.152429132188061, 14.584440923830334 ], [ 121.152222901715831, 14.584292348797302 ], [ 121.151749222900406, 14.583777757086761 ], [ 121.151006213139709, 14.582930606480113 ], [ 121.150167828818113, 14.582161581462234 ], [ 121.149862287870135, 14.58191083147795 ], [ 121.149585309984431, 14.58169784500558 ], [ 121.149369677209322, 14.581619301928729 ], [ 121.149103446389532, 14.581566432970819 ], [ 121.148678705843139, 14.581536077223284 ], [ 121.148321770460726, 14.581497259241468 ], [ 121.148046888874759, 14.581432367908134 ], [ 121.147932325986787, 14.581359944156679 ], [ 121.147647829476171, 14.581181671569214 ], [ 121.14743390819568, 14.580934580627998 ], [ 121.147307795008203, 14.580706024596102 ], [ 121.147107101643442, 14.580248881330503 ], [ 121.146991047523727, 14.579949369135289 ], [ 121.146913206037354, 14.579821002126227 ], [ 121.146793125576153, 14.579727233365762 ], [ 121.146559802582672, 14.579659873670478 ], [ 121.146018793412694, 14.579604530563651 ], [ 121.145805002704876, 14.5795600468725 ], [ 121.145573996272546, 14.579454232918668 ], [ 121.14537729470112, 14.579268470089515 ], [ 121.144943679930279, 14.578685064836677 ], [ 121.144576944194043, 14.578224299886827 ], [ 121.144238959851876, 14.577958691133109 ], [ 121.14397569348813, 14.577852089620192 ], [ 121.143530770502821, 14.57778809771961 ], [ 121.143200578709795, 14.577776208738461 ], [ 121.142910507124938, 14.577829353811067 ], [ 121.142284597390812, 14.578000727365918 ], [ 121.140168384166827, 14.578672972212267 ], [ 121.137252611562928, 14.579607736777888 ], [ 121.13452379937921, 14.580441987747697 ], [ 121.130543139975174, 14.581674656996965 ], [ 121.127371571383122, 14.582683786119814 ], [ 121.123608385858546, 14.583860461153014 ], [ 121.120070338059577, 14.584955179400875 ], [ 121.117934382873415, 14.585635806454322 ], [ 121.115784213969164, 14.586356896700883 ], [ 121.114801390493795, 14.586632456082176 ], [ 121.114200226290762, 14.586762849612537 ], [ 121.113356665041707, 14.586900787692063 ], [ 121.109259127916147, 14.587674954962644 ], [ 121.108136940323448, 14.587913371608698 ], [ 121.105392556452841, 14.588550257413734 ], [ 121.102812270872064, 14.589112691569253 ], [ 121.101791213052621, 14.589313860141161 ], [ 121.100663238625003, 14.589448150601639 ], [ 121.09951042338416, 14.589519246360762 ], [ 121.09808659867781, 14.58964992429204 ], [ 121.096678035680696, 14.589765717278171 ], [ 121.092272957361061, 14.590207909905041 ], [ 121.086188238395877, 14.590730526283124 ], [ 121.085378950233178, 14.590727083068428 ], [ 121.083827090135742, 14.59046736952669 ], [ 121.082256133061605, 14.590167687656667 ], [ 121.080249999890668, 14.589869991618084 ], [ 121.079230732327943, 14.589784806034672 ], [ 121.077058603277152, 14.589651637833011 ], [ 121.072783052013349, 14.589340610135849 ], [ 121.066587349563235, 14.588922194724285 ], [ 121.065409668919088, 14.588829554200746 ], [ 121.064615646395197, 14.58878514156002 ], [ 121.064092673022571, 14.588803858860631 ], [ 121.063890369315089, 14.588867107761095 ], [ 121.063630823250023, 14.589001004864464 ], [ 121.063231975827151, 14.58926319268336 ], [ 121.062285473351679, 14.590077574558121 ], [ 121.061254997260889, 14.5909570302194 ], [ 121.05950984156641, 14.592418448547509 ], [ 121.059069012322595, 14.592768931700935 ], [ 121.058925872161524, 14.592825657199654 ], [ 121.058591832711883, 14.5927643914263 ], [ 121.058504020103896, 14.592714223375005 ], [ 121.058198392517781, 14.591712398155906 ], [ 121.057466879581256, 14.589626985254172 ], [ 121.056305566343639, 14.585920787491617 ], [ 121.056110751039682, 14.585327871453575 ] ] ] } },
{ "type": "Feature", "properties": { "Name": "Cubao Uv Express to Marikina Heights UV Express‎", "Agency": null, "Type": "UV", "Route_Code": "UV04A", "Route_Name": "Cubao (Farmer's Market) - Marikina (SSS Village)", "Route_Begi": "Cubao UV Express", "Route_End": "Marikina Heights UV Express", "Sched_T": "07:00-22:00", "Sched_D": "Mondays to Sundays" }, "geometry": { "type": "MultiLineString", "coordinates": [ [ [ 121.051054169832256, 14.62051500554993 ], [ 121.053772774643079, 14.621707817608408 ], [ 121.053427411514249, 14.622459769811535 ], [ 121.055640141552587, 14.62351046309584 ], [ 121.055403941969956, 14.624004440034767 ], [ 121.059107395999902, 14.625814612625042 ], [ 121.061463376205182, 14.626921910992349 ], [ 121.062494374512141, 14.627449563372034 ], [ 121.06301903557204, 14.627644129126951 ], [ 121.063494771196702, 14.627735575438676 ], [ 121.064835569053358, 14.627961257630005 ], [ 121.065965157371096, 14.628181069471811 ], [ 121.067064807022263, 14.628379677550416 ], [ 121.067291989221104, 14.628411217961085 ], [ 121.067610831739472, 14.628541250216369 ], [ 121.068258071324635, 14.628831051574853 ], [ 121.073474282167126, 14.631322253937579 ], [ 121.074623699828834, 14.631879558890491 ], [ 121.075731136846713, 14.63247776402131 ], [ 121.076174098801928, 14.632670946532606 ], [ 121.076544454846243, 14.632667118008669 ], [ 121.077058871824633, 14.632495214047436 ], [ 121.077555576425894, 14.63221769984896 ], [ 121.077922587998486, 14.632027275398533 ], [ 121.078354003592025, 14.631934203252699 ], [ 121.078716736710703, 14.631974984649696 ], [ 121.07912528965204, 14.632023186386922 ], [ 121.080026425295074, 14.632212500853338 ], [ 121.081969982795371, 14.632624531875088 ], [ 121.083516488749353, 14.633111029793778 ], [ 121.08431455619781, 14.633337537473658 ], [ 121.085195334918595, 14.633616913343349 ], [ 121.089983546751753, 14.635936026143254 ], [ 121.090399947444624, 14.636170196786241 ], [ 121.090562624242082, 14.636198965117535 ], [ 121.090879002905083, 14.636184781784427 ], [ 121.091430714192796, 14.63614554680912 ], [ 121.092465397475522, 14.636037357639013 ], [ 121.093440918551863, 14.635981232104719 ], [ 121.09444697189214, 14.635893491517924 ], [ 121.094475185283272, 14.63603010202638 ], [ 121.094489120338281, 14.636266627945671 ], [ 121.094460057798543, 14.636394895504511 ], [ 121.094329893233834, 14.63672395061686 ], [ 121.094282233130542, 14.636893118560204 ], [ 121.094206028756531, 14.637294646114206 ], [ 121.094145139677877, 14.637803977747719 ], [ 121.094145265025162, 14.63811997215679 ], [ 121.094154969094902, 14.638519608542685 ], [ 121.094221994506796, 14.639040044744842 ], [ 121.094243141647382, 14.639409936136209 ], [ 121.094258663406961, 14.640036342735543 ], [ 121.094235873551582, 14.640337475387733 ], [ 121.094161638293883, 14.640893281683661 ], [ 121.094136954580733, 14.641233449616323 ], [ 121.094118081513514, 14.641783658659483 ], [ 121.094141020643562, 14.641858001645026 ], [ 121.09418496546219, 14.641945348255957 ], [ 121.094291928859747, 14.642075423298445 ], [ 121.094698753451908, 14.642521379310091 ], [ 121.094855375976991, 14.642703481404643 ], [ 121.095130461990664, 14.643125322275553 ], [ 121.095669161991324, 14.643918820042568 ], [ 121.095802895986537, 14.644149258763512 ], [ 121.096249986026024, 14.645004130249221 ], [ 121.096486924548614, 14.645500335681639 ], [ 121.096574863036636, 14.645786555290954 ], [ 121.096689664559435, 14.646401770198397 ], [ 121.096861803020033, 14.647165665924049 ], [ 121.096923008757031, 14.647438884199181 ], [ 121.096973669178311, 14.647602437981925 ], [ 121.097067303166867, 14.647806868407576 ], [ 121.097143730584605, 14.647952753628738 ], [ 121.097469502744417, 14.648572532789979 ], [ 121.097756979026315, 14.648917225691051 ], [ 121.097989993925765, 14.649141118341365 ], [ 121.098092151123581, 14.649177324571141 ], [ 121.09817043640949, 14.649196811053123 ], [ 121.098730841269571, 14.649327634405964 ], [ 121.099239687011249, 14.64943152450339 ], [ 121.099373336993594, 14.649445412158162 ], [ 121.099512709115359, 14.649446285928825 ], [ 121.09967021120147, 14.649429493869389 ], [ 121.099901209654746, 14.649394084349545 ], [ 121.100247709561017, 14.649346546005967 ], [ 121.100546481679075, 14.649304602792823 ], [ 121.100772720746761, 14.649301723134979 ], [ 121.100993238173473, 14.649312786494773 ], [ 121.101140256975185, 14.649336891047842 ], [ 121.101571781572773, 14.649441736842695 ], [ 121.101968981126973, 14.649639535342875 ], [ 121.1020711510685, 14.649703156946524 ], [ 121.102268815160727, 14.649844808374613 ], [ 121.102400128732725, 14.6499730107485 ], [ 121.102619333985743, 14.650257315022802 ], [ 121.102823765727152, 14.650592741875545 ], [ 121.102876318554095, 14.650706106227521 ], [ 121.103067717309443, 14.650706491627259 ], [ 121.10326390009692, 14.650731968525562 ], [ 121.10346486923082, 14.65078764857696 ], [ 121.103733150528839, 14.650871182181406 ], [ 121.103892585060947, 14.650905503135162 ], [ 121.104110239173679, 14.650913776543511 ], [ 121.104689651365192, 14.650836393214426 ], [ 121.104838557181878, 14.65080751915513 ], [ 121.105434182551761, 14.650697598330726 ], [ 121.105790220951931, 14.650631459796642 ], [ 121.106137692858894, 14.650621088033963 ], [ 121.106885155938656, 14.6506356372933 ], [ 121.107302329290832, 14.650658691919702 ], [ 121.107642197101626, 14.650719884548577 ], [ 121.108391653033209, 14.650914730550754 ], [ 121.109034172177843, 14.651062222147418 ], [ 121.109278555617507, 14.651070478945877 ], [ 121.109596431272351, 14.651051750530783 ], [ 121.109802617798806, 14.651033071262029 ], [ 121.110407812222476, 14.650976108931408 ], [ 121.110415516033996, 14.651118302776279 ] ] ] } },
{ "type": "Feature", "properties": { "Name": "Marikia - Cubao UV Express", "Agency": null, "Type": "UV", "Route_Code": "UV05A", "Route_Name": "Marikina - Cubao UV Express", "Route_Begi": "J.P. Rizal St. / Spain St Intersection, Marikina City", "Route_End": "Cubao UV Express", "Sched_T": "07:00-22:00", "Sched_D": "Mondays to Sundays" }, "geometry": { "type": "MultiLineString", "coordinates": [ [ [ 121.105955154102205, 14.662862674865904 ], [ 121.10611319005649, 14.662824209597545 ], [ 121.106028541177608, 14.662593119455858 ], [ 121.105869892528759, 14.66220377150567 ], [ 121.105701729258286, 14.661884131983289 ], [ 121.105022329616332, 14.660451296112008 ], [ 121.104815919245112, 14.659988545485058 ], [ 121.104435611781071, 14.659181992301605 ], [ 121.104164229008049, 14.658585435689444 ], [ 121.104091615487221, 14.658447915899979 ], [ 121.103908171165273, 14.658100399542747 ], [ 121.103749546340765, 14.657749155082996 ], [ 121.103696017889476, 14.65759303930831 ], [ 121.103648227149748, 14.657459226572222 ], [ 121.103389818117535, 14.655893828119336 ], [ 121.10339165583396, 14.655799436283628 ], [ 121.103217916987774, 14.654718623473171 ], [ 121.103146131332608, 14.654287414505299 ], [ 121.103120274201771, 14.653959235030438 ], [ 121.103126787383104, 14.653713057063822 ], [ 121.10311225650419, 14.653229778209814 ], [ 121.103121483240244, 14.652500200046175 ], [ 121.103099318423517, 14.652023430067487 ], [ 121.103078132314877, 14.651601493916205 ], [ 121.103050362426089, 14.651404473869766 ], [ 121.102827159374442, 14.650713097025744 ], [ 121.102777477685635, 14.650616460571891 ], [ 121.102582590822564, 14.650278241557839 ], [ 121.102374367569112, 14.650003226671087 ], [ 121.102124170530175, 14.649793286430997 ], [ 121.102032498941767, 14.649724548876039 ], [ 121.101627649150956, 14.649496083598278 ], [ 121.101108293596809, 14.649373615113646 ], [ 121.10080280713133, 14.649340280821134 ], [ 121.100245337071627, 14.649379540462492 ], [ 121.099890247671823, 14.649431729219527 ], [ 121.099528329544185, 14.649478175364944 ], [ 121.099309869905937, 14.6494784309624 ], [ 121.09914376074353, 14.649458050425372 ], [ 121.098656870796333, 14.649354151431158 ], [ 121.098152793097711, 14.649237246656828 ], [ 121.097953394247, 14.649189955694906 ], [ 121.097723785071992, 14.648937534774298 ], [ 121.09746523214092, 14.648633409800167 ], [ 121.097193931745849, 14.64815952438145 ], [ 121.096907806803827, 14.647511801649326 ], [ 121.096817403698608, 14.647139195396498 ], [ 121.096624228066233, 14.646286085880918 ], [ 121.096505630421632, 14.645724777298334 ], [ 121.09627438208075, 14.645137489009327 ], [ 121.095938116897514, 14.644514923789036 ], [ 121.095708842827321, 14.644081913664344 ], [ 121.095491049289009, 14.643710238976089 ], [ 121.09527137647602, 14.643411057594449 ], [ 121.094879759025616, 14.642807099706427 ], [ 121.094492020503736, 14.642349984078827 ], [ 121.0942265362591, 14.642063830488562 ], [ 121.09411382337548, 14.641877993868716 ], [ 121.094091814127495, 14.641741381055402 ], [ 121.094093693778362, 14.641667028735704 ], [ 121.094119199823368, 14.640993207631183 ], [ 121.094173438106054, 14.640560089051011 ], [ 121.094220074754759, 14.640215265856767 ], [ 121.094219771407325, 14.639451303026636 ], [ 121.094189071730639, 14.639063756716647 ], [ 121.094123943332889, 14.63851264974376 ], [ 121.09410334411308, 14.637986482088552 ], [ 121.094135037827115, 14.637604626215715 ], [ 121.094180718285699, 14.637257015118568 ], [ 121.094249304774451, 14.636901960216488 ], [ 121.094422825198151, 14.636381433315597 ], [ 121.094453328451792, 14.636275470711613 ], [ 121.094443694981052, 14.636054278194782 ], [ 121.094395376353845, 14.635956958067105 ], [ 121.093277244020811, 14.636056574138953 ], [ 121.092095546228023, 14.63612578632657 ], [ 121.091193879884329, 14.636201812282753 ], [ 121.090568859703581, 14.636247454229569 ], [ 121.09040093018983, 14.636223898566913 ], [ 121.08992294837563, 14.635976011852659 ], [ 121.088532945556594, 14.635321699190937 ], [ 121.087881769442276, 14.634982279860424 ], [ 121.086623466477377, 14.634373031995818 ], [ 121.085507052732268, 14.633821300817523 ], [ 121.085052039202623, 14.633639343901113 ], [ 121.084326509111676, 14.633397944227232 ], [ 121.082702940084005, 14.632916273508247 ], [ 121.081554265712839, 14.632566114086435 ], [ 121.080572944541359, 14.63236939586352 ], [ 121.080152923943956, 14.632284024445047 ], [ 121.079003381730118, 14.632142123621964 ], [ 121.07854367204213, 14.632061884921232 ], [ 121.078288284946751, 14.632044987146079 ], [ 121.078140763422923, 14.632074276392443 ], [ 121.077905935718491, 14.632188066052786 ], [ 121.077392502808138, 14.632507935002893 ], [ 121.076882846287631, 14.632701403790966 ], [ 121.076424693507718, 14.632768458138775 ], [ 121.07601424355046, 14.632761145672081 ], [ 121.075473899930373, 14.632504792731371 ], [ 121.073854765236007, 14.631668809233844 ], [ 121.071244720368369, 14.630390698763966 ], [ 121.069322053666284, 14.629458110264274 ], [ 121.067594260050825, 14.628660575207954 ], [ 121.066996578578937, 14.628449400007328 ], [ 121.06580720220532, 14.628241520463611 ], [ 121.064165369401692, 14.62795196016071 ], [ 121.062869713580568, 14.62772411404003 ], [ 121.062384148479012, 14.627526729736248 ], [ 121.060152244550977, 14.626427776862229 ], [ 121.05715846333986, 14.624949492519272 ], [ 121.057358930700715, 14.62451291467765 ], [ 121.05837020174512, 14.62241039551229 ], [ 121.058711738133681, 14.621692824598728 ], [ 121.05944371303778, 14.620127646000935 ], [ 121.059182857615653, 14.620034673665824 ], [ 121.05830848140107, 14.61970400374801 ], [ 121.057713529095366, 14.619372780406017 ], [ 121.055639386435061, 14.617957312919591 ], [ 121.054413655373921, 14.617046757688763 ], [ 121.053672887689444, 14.616552468766114 ], [ 121.053489616440686, 14.616481871457589 ], [ 121.053006647097391, 14.616420627831543 ], [ 121.052695500387983, 14.616454147883655 ], [ 121.05083319336822, 14.620439766384932 ], [ 121.051027921157868, 14.620512222362121 ] ] ] } },
{ "type": "Feature", "properties": { "Name": "Ortigas-Antipolo UV Express Terminal to Marikina", "Agency": null, "Type": "UV", "Route_Code": "UV06A", "Route_Name": "Ortigas - Marikina", "Route_Begi": "Ortigas-Antipolo UV Express Terminal", "Route_End": "J.P. Rizal St. / Spain Street Intersection Marikina", "Sched_T": "07:00-22:00", "Sched_D": "Mondays to Sundays" }, "geometry": { "type": "MultiLineString", "coordinates": [ [ [ 121.06171896843756, 14.58583592710796 ], [ 121.061774784113254, 14.587702149418202 ], [ 121.061801576354597, 14.587986539506065 ], [ 121.061872257994082, 14.588230025602245 ], [ 121.062181554719899, 14.588594277017702 ], [ 121.06289940800221, 14.589343201470019 ], [ 121.063183743582172, 14.589114500383603 ], [ 121.063534887167179, 14.588904370673658 ], [ 121.063945220296901, 14.588776013107355 ], [ 121.064124618792945, 14.588709052201196 ], [ 121.064389914492395, 14.58866809312125 ], [ 121.06505223378754, 14.588697669126054 ], [ 121.067163270569253, 14.588836541323612 ], [ 121.079986084946782, 14.589752970341854 ], [ 121.079745345307487, 14.594790390541867 ], [ 121.07954059374967, 14.599013643771293 ], [ 121.079407910675727, 14.601842774991102 ], [ 121.079267557393095, 14.604575250423606 ], [ 121.079206393170693, 14.605467724893527 ], [ 121.079096287832584, 14.606173868888373 ], [ 121.078848390179019, 14.60693976996701 ], [ 121.078474490331502, 14.60765366329691 ], [ 121.077814263295792, 14.608375078767798 ], [ 121.076367845531365, 14.609925751917118 ], [ 121.076028209414972, 14.610375681915352 ], [ 121.075795523261007, 14.61100030652489 ], [ 121.075681168696946, 14.611569131978019 ], [ 121.075345646925783, 14.612985633507179 ], [ 121.074865295879832, 14.615216329233457 ], [ 121.074705200213117, 14.616036104768826 ], [ 121.074705223691907, 14.616112315365443 ], [ 121.07471478143907, 14.616155064862832 ], [ 121.074920122419741, 14.616152523985017 ], [ 121.075459274000139, 14.616205033636815 ], [ 121.075812439682778, 14.616256975326307 ], [ 121.076210369431323, 14.616346718683481 ], [ 121.07667155264933, 14.616574572661879 ], [ 121.077246314812143, 14.617130178906478 ], [ 121.078136626367353, 14.617982629546505 ], [ 121.078588264682423, 14.618523399776612 ], [ 121.079467719847059, 14.61970717864925 ], [ 121.079935634824338, 14.620379915466142 ], [ 121.080663262734149, 14.621326741045776 ], [ 121.081197994817302, 14.621988301194175 ], [ 121.081262976263659, 14.622215053252885 ], [ 121.08124203978754, 14.622399080561918 ], [ 121.081261224317544, 14.622679752299581 ], [ 121.081249924980852, 14.623137019211148 ], [ 121.081234818946697, 14.623627745611474 ], [ 121.081189377467282, 14.624735601188441 ], [ 121.081204754210248, 14.625046014789701 ], [ 121.081349970292806, 14.625438173676159 ], [ 121.081711085751749, 14.626365595439625 ], [ 121.081921310614916, 14.627053281070014 ], [ 121.081906108254046, 14.627257753233163 ], [ 121.08192526048532, 14.627439908769118 ], [ 121.08203418655701, 14.627768879902275 ], [ 121.082200515841791, 14.628484461291396 ], [ 121.082265572863292, 14.62892311529586 ], [ 121.082420461085903, 14.629672158435413 ], [ 121.082634574076238, 14.63054757999091 ], [ 121.082793239194302, 14.631170223645007 ], [ 121.083053185913258, 14.632084664329465 ], [ 121.08314486296274, 14.63220731450995 ], [ 121.083117220820881, 14.63232024522631 ], [ 121.08303714285158, 14.632615819495189 ], [ 121.083735930463519, 14.632823773821281 ], [ 121.08363868132156, 14.63314723585029 ], [ 121.08436160997465, 14.63337981639987 ], [ 121.085195334918595, 14.633616913343349 ], [ 121.085532696361682, 14.633778590874831 ], [ 121.086158981528556, 14.634086937207055 ], [ 121.086659254837684, 14.634354431775973 ], [ 121.088562941803417, 14.635275730162409 ], [ 121.089953006649509, 14.635949978014052 ], [ 121.090399947444624, 14.636170196786241 ], [ 121.090562624242082, 14.636198965117535 ], [ 121.091182536779399, 14.636155860450215 ], [ 121.092621167495722, 14.636016821984418 ], [ 121.09444697189214, 14.635893491517924 ], [ 121.094475185283272, 14.63603010202638 ], [ 121.094489120338281, 14.636266627945671 ], [ 121.09445672632593, 14.636418596348832 ], [ 121.094321329468968, 14.636792264416576 ], [ 121.094246979673017, 14.637056240750606 ], [ 121.09417274033207, 14.637599035663989 ], [ 121.094145139677877, 14.637803977747719 ], [ 121.094161634561786, 14.638478247939704 ], [ 121.094199959845696, 14.638838838937753 ], [ 121.094221994506796, 14.639040044744842 ], [ 121.094243141647382, 14.639409936136209 ], [ 121.094255718319673, 14.639831412180847 ], [ 121.094257730075682, 14.640089783316235 ], [ 121.094246391264733, 14.640381617702873 ], [ 121.094181668460223, 14.640853774850548 ], [ 121.094164565978815, 14.641054530653037 ], [ 121.094149388087388, 14.641294320325345 ], [ 121.094118081513514, 14.641783658659483 ], [ 121.094141020643562, 14.641858001645026 ], [ 121.09418496546219, 14.641945348255957 ], [ 121.094291928859747, 14.642075423298445 ], [ 121.094533540608737, 14.642340674444316 ], [ 121.094827674623772, 14.64265655745675 ], [ 121.094936564264188, 14.642827524843321 ], [ 121.095209741440229, 14.643249366338877 ], [ 121.095450436379167, 14.643602444668142 ], [ 121.095824863123738, 14.644178526282269 ], [ 121.096249986026024, 14.645004130249221 ], [ 121.096547128333256, 14.645659703625368 ], [ 121.096688683208342, 14.646336248249746 ], [ 121.096923008757031, 14.647438884199181 ], [ 121.097036717097467, 14.647711617351051 ], [ 121.097197230830162, 14.648057289692732 ], [ 121.097434158722535, 14.648514459433738 ], [ 121.097644282088609, 14.648785760499685 ], [ 121.097989993925765, 14.649141118341365 ], [ 121.098585726693898, 14.649290980750793 ], [ 121.099239687011249, 14.64943152450339 ], [ 121.099479298279817, 14.649446763968019 ], [ 121.099901209654746, 14.649394084349545 ], [ 121.100247709561017, 14.649346546005967 ], [ 121.100626668298133, 14.649305035093571 ], [ 121.100993238173473, 14.649312786494773 ], [ 121.101140256975185, 14.649336891047842 ], [ 121.101571781572773, 14.649441736842695 ], [ 121.101894499102514, 14.64958612569103 ], [ 121.102101709198536, 14.649728238050304 ], [ 121.102392007944403, 14.649957679086686 ], [ 121.102620283126214, 14.650244767808303 ], [ 121.102823774853135, 14.650613653242278 ], [ 121.102951814691892, 14.650894277298498 ], [ 121.103020649229762, 14.651129385509684 ], [ 121.103101003905209, 14.651512262588827 ], [ 121.103147119433032, 14.652184195412662 ], [ 121.103155064067238, 14.652886814040762 ], [ 121.103153306263494, 14.65323254935358 ], [ 121.103195776957918, 14.65429947601077 ], [ 121.103306820536488, 14.655000192869021 ], [ 121.103425577801801, 14.655873773666226 ], [ 121.103603601782694, 14.656925773210141 ], [ 121.103684020247528, 14.657446200117985 ], [ 121.10578051922306, 14.661952873479414 ], [ 121.10597831264171, 14.66235149870003 ], [ 121.106138870906321, 14.662740845751649 ], [ 121.106148919388062, 14.662795210949819 ], [ 121.10611319005649, 14.662824209597545 ], [ 121.105955154102205, 14.662862674865904 ] ] ] } },
{ "type": "Feature", "properties": { "Name": "Pasig to Robinsons Galleria", "Agency": null, "Type": "UV", "Route_Code": "UV07A", "Route_Name": "Pasig - Robinsons Galleria", "Route_Begi": "F. Manalo, Pasig", "Route_End": "Robinsons Galleria", "Sched_T": "07:00-22:00", "Sched_D": "Mondays to Sundays" }, "geometry": { "type": "MultiLineString", "coordinates": [ [ [ 121.081181965706747, 14.561251542918736 ], [ 121.081374271433234, 14.561729241322121 ], [ 121.081475516399777, 14.562017788194284 ], [ 121.08162068348453, 14.562387643587245 ], [ 121.081868993331355, 14.563010262974734 ], [ 121.081449191409419, 14.563184195745121 ], [ 121.08099119128255, 14.56327356435991 ], [ 121.080775554023276, 14.563329396915661 ], [ 121.080712592850446, 14.563383322161775 ], [ 121.080674454041628, 14.563474415599909 ], [ 121.08050668896081, 14.56401352159236 ], [ 121.080285580012855, 14.564836111723872 ], [ 121.080159845066419, 14.5655127555953 ], [ 121.080096990236896, 14.565890112350072 ], [ 121.080066523446021, 14.566098307845742 ], [ 121.079986392337517, 14.566174543914276 ], [ 121.079269012863094, 14.566817913639936 ], [ 121.078184846140232, 14.566370276410352 ], [ 121.077707654954949, 14.566152941992591 ], [ 121.07751298660169, 14.566143707065208 ], [ 121.077163775385898, 14.566273928864582 ], [ 121.076858894899914, 14.566249208846616 ], [ 121.076142684526729, 14.566110659952587 ], [ 121.075627401977059, 14.566136835797426 ], [ 121.073877355828202, 14.566248873789903 ], [ 121.072123491423767, 14.566362758566825 ], [ 121.071215060644221, 14.566392752081306 ], [ 121.070882964072226, 14.56632406784883 ], [ 121.070537489563435, 14.566190328686675 ], [ 121.070493601905511, 14.566216363921972 ], [ 121.070503227826364, 14.56650633459469 ], [ 121.070507214485531, 14.567095574103302 ], [ 121.070579873324817, 14.567567690220702 ], [ 121.070681180923202, 14.56811229176369 ], [ 121.071023137259303, 14.569264655593166 ], [ 121.071225662512418, 14.570030426425998 ], [ 121.071775921793574, 14.572093544435436 ], [ 121.072318585826523, 14.574253320578721 ], [ 121.072910842283989, 14.57627552964434 ], [ 121.073302372849298, 14.577184372187892 ], [ 121.073451314885531, 14.577425973822852 ], [ 121.073462796641323, 14.577526345812316 ], [ 121.07323003395507, 14.577807091272822 ], [ 121.072586996928422, 14.578331455638258 ], [ 121.071543249636306, 14.57918865530986 ], [ 121.071235098260814, 14.579487078306743 ], [ 121.071067281527377, 14.579968554133711 ], [ 121.070724004449843, 14.580907343061732 ], [ 121.070703117229243, 14.581279108968284 ], [ 121.070726257212542, 14.582096974967282 ], [ 121.070896600677145, 14.583738249082735 ], [ 121.071024088293427, 14.58567601328261 ], [ 121.071138986154409, 14.586976212201103 ], [ 121.071326674638271, 14.589164896991349 ], [ 121.071278036066303, 14.5892773678388 ], [ 121.070421973025347, 14.589213474726167 ], [ 121.06658783101166, 14.58893799439884 ], [ 121.064629491381709, 14.588812090719177 ], [ 121.064173322711099, 14.588834509194955 ], [ 121.064008231285129, 14.588870796424418 ], [ 121.063735319723421, 14.588986108929303 ], [ 121.063320243644256, 14.589228783469329 ], [ 121.062705777984704, 14.589743819419528 ], [ 121.062126616080405, 14.59024211615356 ], [ 121.061343262846478, 14.590909610156947 ], [ 121.060549411544983, 14.591595691932843 ], [ 121.060045616871761, 14.592023331659316 ], [ 121.059299461681604, 14.592651775447003 ], [ 121.057849100189046, 14.593777601260934 ], [ 121.056807112627538, 14.594550158712932 ], [ 121.056750808685422, 14.594565970605695 ], [ 121.05665916571165, 14.59446003871544 ], [ 121.056872903240588, 14.594283406869385 ], [ 121.057352866123551, 14.593925484185467 ], [ 121.058162976028228, 14.593309114735076 ], [ 121.059069457574779, 14.592634168642396 ], [ 121.05923219000168, 14.59247160952512 ], [ 121.058795452357714, 14.592189047568523 ] ] ] } },
{ "type": "Feature", "properties": { "Name": "Ayala Uv Express Terminal", "Agency": "LTFRB", "Type": "UV", "Route_Code": "UV01A", "Route_Name": "Ayala - Antipolo", "Route_Begi": "Ayala UV Express Terminal", "Route_End": "Antipolo UV Express Terminal", "Sched_T": "07:00-22:00", "Sched_D": "Mondays to Sundays" }, "geometry": { "type": "MultiLineString", "coordinates": [ [ [ 121.026093401958477, 14.549995291742919 ], [ 121.026744201246899, 14.550580760874697 ], [ 121.027496145830213, 14.551155066327626 ], [ 121.027906476367718, 14.551508202649668 ], [ 121.027996178934927, 14.551608570034832 ], [ 121.02845795287341, 14.551106649635514 ], [ 121.028984601395649, 14.550532228657836 ], [ 121.029104813987473, 14.550398383059804 ], [ 121.029209766067538, 14.55032773830203 ], [ 121.029427310099166, 14.550251506138281 ], [ 121.029620053535041, 14.550253346094477 ], [ 121.029759373462738, 14.550353707935876 ], [ 121.031373990453801, 14.551727200932508 ], [ 121.032059162083158, 14.552336816016561 ], [ 121.034713983367496, 14.554574515179548 ], [ 121.037244796423309, 14.556700671613772 ], [ 121.039096182863233, 14.558302712366014 ], [ 121.042631056500724, 14.561283718407818 ], [ 121.043005165055732, 14.561610810168212 ], [ 121.043451819223193, 14.562079159064215 ], [ 121.044066480103908, 14.562908088334844 ], [ 121.04443681777164, 14.563476822929138 ], [ 121.044807187409432, 14.564220284504692 ], [ 121.045059208962499, 14.564818778192764 ], [ 121.045777226192726, 14.567261127535183 ], [ 121.046361607247619, 14.569391217900208 ], [ 121.046835228582623, 14.571101235958981 ], [ 121.04704144106536, 14.571603077240171 ], [ 121.047438569718636, 14.57243946959284 ], [ 121.047820394320212, 14.573067677985575 ], [ 121.051096374346258, 14.57763973152389 ], [ 121.053921872047269, 14.581356780003937 ], [ 121.054616828880214, 14.582375261358466 ], [ 121.055220164658778, 14.583334277984571 ], [ 121.055823584935169, 14.584650182697196 ], [ 121.056748033360904, 14.58758689097367 ], [ 121.058428854960795, 14.592683353318847 ], [ 121.058504020103896, 14.592714223375005 ], [ 121.058591832711883, 14.5927643914263 ], [ 121.058818262285214, 14.592809664932302 ], [ 121.058889831396243, 14.592777119928348 ], [ 121.059388863560613, 14.592371789379101 ], [ 121.060148368830326, 14.591703378044139 ], [ 121.061444108324793, 14.590608244393712 ], [ 121.062625341580528, 14.589622800180679 ], [ 121.063268425917641, 14.589063146299329 ], [ 121.063534887167179, 14.588904370673658 ], [ 121.063726451115699, 14.58883626114854 ], [ 121.064124618792945, 14.588709052201196 ], [ 121.064413530318689, 14.588661364918737 ], [ 121.067163270569253, 14.588836541323612 ], [ 121.071300187252561, 14.58915771727199 ], [ 121.072640106163718, 14.589237270662469 ], [ 121.075081365236088, 14.589409436032472 ], [ 121.077287847157038, 14.589542612249341 ], [ 121.079986084946782, 14.589752970341854 ], [ 121.080885801523536, 14.589786857146883 ], [ 121.081248463418575, 14.589820199905187 ], [ 121.081866928772442, 14.589968705348825 ], [ 121.083516159314243, 14.590323198656151 ], [ 121.084980212855001, 14.59056807336786 ], [ 121.085381059752137, 14.590627420062177 ], [ 121.085678824057709, 14.590649625017102 ], [ 121.086236154882016, 14.590627130059255 ], [ 121.087276355436444, 14.590522680328373 ], [ 121.089286147196859, 14.590354685558644 ], [ 121.091658575560345, 14.590156800942742 ], [ 121.093357257314722, 14.590022342634404 ], [ 121.095647585254795, 14.589776119250557 ], [ 121.097892128645171, 14.589600525668192 ], [ 121.100526968463214, 14.589364342959106 ], [ 121.10118066850761, 14.589308315217524 ], [ 121.101448831204252, 14.58929147729021 ], [ 121.101835319752922, 14.589245779466223 ], [ 121.102731371992647, 14.589075332355298 ], [ 121.103362129486214, 14.588934732637458 ], [ 121.103975712971064, 14.588805291168935 ], [ 121.105039697980203, 14.588573424807111 ], [ 121.106403292247677, 14.588229897895211 ], [ 121.10789572125708, 14.587894671797246 ], [ 121.109042681304871, 14.587568881933896 ], [ 121.109699202130741, 14.587438477226335 ], [ 121.110340461558579, 14.587326665436152 ], [ 121.11116877111715, 14.58721848582822 ], [ 121.113313915600216, 14.586816015356066 ], [ 121.114845459957394, 14.586497456254216 ], [ 121.115620264103043, 14.586272181402991 ], [ 121.117943683696296, 14.585538719205816 ], [ 121.12047414008309, 14.584736357620132 ], [ 121.123424419729119, 14.583824090090731 ], [ 121.125040748194039, 14.583291660155783 ], [ 121.126099877331654, 14.582994642628256 ], [ 121.129679842596587, 14.581881223289544 ], [ 121.133465862663286, 14.580700720783138 ], [ 121.135591655833494, 14.580022954742114 ], [ 121.138850940998225, 14.579009947204876 ], [ 121.141449955517885, 14.578209179162297 ], [ 121.142961236027659, 14.577691556643945 ], [ 121.143027951658809, 14.577553966693289 ], [ 121.143113791890244, 14.577479564672128 ], [ 121.143251216337717, 14.577490637156707 ], [ 121.143316143505558, 14.577548221914306 ], [ 121.14332381449897, 14.577607698949102 ], [ 121.143325747150115, 14.577646732567075 ], [ 121.143587250013312, 14.577691190596022 ], [ 121.143810575635541, 14.577726376757939 ], [ 121.144062554225783, 14.577800580603416 ], [ 121.144339390725165, 14.577949121425144 ], [ 121.144600999429358, 14.578162728813291 ], [ 121.144979194756601, 14.578636498524649 ], [ 121.145313458048847, 14.57905267095677 ], [ 121.145445264905348, 14.579234754812397 ], [ 121.145603785300054, 14.579405669919701 ], [ 121.145783250302387, 14.579496644168662 ], [ 121.146054312824688, 14.57956339927823 ], [ 121.14639597010202, 14.579592935914997 ], [ 121.14657157730386, 14.579618853965828 ], [ 121.146737646267155, 14.579652212791745 ], [ 121.146848375400978, 14.579700475090782 ], [ 121.146945759705361, 14.579772909711217 ], [ 121.147004969769426, 14.579841649633494 ], [ 121.147096667271271, 14.579975427903534 ], [ 121.147161690457651, 14.580181715257986 ], [ 121.147336618895096, 14.580640732793366 ], [ 121.147431196373589, 14.580800532338445 ], [ 121.147586881336778, 14.581010482494161 ], [ 121.14774254765716, 14.581190691804521 ], [ 121.147948751513141, 14.581306741959247 ], [ 121.148163527712072, 14.58139676358368 ], [ 121.148345830347608, 14.581444052387301 ], [ 121.148629280535303, 14.581477338618884 ], [ 121.149036791754938, 14.581512407715399 ], [ 121.14932596616579, 14.581542901415995 ], [ 121.1494490830123, 14.581560484753286 ], [ 121.149545498488749, 14.581607825104141 ], [ 121.149676280435955, 14.581672802941496 ], [ 121.149866286550733, 14.581826037231506 ], [ 121.150022877119554, 14.581956056920102 ], [ 121.150163244029741, 14.58208515707058 ], [ 121.150494580268756, 14.582379572481235 ], [ 121.151085663201997, 14.582939634786515 ], [ 121.151271871719544, 14.583119822790197 ], [ 121.151472409215145, 14.583321377910529 ], [ 121.151618542642382, 14.583509955053172 ], [ 121.151796174198239, 14.583706877109027 ], [ 121.151918422222238, 14.58385271658906 ], [ 121.152084603130987, 14.584050574934645 ], [ 121.152309977686855, 14.584287430959463 ], [ 121.152433145824659, 14.584380293902777 ], [ 121.152630754576478, 14.584478686650325 ], [ 121.152796839708174, 14.584529699664831 ], [ 121.152919039135341, 14.584600257404363 ], [ 121.152994472084842, 14.584663409204726 ], [ 121.153035537292055, 14.584707994566582 ], [ 121.153056588832726, 14.584793485973137 ], [ 121.15305093171132, 14.584897582077806 ], [ 121.153033846690803, 14.585037931859974 ], [ 121.152980507258874, 14.585193174723106 ], [ 121.152927169594491, 14.585351205765003 ], [ 121.152911975311468, 14.585464601813458 ], [ 121.152915938669466, 14.585685796005407 ], [ 121.152938926531391, 14.585813109102046 ], [ 121.15296951893373, 14.585894876939996 ], [ 121.153088940380954, 14.586092763807144 ], [ 121.153208344208082, 14.586263698085023 ], [ 121.153279974656513, 14.586348228312227 ], [ 121.153371632477942, 14.586412299184637 ], [ 121.153704806046477, 14.586583098791641 ], [ 121.154096185481279, 14.586740849604766 ], [ 121.154309024814651, 14.586776961627796 ], [ 121.154605815933806, 14.586769338591534 ], [ 121.155402611935799, 14.586667528052184 ], [ 121.15580434948501, 14.586616154933656 ], [ 121.156152670863179, 14.586603850027606 ], [ 121.156273881119944, 14.586619572155623 ], [ 121.156624183498337, 14.586714145996943 ], [ 121.15691338772227, 14.586777159115845 ], [ 121.157321833839674, 14.58676760196118 ], [ 121.158130201196144, 14.586842360186859 ], [ 121.159140827870601, 14.586831479054402 ], [ 121.159399438651988, 14.586813651485219 ], [ 121.160010177146034, 14.586767710721032 ], [ 121.160442494804755, 14.586777649778041 ], [ 121.161033207619269, 14.586754025066499 ], [ 121.162217376342781, 14.586536689624266 ], [ 121.162907266787073, 14.586411689782571 ], [ 121.163612424325592, 14.586284818853967 ], [ 121.163863148166755, 14.586245832073057 ], [ 121.164003665508034, 14.586239015095025 ], [ 121.164153502540373, 14.586250066854333 ], [ 121.16423272809017, 14.586273248340099 ], [ 121.164336797223726, 14.586340094697157 ], [ 121.164545008559713, 14.586576020917844 ], [ 121.164687282185739, 14.586686522950387 ], [ 121.16493165508551, 14.586777438371978 ], [ 121.165161727229673, 14.586887880584042 ], [ 121.165431021692498, 14.58713027029949 ], [ 121.165676599297896, 14.587568778641518 ], [ 121.165839962946194, 14.587809381181762 ], [ 121.1658848399465, 14.587841879481818 ], [ 121.16596120658771, 14.587869709305794 ], [ 121.166079562541356, 14.587895651645512 ], [ 121.166239882368501, 14.587884389365518 ], [ 121.166754699376867, 14.58782130264686 ], [ 121.167289517612204, 14.58770383131014 ], [ 121.167599521396383, 14.587491715316858 ], [ 121.16785798401115, 14.587270340530615 ], [ 121.168295756136359, 14.586906643657516 ], [ 121.168346316530062, 14.586880585536008 ], [ 121.168691729561246, 14.586806923742296 ], [ 121.168851105691317, 14.586811460082865 ], [ 121.169164162688645, 14.586862359267764 ], [ 121.170019507854064, 14.587224227273994 ], [ 121.170368907160295, 14.587379191864072 ], [ 121.170717298228325, 14.587460734276206 ], [ 121.171426430719805, 14.587547598273 ], [ 121.172024837044987, 14.587602009663453 ], [ 121.172758771220089, 14.587673052292329 ], [ 121.173312108392352, 14.587757233130151 ], [ 121.174075626330023, 14.587826391700601 ], [ 121.174709278676531, 14.587794337028708 ], [ 121.174892502588378, 14.587783981726037 ], [ 121.175291404707949, 14.587769504890986 ], [ 121.175264437893546, 14.587447023704668 ] ] ] } },
{ "type": "Feature", "properties": { "Name": "F. Manalo, Pasig", "Agency": null, "Type": "UV", "Route_Code": "UV02A", "Route_Name": "Pasig - EDSA Central", "Route_Begi": "F. Manalo, Pasig", "Route_End": "EDSA Central", "Sched_T": "7:00-22:00", "Sched_D": "Mondays to Sundays" }, "geometry": { "type": "MultiLineString", "coordinates": [ [ [ 121.081024836924925, 14.561319256419985 ], [ 121.081190062213679, 14.561260080388923 ], [ 121.081374271433234, 14.561729241322121 ], [ 121.081470899769485, 14.56202531060117 ], [ 121.081611315615689, 14.56239708626576 ], [ 121.081868993331355, 14.563010262974734 ], [ 121.081449191409419, 14.563184195745121 ], [ 121.08099119128255, 14.56327356435991 ], [ 121.080775554023276, 14.563329396915661 ], [ 121.080712592850446, 14.563383322161775 ], [ 121.080423190247515, 14.56430320894316 ], [ 121.080285580012855, 14.564836111723872 ], [ 121.080159845066419, 14.5655127555953 ], [ 121.080066523446021, 14.566098307845742 ], [ 121.079269012863094, 14.566817913639936 ], [ 121.077715080336006, 14.566171033679115 ], [ 121.077603107869876, 14.566146104473011 ], [ 121.07743989388571, 14.566181627995759 ], [ 121.077163775385898, 14.566273928864582 ], [ 121.076858894899914, 14.566249208846616 ], [ 121.076318882298921, 14.566125469051153 ], [ 121.076208259390569, 14.566101852627686 ], [ 121.076096294942076, 14.566101885914087 ], [ 121.076005918521375, 14.56611636513238 ], [ 121.073221693015782, 14.566274836986345 ], [ 121.07183632588216, 14.56636194173077 ], [ 121.071288652472731, 14.566392312439762 ], [ 121.071215060644221, 14.566392752081306 ], [ 121.070967582852177, 14.566342474558091 ], [ 121.070537489563435, 14.566190328686675 ], [ 121.070280879009019, 14.566072008624932 ], [ 121.069740903327215, 14.564708374746305 ], [ 121.069470965621221, 14.564194730560358 ], [ 121.069164617759498, 14.563717883684951 ], [ 121.068943300215096, 14.563401303937985 ], [ 121.068570914713277, 14.563134690480354 ], [ 121.06811897811032, 14.562998168902743 ], [ 121.067760131179739, 14.562903665469063 ], [ 121.067320369863239, 14.562890641448009 ], [ 121.06700337876768, 14.562935394524686 ], [ 121.066308706121333, 14.563072213632331 ], [ 121.06580288728783, 14.563214238392909 ], [ 121.065616752868308, 14.563293116657055 ], [ 121.065519657930139, 14.56340481872402 ], [ 121.065457653809091, 14.563584832339433 ], [ 121.065453637948309, 14.563701766363035 ], [ 121.065507695516573, 14.56407620116685 ], [ 121.065623872487421, 14.564702880247765 ], [ 121.065753585291787, 14.565500356817745 ], [ 121.066050839255254, 14.567297633424849 ], [ 121.066118388172271, 14.567670750683201 ], [ 121.066483160694617, 14.569701875101188 ], [ 121.066496669052512, 14.569770192018238 ], [ 121.066545312983735, 14.570067110415817 ], [ 121.066531867765036, 14.570232659381368 ], [ 121.066477937054799, 14.570340409166327 ], [ 121.066305314446552, 14.570521765051593 ], [ 121.065312664470639, 14.571320839131683 ], [ 121.063251831976274, 14.573050378188789 ], [ 121.062043385618097, 14.574124085762152 ], [ 121.061912561299408, 14.574246305072514 ], [ 121.061058809247115, 14.574967810740887 ], [ 121.059488868464356, 14.576321439582488 ], [ 121.059370176168386, 14.57641606380354 ], [ 121.058800737879238, 14.575793425388667 ], [ 121.057883161401492, 14.574768823142794 ], [ 121.056193151741851, 14.576180265767034 ], [ 121.055911260331172, 14.576432585141371 ], [ 121.05485247409699, 14.577372210823718 ], [ 121.054028359167987, 14.578062152158218 ], [ 121.053936646709019, 14.578167278963544 ], [ 121.053820650533808, 14.578268469080442 ], [ 121.053152987740205, 14.578811224145127 ], [ 121.052710572668957, 14.579159482778749 ], [ 121.052491390498616, 14.579344779128792 ], [ 121.053158695416343, 14.580294562557919 ] ] ] } },
{ "type": "Feature", "properties": { "Name": null, "Agency": null, "Type": "UV", "Route_Code": "UV02B", "Route_Name": "EDSA Central - Pasig", "Route_Begi": "EDSA Central", "Route_End": "F. Manalo, Pasig", "Sched_T": "7:00-22:00", "Sched_D": "Mondays to Sundays" }, "geometry": { "type": "MultiLineString", "coordinates": [ [ [ 121.053158695416343, 14.580294562557919 ], [ 121.053711289304644, 14.581025610715015 ], [ 121.054648720931965, 14.580261743166426 ], [ 121.056189727170064, 14.578963991966186 ], [ 121.057074869086478, 14.578213264221118 ], [ 121.05921604726116, 14.576407886960505 ], [ 121.059418359878734, 14.576230471214703 ], [ 121.061052028888739, 14.574824273887577 ], [ 121.061758432098515, 14.574231232171108 ], [ 121.064563774636184, 14.571868902725805 ], [ 121.066246273997351, 14.57044048544231 ], [ 121.066397999521115, 14.570304955577598 ], [ 121.066459513304196, 14.570178481460092 ], [ 121.0664603189838, 14.57003970549485 ], [ 121.066407109620272, 14.569695653755627 ], [ 121.066224692152645, 14.568565786356055 ], [ 121.06573831633392, 14.565783824646857 ], [ 121.065613356048189, 14.565103936815698 ], [ 121.065365100952093, 14.563657117575275 ], [ 121.065380231900349, 14.563487955060303 ], [ 121.065439210316811, 14.563343416285838 ], [ 121.065555527400406, 14.563230067092025 ], [ 121.065800001319019, 14.563141320218863 ], [ 121.066294017729817, 14.563003240037668 ], [ 121.06707973945278, 14.562848660429387 ], [ 121.067346149836865, 14.562822314342668 ], [ 121.067602452061635, 14.562828816941137 ], [ 121.067794679644663, 14.562836978340721 ], [ 121.067991975794484, 14.562881269240702 ], [ 121.068730586544049, 14.563097860226989 ], [ 121.069029043847252, 14.563104350064561 ], [ 121.069152174058942, 14.563240629540786 ], [ 121.06937146979422, 14.563562465052238 ], [ 121.069816836498205, 14.564306314954489 ], [ 121.070199846773704, 14.565155289212258 ], [ 121.070402366479755, 14.565764533757095 ], [ 121.070466512375788, 14.566007579192583 ], [ 121.070555903332973, 14.566083101360743 ], [ 121.070974134313559, 14.566257072267886 ], [ 121.071237200752421, 14.566316123149484 ], [ 121.071846761093653, 14.566296246139215 ], [ 121.072654435952174, 14.566224578702295 ], [ 121.073194849358416, 14.566165302084483 ], [ 121.074248714929894, 14.566109160949015 ], [ 121.07602174235123, 14.566031452651806 ], [ 121.076079444949258, 14.565871309619572 ], [ 121.075978110127778, 14.565352367519184 ], [ 121.075898771789824, 14.56507483944908 ], [ 121.075768759059741, 14.564513205465241 ], [ 121.075875201749497, 14.564517485056747 ], [ 121.076500993067384, 14.56451894125418 ], [ 121.076644335575523, 14.564568167900152 ], [ 121.077323957336063, 14.564829091873149 ], [ 121.078168864671298, 14.565201640912104 ], [ 121.078393151405052, 14.565268086033184 ], [ 121.078926862090896, 14.565350037498142 ], [ 121.079501034564657, 14.565408982701799 ], [ 121.079882978427719, 14.565463880993077 ], [ 121.080118639124692, 14.565504043821464 ], [ 121.080249938041717, 14.564825315059371 ], [ 121.080499217295511, 14.56398847593834 ], [ 121.080654166999238, 14.563448104621349 ], [ 121.08067943712156, 14.56337994046083 ], [ 121.080717363799792, 14.563342155156009 ], [ 121.080767095442212, 14.563309293054981 ], [ 121.080977848851205, 14.563248460423949 ], [ 121.081438149288729, 14.563161270849131 ], [ 121.081810747812355, 14.56301580631634 ], [ 121.081577843922318, 14.562394263995547 ], [ 121.081442821640934, 14.562015753084566 ], [ 121.081327226520514, 14.561743165348428 ], [ 121.081154240200505, 14.561287477446728 ], [ 121.08103116403197, 14.561331038035217 ] ] ] } },
{ "type": "Feature", "properties": { "Name": "Ayala to Antipolo", "Agency": "LTFRB", "Type": "UV", "Route_Code": "UV01B", "Route_Name": "Antipolo - Ayala", "Route_Begi": "Antipolo UV Express Terminal", "Route_End": "Ayala UV Express Terminal", "Sched_T": "07:00-22:00", "Sched_D": "Mondays to Sundays" }, "geometry": { "type": "MultiLineString", "coordinates": [ [ [ 121.175143685124482, 14.587459370463128 ], [ 121.175264437893546, 14.587447023704668 ], [ 121.175302460372251, 14.587796339648955 ], [ 121.174892692377796, 14.5878229121766 ], [ 121.174646491639635, 14.587835406745411 ], [ 121.174070615338763, 14.58786127612359 ], [ 121.173323494360289, 14.587783800937748 ], [ 121.172747558263339, 14.587730015129758 ], [ 121.172028251479148, 14.587657845740191 ], [ 121.17142984500228, 14.58760343436041 ], [ 121.170720712330549, 14.58751657037635 ], [ 121.170372321173289, 14.587435027970653 ], [ 121.170022921776223, 14.587280063387409 ], [ 121.16916757638873, 14.586918195397782 ], [ 121.168854519311623, 14.586867296218559 ], [ 121.168695143141349, 14.58686275988077 ], [ 121.168349730024502, 14.586936421680099 ], [ 121.168294989507245, 14.586977267095875 ], [ 121.167861397389714, 14.587326176681241 ], [ 121.167602934713855, 14.587547551470875 ], [ 121.167292930855453, 14.587759667468475 ], [ 121.166758112487543, 14.587877138813861 ], [ 121.166243295350654, 14.587940225541111 ], [ 121.166082975483349, 14.587951487823819 ], [ 121.165964619499391, 14.58792554548627 ], [ 121.165888252838442, 14.587897715663738 ], [ 121.165843375826213, 14.587865217364634 ], [ 121.165680012132398, 14.5876246148284 ], [ 121.165446975075014, 14.587335602243622 ], [ 121.163976075215814, 14.586791351160521 ], [ 121.162935431295139, 14.586568695841512 ], [ 121.162220788287186, 14.58659252587584 ], [ 121.161036619269353, 14.586809861337374 ], [ 121.160445906306492, 14.586833486058939 ], [ 121.160013588538717, 14.586823547009402 ], [ 121.159576466838843, 14.586960147047138 ], [ 121.159090339908886, 14.587526240576768 ], [ 121.158958884407909, 14.587644572650213 ], [ 121.158840844120874, 14.587652861161835 ], [ 121.158671309209595, 14.587573319578024 ], [ 121.158410933774817, 14.587395187320594 ], [ 121.158347397944183, 14.5873863069242 ], [ 121.158193973246583, 14.587437318144712 ], [ 121.158106316880279, 14.587488286616422 ], [ 121.157996735422643, 14.587535984647509 ], [ 121.157863534644676, 14.587568917136425 ], [ 121.157711768071081, 14.587578869224917 ], [ 121.157576848395692, 14.587564175680699 ], [ 121.157468890523106, 14.587519903070438 ], [ 121.157384511682892, 14.587431272826718 ], [ 121.157281409724789, 14.587088096610403 ], [ 121.157239172399869, 14.586973162163966 ], [ 121.157104181510377, 14.586828610999886 ], [ 121.156916798335047, 14.586832995457257 ], [ 121.156627594037147, 14.586769982343615 ], [ 121.156277291568813, 14.586675408508745 ], [ 121.156156081281196, 14.586659686382877 ], [ 121.155807759815588, 14.58667199129483 ], [ 121.155406022166076, 14.586723364419974 ], [ 121.154609225965203, 14.586825174972432 ], [ 121.154312434771413, 14.586832798013736 ], [ 121.154099595383769, 14.586796685994509 ], [ 121.153708215847558, 14.586638935188837 ], [ 121.153375042192025, 14.586468135588357 ], [ 121.15329945044877, 14.586415295285679 ], [ 121.153238724002563, 14.586387760648115 ], [ 121.152978796504158, 14.586043038515959 ], [ 121.1528419705609, 14.585693312117746 ], [ 121.152862008443549, 14.585392756781578 ], [ 121.152952929444524, 14.585177557183124 ], [ 121.152989780725989, 14.584801445011889 ], [ 121.152923938274625, 14.584688166838168 ], [ 121.152752477084306, 14.584570862897738 ], [ 121.152634164069198, 14.584534523076142 ], [ 121.152436555265879, 14.584436130332431 ], [ 121.152355141005458, 14.584374747869589 ], [ 121.152260970695338, 14.584334663199003 ], [ 121.152012904356951, 14.584070405720968 ], [ 121.151859332959546, 14.583896416324087 ], [ 121.151574102563259, 14.583532000511051 ], [ 121.151219730077017, 14.583162700203184 ], [ 121.150490776132003, 14.582460241194269 ], [ 121.150114516795142, 14.582140221951352 ], [ 121.149811649310408, 14.581875174536655 ], [ 121.149577984391726, 14.581706980739909 ], [ 121.149436283264322, 14.581629878776372 ], [ 121.149342015079029, 14.581600543181601 ], [ 121.149329374773629, 14.58159873791238 ], [ 121.14904020028942, 14.581568244216854 ], [ 121.148632688966515, 14.581533175127412 ], [ 121.148349238706871, 14.581499888900817 ], [ 121.148077824929956, 14.581437733619676 ], [ 121.147880472673336, 14.581355737457026 ], [ 121.147710078724018, 14.581237594000537 ], [ 121.147485645414136, 14.580997951965061 ], [ 121.147262799898499, 14.580602289167484 ], [ 121.147112465676713, 14.580204940239472 ], [ 121.147021281915684, 14.580011202291065 ], [ 121.146991047523727, 14.579949369135289 ], [ 121.146913206037354, 14.579821002126227 ], [ 121.146754671006363, 14.579737096306925 ], [ 121.146606753586696, 14.579681071950999 ], [ 121.146574985183776, 14.579674690518337 ], [ 121.146399377937286, 14.5796487724706 ], [ 121.146057720573424, 14.579619235839759 ], [ 121.145786657981645, 14.579552480735108 ], [ 121.14560719293253, 14.579461506489634 ], [ 121.145479597450105, 14.579383118172364 ], [ 121.145265267777845, 14.579113906314003 ], [ 121.144932786630307, 14.578667394533603 ], [ 121.144310131655061, 14.578009195157199 ], [ 121.144025055628518, 14.577861554864375 ], [ 121.143571387916239, 14.577774778619517 ], [ 121.143353847560334, 14.577761767501153 ], [ 121.142949161663353, 14.577803061722568 ], [ 121.141453362083269, 14.578265015808183 ], [ 121.140374685790789, 14.57863227467333 ], [ 121.138872462917845, 14.579091334748352 ], [ 121.137953595950322, 14.579379257601511 ], [ 121.137392153839698, 14.579547088313468 ], [ 121.136016367053259, 14.579963359184438 ], [ 121.135603299519644, 14.58009989947114 ], [ 121.133469267262569, 14.580756557550815 ], [ 121.131128610390661, 14.581509788321602 ], [ 121.13089853667114, 14.581558133803654 ], [ 121.129683246263212, 14.581937060114608 ], [ 121.126103280116212, 14.583050479507385 ], [ 121.125044150717059, 14.583347497051022 ], [ 121.123427821854349, 14.583879927010139 ], [ 121.120477541481094, 14.584792194583834 ], [ 121.117947084470799, 14.585594556207287 ], [ 121.115623664304948, 14.586328018439062 ], [ 121.114848859968006, 14.586553293301902 ], [ 121.113317315230489, 14.586871852427304 ], [ 121.111172170213905, 14.58727432293259 ], [ 121.110343860448495, 14.587382502553517 ], [ 121.10970260086107, 14.587494314353615 ], [ 121.109046079871987, 14.587624719071242 ], [ 121.107899119540832, 14.587950508951693 ], [ 121.106406690161108, 14.58828573507232 ], [ 121.105043095555942, 14.588629262004694 ], [ 121.103979110282694, 14.588861128382657 ], [ 121.103365526645433, 14.588990569860497 ], [ 121.102734768995319, 14.589131169587873 ], [ 121.101838716532697, 14.589301616712472 ], [ 121.101452227887449, 14.589347314542485 ], [ 121.101184065123505, 14.589364152474058 ], [ 121.100530364915329, 14.589420180225927 ], [ 121.097895524437362, 14.589656362976372 ], [ 121.095650980484294, 14.589831956594002 ], [ 121.093360651971224, 14.590078180013425 ], [ 121.091661969791019, 14.590212638348323 ], [ 121.090682017314151, 14.590317503956863 ], [ 121.088444246108168, 14.590521945674213 ], [ 121.086956893532005, 14.590658774140834 ], [ 121.085960267646456, 14.590757653706712 ], [ 121.085378950233178, 14.590727083068428 ], [ 121.083628705678308, 14.590425865898274 ], [ 121.081640331442159, 14.590093123601257 ], [ 121.072612841920019, 14.589350239082052 ], [ 121.069263602578943, 14.589098245269208 ], [ 121.067172445230426, 14.58896084252468 ], [ 121.064615646395197, 14.58878514156002 ], [ 121.064046701604326, 14.588855702894783 ], [ 121.063911800356252, 14.588892688099772 ], [ 121.063743181728057, 14.58896991817366 ], [ 121.063346939708168, 14.589199117589709 ], [ 121.062918686362437, 14.589549855293843 ], [ 121.058863716288002, 14.592937249122237 ], [ 121.058420268335297, 14.593277306878594 ], [ 121.058270196591309, 14.593361098129115 ], [ 121.057919174340668, 14.592295313917392 ], [ 121.057667712352938, 14.591485708298261 ], [ 121.057451676775955, 14.590720437115305 ], [ 121.057242384146136, 14.589937098759965 ], [ 121.057024687609015, 14.589270366287082 ], [ 121.056871111105679, 14.588762924270631 ], [ 121.055463745346401, 14.584586816717799 ], [ 121.055237663054911, 14.584081030867697 ], [ 121.054643821140715, 14.582941387020002 ], [ 121.053824008504961, 14.581762371731225 ], [ 121.052643232002424, 14.580103868644168 ], [ 121.051314041815402, 14.578264732983735 ], [ 121.048470216447257, 14.574476435991407 ], [ 121.047670714791721, 14.573359802470844 ], [ 121.047292882988955, 14.572771919122086 ], [ 121.047134318436818, 14.572466475729662 ], [ 121.046722698522217, 14.571514002896768 ], [ 121.046432495432882, 14.570581216414251 ], [ 121.046084906548074, 14.569333114267788 ], [ 121.045882454607096, 14.568748483377744 ], [ 121.045555121385007, 14.567585777344204 ], [ 121.045308781482106, 14.566718674528859 ], [ 121.04508943940057, 14.565946821377841 ], [ 121.044778996305354, 14.564899073436548 ], [ 121.044657538983515, 14.56460347598682 ], [ 121.044330293152214, 14.563880909037371 ], [ 121.044057046886067, 14.563391542125828 ], [ 121.04365900964315, 14.562816794114134 ], [ 121.043210387342242, 14.562232199398805 ], [ 121.042714572029681, 14.56175600408943 ], [ 121.041034908490275, 14.560281455137163 ], [ 121.040120892683987, 14.559535975087734 ], [ 121.036362010532287, 14.556361880304445 ], [ 121.034621734148033, 14.55492506549173 ], [ 121.029633732434164, 14.55072291246139 ], [ 121.029250726689099, 14.550370407068383 ], [ 121.029213143931742, 14.550383576863638 ], [ 121.029143001607878, 14.550430790672484 ], [ 121.027060551208535, 14.548563499945073 ], [ 121.025988123525352, 14.547634037632912 ], [ 121.024848442955076, 14.548908569846519 ], [ 121.025394773515927, 14.549380693817323 ], [ 121.025627470015564, 14.54957529001463 ] ] ] } },
{ "type": "Feature", "properties": { "Name": "Antipolo UV Express Terminal to SM Megamall", "Agency": "LTFRB", "Type": "UV", "Route_Code": "UV03B", "Route_Name": "SM Megamall - Antipolo", "Route_Begi": "EDSA, SM Megamall", "Route_End": "Antipolo UV Express Terminal", "Sched_T": "07:00-22:00", "Sched_D": "Mondays to Sundays" }, "geometry": { "type": "MultiLineString", "coordinates": [ [ [ 121.055483992085897, 14.584634439616547 ], [ 121.055092573438287, 14.583790371257304 ], [ 121.054542626154912, 14.582874072878262 ], [ 121.054292966228999, 14.582494749139896 ], [ 121.053655340851066, 14.581599816525708 ], [ 121.053597995875791, 14.581553843232269 ], [ 121.05347320885727, 14.581560437553364 ], [ 121.052940420277139, 14.581999042009969 ], [ 121.052766694092313, 14.58183648716766 ], [ 121.053694006776311, 14.581036494538107 ], [ 121.05428609015965, 14.581887093876382 ], [ 121.055046885920135, 14.58307597365496 ], [ 121.055983227474698, 14.584970188040947 ], [ 121.056209361278235, 14.585694400979289 ], [ 121.057392350604502, 14.589402492927242 ], [ 121.058111248597911, 14.591535701469629 ], [ 121.058467343256169, 14.592658965317277 ], [ 121.058649502237657, 14.592770602122989 ], [ 121.058769868477569, 14.592782170788958 ], [ 121.058913008650904, 14.592725445385623 ], [ 121.059353838056509, 14.59237496252482 ], [ 121.06109899444364, 14.590913545354574 ], [ 121.062129470955085, 14.590034090376774 ], [ 121.063075973821725, 14.58921970912971 ], [ 121.063474821352258, 14.588957521575839 ], [ 121.063734367461549, 14.588823624645169 ], [ 121.063962815585896, 14.588759440212122 ], [ 121.064169767599438, 14.588701295068175 ], [ 121.065496966563799, 14.588756802885344 ], [ 121.067171577565333, 14.58887133663506 ], [ 121.069583157693771, 14.589044784120695 ], [ 121.071365702589233, 14.58916254327681 ], [ 121.072637268362072, 14.589262368388876 ], [ 121.075681264963691, 14.589474988738486 ], [ 121.078408215073239, 14.589654820798328 ], [ 121.080049098189818, 14.589729856987212 ], [ 121.080840028842729, 14.589769022451506 ], [ 121.08144041747515, 14.589867369651111 ], [ 121.083616033437622, 14.59035607176313 ], [ 121.085063040681831, 14.590580587036605 ], [ 121.085219883219423, 14.590601884363608 ], [ 121.085788212701587, 14.590639465560638 ], [ 121.086966971995722, 14.590548735694005 ], [ 121.088798338244899, 14.590383867023194 ], [ 121.089286147196859, 14.590354685558644 ], [ 121.091108632680317, 14.590205672697886 ], [ 121.093138982691059, 14.59002920174097 ], [ 121.09342228059576, 14.589988038777424 ], [ 121.095251953991166, 14.589831331734329 ], [ 121.097302519598813, 14.589620328368577 ], [ 121.098127149141035, 14.589583875794739 ], [ 121.100120385553112, 14.589404074112363 ], [ 121.100526968463214, 14.589364342959106 ], [ 121.101448831204252, 14.58929147729021 ], [ 121.101798517168561, 14.589238226812547 ], [ 121.101976172477563, 14.589211173099931 ], [ 121.102778824548338, 14.589054824262419 ], [ 121.103547744199744, 14.588890275111385 ], [ 121.103975712971064, 14.588805291168935 ], [ 121.105039697980203, 14.588573424807111 ], [ 121.107235483036646, 14.588047851336876 ], [ 121.107487371272953, 14.587984460123739 ], [ 121.108137590864018, 14.587820821806961 ], [ 121.108729435893807, 14.587662901785185 ], [ 121.109928329075828, 14.587407816093357 ], [ 121.111166023016352, 14.587188837771111 ], [ 121.111949279525888, 14.587057100848707 ], [ 121.113313915600216, 14.586816015356066 ], [ 121.114691908155535, 14.586541804094065 ], [ 121.114837416484264, 14.586519706143761 ], [ 121.116297084610295, 14.586050004447525 ], [ 121.117566705733807, 14.585632257482445 ], [ 121.117905609251437, 14.585523703643373 ], [ 121.119639515460378, 14.584999304688953 ], [ 121.11997782201324, 14.584896986176545 ], [ 121.120294807371963, 14.584801578015469 ], [ 121.121959761485172, 14.584278859259497 ], [ 121.128981385412402, 14.582074235834533 ], [ 121.128996388714953, 14.582073729842071 ], [ 121.130387130410625, 14.581631218415984 ], [ 121.134367789927992, 14.58039855181916 ], [ 121.137096602182226, 14.579564302667636 ], [ 121.140012374892507, 14.578629540044306 ], [ 121.142128588189607, 14.577957296607627 ], [ 121.142572270301443, 14.57779671202667 ], [ 121.142811672979974, 14.577712814720661 ], [ 121.14292631687799, 14.577673332393925 ], [ 121.142985292777908, 14.577601036257736 ], [ 121.143027951658809, 14.577553966693289 ], [ 121.143221322496302, 14.577517140501884 ], [ 121.143297230054557, 14.577556511611858 ], [ 121.143325747150115, 14.577646732567075 ], [ 121.143587250013312, 14.577691190596022 ], [ 121.143988751388576, 14.577782745230779 ], [ 121.144344680361286, 14.577976328560531 ], [ 121.144656808097935, 14.578237272003413 ], [ 121.144979194756601, 14.578636498524649 ], [ 121.14519686608962, 14.578943967620786 ], [ 121.145484617276324, 14.579320707345312 ], [ 121.145569820108349, 14.579391276100319 ], [ 121.145783250302387, 14.579496644168662 ], [ 121.145932049084649, 14.579540921369539 ], [ 121.146043778212771, 14.579558509582935 ], [ 121.146550964422943, 14.57960336998784 ], [ 121.146798893569368, 14.57966891385302 ], [ 121.146945759705361, 14.579772909711217 ], [ 121.147096667271271, 14.579975427903534 ], [ 121.147185385248207, 14.580183546336235 ], [ 121.147323934651482, 14.580611285074587 ], [ 121.147377972965373, 14.580731141258784 ], [ 121.147512998009844, 14.580919104529281 ], [ 121.147634516514088, 14.581081620043394 ], [ 121.147799868075964, 14.581226043585218 ], [ 121.147895184031469, 14.581286751489602 ], [ 121.148009047500395, 14.581344163508893 ], [ 121.14823927891203, 14.581419570391398 ], [ 121.14835648892614, 14.581435922430733 ], [ 121.148669327818723, 14.581475969070205 ], [ 121.149119604912514, 14.581520037285564 ], [ 121.149462805309454, 14.581571560518686 ], [ 121.149703180840561, 14.581686375214968 ], [ 121.150160443735487, 14.582100778275775 ], [ 121.150768706101971, 14.582624300969801 ], [ 121.151271871719544, 14.583119822790197 ], [ 121.151618542642382, 14.583509955053172 ], [ 121.151918422222238, 14.58385271658906 ], [ 121.152068112170767, 14.584039988608227 ], [ 121.152309977686855, 14.584287430959463 ], [ 121.152535494310754, 14.584442063224722 ], [ 121.152663693455494, 14.584497821669441 ], [ 121.152816335490058, 14.584539605107883 ], [ 121.152901519882491, 14.584575682611201 ], [ 121.153017944059101, 14.58467579061475 ], [ 121.153035537292055, 14.584707994566582 ], [ 121.153056588832726, 14.584793485973137 ], [ 121.153057738238417, 14.584925396857138 ], [ 121.153033846690803, 14.585037931859974 ], [ 121.152980507258874, 14.585193174723106 ], [ 121.152927169594491, 14.585351205765003 ], [ 121.15291391804567, 14.585474839794367 ], [ 121.152915938669466, 14.585685796005407 ], [ 121.152947064462936, 14.585872258128465 ], [ 121.153005315416337, 14.585980614107907 ], [ 121.153279974656513, 14.586348228312227 ], [ 121.153394318580297, 14.586429541835937 ], [ 121.153586626997892, 14.586524674901508 ], [ 121.154096185481279, 14.586740849604766 ], [ 121.154379114098944, 14.586779531416727 ], [ 121.154421128967243, 14.586785275631076 ], [ 121.154615046591331, 14.586763802809051 ], [ 121.155403364420465, 14.586677901858073 ], [ 121.155669623683309, 14.586644044313054 ], [ 121.15602642250245, 14.586598673260642 ], [ 121.156314808833343, 14.586625586726477 ], [ 121.156600701266981, 14.586705055354512 ], [ 121.156684687792449, 14.586726037713902 ], [ 121.15686297533793, 14.586770579189889 ], [ 121.157216269696761, 14.586771993975049 ], [ 121.157502966103394, 14.586793158975247 ], [ 121.158236577169674, 14.586855091687264 ], [ 121.158942314477557, 14.586845599797472 ], [ 121.159399438651988, 14.586813651485219 ], [ 121.160010177146034, 14.586767710721032 ], [ 121.160442494804755, 14.586777649778041 ], [ 121.161033207619269, 14.586754025066499 ], [ 121.16188146313354, 14.586580894989385 ], [ 121.162907266787073, 14.586411689782571 ], [ 121.163798621347738, 14.586247866221136 ], [ 121.164002688333809, 14.586272363452641 ], [ 121.16417740627405, 14.586302946317595 ], [ 121.164227002195418, 14.586311627629442 ], [ 121.164444658446101, 14.586474069293919 ], [ 121.164630737444156, 14.586682130782378 ], [ 121.164989613707419, 14.586838293104719 ], [ 121.16526798958057, 14.587013831279187 ], [ 121.165480664736322, 14.58728302543676 ], [ 121.165603923947046, 14.587498084070308 ], [ 121.165858819461093, 14.587851006884382 ], [ 121.166030037161548, 14.587908812467015 ], [ 121.166462510890966, 14.587862308605967 ], [ 121.166612073752773, 14.587825939982688 ], [ 121.166793045451385, 14.587817521867498 ], [ 121.167289517612204, 14.58770383131014 ], [ 121.167599521396383, 14.587491715316858 ], [ 121.167861792251571, 14.587250189858686 ], [ 121.168232411214532, 14.586931307993499 ], [ 121.168240986899178, 14.586923929426302 ], [ 121.168260032659191, 14.586921522710472 ], [ 121.168319395639415, 14.586914021302281 ], [ 121.168504024900599, 14.586876120301453 ], [ 121.168799489056624, 14.586845817263306 ], [ 121.168834527542586, 14.586842223663087 ], [ 121.169063043040211, 14.586860130244498 ], [ 121.169432432708504, 14.586963338511636 ], [ 121.170092871583208, 14.587270810120586 ], [ 121.170626252251779, 14.587450344760345 ], [ 121.170672283250227, 14.587465838611713 ], [ 121.171415198622398, 14.58755974835549 ], [ 121.172074614779874, 14.587620868722908 ], [ 121.172504816461256, 14.587665242320799 ], [ 121.172725146182984, 14.587687968143948 ], [ 121.17274668520983, 14.587690189767045 ], [ 121.173882557403459, 14.587824869516064 ], [ 121.17430584012763, 14.587829492917454 ], [ 121.174960126288184, 14.587795354915302 ], [ 121.175291404707949, 14.587769504890986 ], [ 121.175264437893546, 14.587447023704668 ], [ 121.175112880807347, 14.587457010284496 ] ] ] } },
{ "type": "Feature", "properties": { "Name": null, "Agency": null, "Type": "UV", "Route_Code": "UV04B", "Route_Name": "Marikina (SSS Village) - Cubao (Farmer's Market)", "Route_Begi": "Marikina Heights UV Express", "Route_End": "Cubao UV Express", "Sched_T": "07:00-22:00", "Sched_D": "Mondays to Sundays" }, "geometry": { "type": "MultiLineString", "coordinates": [ [ [ 121.110415516033996, 14.651118302776279 ], [ 121.110409313132337, 14.651031850248049 ], [ 121.1096941089653, 14.651082258593172 ], [ 121.109134095041213, 14.651131775233111 ], [ 121.108917319263895, 14.651100666917147 ], [ 121.10836734021953, 14.650963775823994 ], [ 121.107604793531891, 14.650773600949231 ], [ 121.107341618531819, 14.650717876745734 ], [ 121.107048094490779, 14.650693369124092 ], [ 121.106123686021945, 14.650667489607093 ], [ 121.105806561723242, 14.6506774788961 ], [ 121.104841765506436, 14.650868395626601 ], [ 121.104096225007964, 14.650982028281016 ], [ 121.103723415760314, 14.650950980467778 ], [ 121.103633882950874, 14.650657045418782 ], [ 121.102867344516142, 14.64903969431308 ], [ 121.101823078879036, 14.646832045721794 ], [ 121.101295464559684, 14.64571138807201 ], [ 121.100891947696454, 14.644851805326386 ], [ 121.100814287764265, 14.644695817809621 ], [ 121.10077377208232, 14.644620288180182 ], [ 121.100346622051532, 14.643708981335655 ], [ 121.099921176258263, 14.642830519037677 ], [ 121.099760784372506, 14.64248405687559 ], [ 121.099727023561996, 14.64242494739468 ], [ 121.099320143590347, 14.641561257192928 ], [ 121.098742754684082, 14.640344538041946 ], [ 121.098678605096651, 14.640219748194243 ], [ 121.09843040169477, 14.639625331561835 ], [ 121.098236206851468, 14.639104797137808 ], [ 121.098057139350203, 14.638452872103654 ], [ 121.097952312659743, 14.637855113870136 ], [ 121.097933733860899, 14.637795998141085 ], [ 121.097490145856924, 14.637866790904038 ], [ 121.097334916900166, 14.637751890027895 ], [ 121.097387275941287, 14.637921027143083 ], [ 121.097278861228872, 14.636796089675025 ], [ 121.09720291705834, 14.636697580865638 ], [ 121.096184040890861, 14.636500898366393 ], [ 121.096101350989244, 14.6364040340936 ], [ 121.096032189062299, 14.636390922218641 ], [ 121.094547811031887, 14.636288022342354 ], [ 121.094476966408223, 14.63628476447882 ], [ 121.094443694981052, 14.636054278194782 ], [ 121.094395376353845, 14.635956958067105 ], [ 121.093277244020811, 14.636056574138953 ], [ 121.092206542426624, 14.636119737365245 ], [ 121.091193879884329, 14.636201812282753 ], [ 121.090568859703581, 14.636247454229569 ], [ 121.09040093018983, 14.636223898566913 ], [ 121.08992294837563, 14.635976011852659 ], [ 121.088532945556594, 14.635321699190937 ], [ 121.087889751852131, 14.635004515889852 ], [ 121.086623466477377, 14.634373031995818 ], [ 121.086135228491955, 14.634123202935353 ], [ 121.085507052732268, 14.633821300817523 ], [ 121.085150858797832, 14.633665333378179 ], [ 121.084338605661102, 14.633397088717279 ], [ 121.084142079529755, 14.633332283102776 ], [ 121.082815330291581, 14.632923786575061 ], [ 121.082700621979029, 14.632890977940194 ], [ 121.0820815344577, 14.632712167914546 ], [ 121.080978329015551, 14.632441542134913 ], [ 121.080152923943956, 14.632284024445047 ], [ 121.079536113931212, 14.632223571369433 ], [ 121.078763555939375, 14.632094069734116 ], [ 121.078288284946751, 14.632044987146079 ], [ 121.078140763422923, 14.632074276392443 ], [ 121.077992748216531, 14.632158357296897 ], [ 121.0775939135671, 14.632386759978974 ], [ 121.077392502808138, 14.632507935002893 ], [ 121.077124245363507, 14.632644744975568 ], [ 121.076851025437378, 14.632734333318888 ], [ 121.076324788478686, 14.632796078003981 ], [ 121.07601424355046, 14.632761145672081 ], [ 121.074324048398111, 14.631849878024369 ], [ 121.074067625929501, 14.6317119985919 ], [ 121.07403297191091, 14.628700015677701 ], [ 121.074079854965177, 14.627573378586273 ], [ 121.074130165138641, 14.626624109709782 ], [ 121.074308637310452, 14.62559597272225 ], [ 121.074321892991321, 14.624820799147878 ], [ 121.074304923724569, 14.624485773081799 ], [ 121.074244103524393, 14.624157328974071 ], [ 121.07417653087397, 14.623809179091584 ], [ 121.074098907789008, 14.623687670727351 ], [ 121.073957228164488, 14.623684427105708 ], [ 121.073646886510375, 14.623691085840749 ], [ 121.07321171191073, 14.623628802902914 ], [ 121.07254712087996, 14.623458191793427 ], [ 121.071565417993696, 14.623208836566681 ], [ 121.070616612351373, 14.622978354710531 ], [ 121.070460585822715, 14.622937339790598 ], [ 121.069432079141734, 14.622673618161871 ], [ 121.069352801220688, 14.622653521234922 ], [ 121.068988886061135, 14.622575609255099 ], [ 121.068794074983572, 14.622561701698721 ], [ 121.068243389387163, 14.622572523024996 ], [ 121.068040148800449, 14.622571755542204 ], [ 121.067967623879667, 14.622574238115661 ], [ 121.067467537691755, 14.62258586543366 ], [ 121.067261769383748, 14.622593309478923 ], [ 121.066813125026712, 14.622602458532786 ], [ 121.0664665187076, 14.622597620903205 ], [ 121.066324834989203, 14.622576307236132 ], [ 121.066106396706175, 14.622509028432324 ], [ 121.065414797594457, 14.622223442166707 ], [ 121.065357864889009, 14.622191020916823 ], [ 121.065299247742786, 14.622166811624359 ], [ 121.064048049297227, 14.621651848805412 ], [ 121.063430675803218, 14.621399084494731 ], [ 121.063106811993535, 14.62128091695048 ], [ 121.062906084756207, 14.621210346217103 ], [ 121.061912578890315, 14.620891976043744 ], [ 121.061369436609723, 14.62069995407256 ], [ 121.060580044193884, 14.620493207202928 ], [ 121.059758592756609, 14.620225699500253 ], [ 121.05944371303778, 14.620127646000935 ], [ 121.05830848140107, 14.61970400374801 ], [ 121.057849155727638, 14.619457526106489 ], [ 121.057713529095366, 14.619372780406017 ], [ 121.057111142440334, 14.618942822996456 ], [ 121.055639386435061, 14.617957312919591 ], [ 121.055009299893086, 14.617479149379617 ], [ 121.053696924982233, 14.616553155108679 ], [ 121.053489616440686, 14.616481871457589 ], [ 121.053104903696578, 14.616430100662708 ], [ 121.052695500387983, 14.616454147883655 ], [ 121.05083319336822, 14.620439766384932 ], [ 121.051054169832256, 14.62051500554993 ] ] ] } },
{ "type": "Feature", "properties": { "Name": null, "Agency": null, "Type": "UV", "Route_Code": "UV05B", "Route_Name": "Cubao UV Express - Marikina", "Route_Begi": "Cubao UV Express", "Route_End": "J.P. Rizal St. / Spain St Intersection, Marikina City", "Sched_T": "07:00-22:00", "Sched_D": "Mondays to Sundays" }, "geometry": { "type": "MultiLineString", "coordinates": [ [ [ 121.051027921157868, 14.620512222362121 ], [ 121.051532823341191, 14.620763234080925 ], [ 121.050983201754534, 14.621855475495661 ], [ 121.052153000658919, 14.622418562029658 ], [ 121.054750694847954, 14.623641560417951 ], [ 121.055601706762928, 14.624077416173492 ], [ 121.057899194138813, 14.625217505496289 ], [ 121.059181206957945, 14.625844581793654 ], [ 121.062353375330176, 14.627391720425043 ], [ 121.062763279452099, 14.627553389377663 ], [ 121.063082924666048, 14.627628858298163 ], [ 121.063484378158833, 14.62771990874964 ], [ 121.064146428858848, 14.627828138519488 ], [ 121.066577057650477, 14.62826848525942 ], [ 121.067263570228917, 14.628383269088658 ], [ 121.067418761204152, 14.628440709420058 ], [ 121.069402561244502, 14.629341810331466 ], [ 121.071028758585129, 14.630111608754778 ], [ 121.072115150393643, 14.630641771223013 ], [ 121.073569303917125, 14.631350834685122 ], [ 121.075875402705449, 14.632522767895308 ], [ 121.076209408012801, 14.632634345219952 ], [ 121.077040933505955, 14.6325503375026 ], [ 121.077334381893721, 14.632423790871975 ], [ 121.077774518105898, 14.632123114478507 ], [ 121.078162409750874, 14.631960407154361 ], [ 121.07864987363817, 14.631971753013103 ], [ 121.080152828759594, 14.632252117794456 ], [ 121.081652423144831, 14.632558750855235 ], [ 121.082099442086218, 14.632671925578022 ], [ 121.08271009930624, 14.632860592156716 ], [ 121.082878786623155, 14.632904879264402 ], [ 121.084364947418337, 14.633359306855885 ], [ 121.085149359246984, 14.633598820443522 ], [ 121.085532696361682, 14.633778590874831 ], [ 121.086158981528556, 14.634086937207055 ], [ 121.08666093090271, 14.634330774626564 ], [ 121.087912710946114, 14.634942921365607 ], [ 121.088562941803417, 14.635275730162409 ], [ 121.089953006649509, 14.635949978014052 ], [ 121.090429781985776, 14.636157335748926 ], [ 121.090617026912909, 14.63619996822932 ], [ 121.091200614915152, 14.636132422342246 ], [ 121.093062722990283, 14.635983930710525 ], [ 121.094386773396792, 14.635875043039878 ], [ 121.094437400505157, 14.635937431593016 ], [ 121.09448643506164, 14.636236312865128 ], [ 121.094471308620541, 14.636372630007877 ], [ 121.094246979673017, 14.637056240750606 ], [ 121.09417274033207, 14.637599035663989 ], [ 121.094154960622589, 14.638289320633067 ], [ 121.094221994506796, 14.639040044744842 ], [ 121.094249897360228, 14.639493095261841 ], [ 121.094255238191536, 14.640199284805545 ], [ 121.094211528093027, 14.640567177775843 ], [ 121.094166167570506, 14.641027040472133 ], [ 121.094120879828608, 14.641670841354108 ], [ 121.094118081513514, 14.641783658659483 ], [ 121.094168204372721, 14.641908957876288 ], [ 121.094261035167392, 14.6420534458275 ], [ 121.094515851008921, 14.642330899359939 ], [ 121.094821300204984, 14.642680594858609 ], [ 121.094902312352417, 14.642795525521159 ], [ 121.09532594831046, 14.643417798162426 ], [ 121.095746217700466, 14.644051567412813 ], [ 121.096335370248994, 14.645176320029735 ], [ 121.096536318681999, 14.645709991594991 ], [ 121.096715455499407, 14.646527790156892 ], [ 121.096935124000936, 14.647458891811667 ], [ 121.097067303166867, 14.647806868407576 ], [ 121.097143730584605, 14.647952753628738 ], [ 121.097469502744417, 14.648572532789979 ], [ 121.097756979026315, 14.648917225691051 ], [ 121.0979681496909, 14.649112289157436 ], [ 121.098092151123581, 14.649177324571141 ], [ 121.09817043640949, 14.649196811053123 ], [ 121.099213176040109, 14.649435330804881 ], [ 121.099479298279817, 14.649446763968019 ], [ 121.099901209654746, 14.649394084349545 ], [ 121.100247709561017, 14.649346546005967 ], [ 121.100546481679075, 14.649304602792823 ], [ 121.100772720746761, 14.649301723134979 ], [ 121.101019735897893, 14.649313074054799 ], [ 121.101140256975185, 14.649336891047842 ], [ 121.101571781572773, 14.649441736842695 ], [ 121.101843026129742, 14.64956729560665 ], [ 121.1020711510685, 14.649703156946524 ], [ 121.102268815160727, 14.649844808374613 ], [ 121.102460611951471, 14.650026887108066 ], [ 121.102647969651969, 14.650296147702381 ], [ 121.102823765727152, 14.650592741875545 ], [ 121.103020649229762, 14.651129385509684 ], [ 121.103093795307771, 14.651430795266549 ], [ 121.103131134912786, 14.651953032411928 ], [ 121.103166796466709, 14.652494977869068 ], [ 121.103158647697512, 14.653146975835242 ], [ 121.103195776957918, 14.65429947601077 ], [ 121.103282533596314, 14.654843423951041 ], [ 121.103426344660306, 14.655812323106067 ], [ 121.1035989210894, 14.656978286463671 ], [ 121.103693605470127, 14.657472580175813 ], [ 121.103749342909538, 14.657630217985858 ], [ 121.103784807095323, 14.657718887528299 ], [ 121.103953656527381, 14.658077660091838 ], [ 121.104136005099534, 14.658443817218652 ], [ 121.104211988276688, 14.658606373315374 ], [ 121.104473713348895, 14.659176142361551 ], [ 121.104843505468466, 14.659975787806721 ], [ 121.104880656671625, 14.660062814143618 ], [ 121.105574641718079, 14.661527453546588 ], [ 121.105748570034379, 14.661913320479876 ], [ 121.105777275387837, 14.661974073420069 ], [ 121.10597831264171, 14.66235149870003 ], [ 121.106138870906321, 14.662740845751649 ], [ 121.106148919388062, 14.662795210949819 ], [ 121.10611319005649, 14.662824209597545 ], [ 121.105912636067984, 14.662873176113328 ] ] ] } },
{ "type": "Feature", "properties": { "Name": null, "Agency": null, "Type": "UV", "Route_Code": "UV06B", "Route_Name": "Marikina - Oritgas", "Route_Begi": "J.P. Rizal St. / Spain Street Intersection Marikina", "Route_End": "Ortigas-Antipolo UV Express Terminal", "Sched_T": "07:00-22:00", "Sched_D": "Mondays to Sundays" }, "geometry": { "type": "MultiLineString", "coordinates": [ [ [ 121.105955154102205, 14.662862674865904 ], [ 121.10611319005649, 14.662824209597545 ], [ 121.106090557198783, 14.662758138867451 ], [ 121.105925055296225, 14.662356666753508 ], [ 121.105742689391747, 14.661965876663043 ], [ 121.105717359408615, 14.661908406883851 ], [ 121.105536690773917, 14.661538965819744 ], [ 121.104841016085999, 14.660067757807086 ], [ 121.104802183827161, 14.659993870595176 ], [ 121.104435611781071, 14.659181992301605 ], [ 121.104107331548988, 14.658452861912094 ], [ 121.10393088865888, 14.658089986896515 ], [ 121.103750224736203, 14.657717259677904 ], [ 121.103711381319997, 14.657616274268754 ], [ 121.103661551340963, 14.657466024346984 ], [ 121.103461136752216, 14.656291861170587 ], [ 121.103402752662731, 14.655868171240796 ], [ 121.10339165583396, 14.655799436283628 ], [ 121.10315408342646, 14.65428016722155 ], [ 121.103120274201771, 14.653959235030438 ], [ 121.103118150855252, 14.653119894634035 ], [ 121.103121483240244, 14.652500200046175 ], [ 121.103080407144802, 14.65167468295188 ], [ 121.10300767240112, 14.651218152616718 ], [ 121.102840466869154, 14.650745238304381 ], [ 121.102945028241834, 14.65069099898632 ], [ 121.10326390009692, 14.650731968525562 ], [ 121.103710941552535, 14.650874618540977 ], [ 121.103633882950874, 14.650657045418782 ], [ 121.102867344516142, 14.64903969431308 ], [ 121.101860431821464, 14.646905934139998 ], [ 121.101823078879036, 14.646832045721794 ], [ 121.100814287764265, 14.644695817809621 ], [ 121.100781579183447, 14.644633423460514 ], [ 121.099769854177708, 14.642491854195274 ], [ 121.09973862320534, 14.64243192255068 ], [ 121.098750974461268, 14.640336733836005 ], [ 121.098725653274556, 14.640289938146918 ], [ 121.098692734411415, 14.640225901251014 ], [ 121.098278633777966, 14.639217688961187 ], [ 121.098170538891651, 14.638876131882423 ], [ 121.098062412012837, 14.638456565220638 ], [ 121.09793987282373, 14.637855118751085 ], [ 121.097917907263565, 14.637763979381008 ], [ 121.098331113853718, 14.637646392054092 ], [ 121.098878404652822, 14.637499189379053 ], [ 121.098942491709849, 14.637476171683762 ], [ 121.099387749319462, 14.637367602453962 ], [ 121.099477136894905, 14.637342932221038 ], [ 121.10156679749565, 14.636814908994364 ], [ 121.101664615514622, 14.636783665260314 ], [ 121.10163254253402, 14.636726197641742 ], [ 121.101512661915208, 14.636443769895543 ], [ 121.101494046983362, 14.636302539157173 ], [ 121.101652422121816, 14.635886971100881 ], [ 121.10170803012754, 14.635760490817443 ], [ 121.101736661550987, 14.635660298442779 ], [ 121.10193544087204, 14.635067344588572 ], [ 121.101950569710624, 14.634947450035163 ], [ 121.101840661272433, 14.634320133991876 ], [ 121.10168184196975, 14.633701049367005 ], [ 121.10158894205118, 14.633398902881973 ], [ 121.101462293858802, 14.633063923968344 ], [ 121.10144868085851, 14.632786379697654 ], [ 121.101445268619045, 14.632696054222924 ], [ 121.10179988213352, 14.629717859827666 ], [ 121.101989211359765, 14.628085329077475 ], [ 121.102080001612677, 14.627413040764997 ], [ 121.102114724678657, 14.627100988132799 ], [ 121.102278303485861, 14.625736710938304 ], [ 121.102284953399561, 14.625513354376126 ], [ 121.102286748923149, 14.624466656215491 ], [ 121.102201021689964, 14.623842614441205 ], [ 121.101812922000704, 14.620838444451408 ], [ 121.099923724625413, 14.620425346830679 ], [ 121.098617039980539, 14.620154338014242 ], [ 121.097440796757581, 14.619898599261749 ], [ 121.09564158152034, 14.619518277896919 ], [ 121.092596424070052, 14.618875636155449 ], [ 121.092155611857066, 14.618761931606217 ], [ 121.091444962496183, 14.618700878477615 ], [ 121.091031193025884, 14.618733874891779 ], [ 121.090981633809932, 14.618510538806566 ], [ 121.091118788818321, 14.61845136599263 ], [ 121.091516839614997, 14.61847968802271 ], [ 121.092501886947204, 14.618652316993433 ], [ 121.092408034507855, 14.617295804260747 ], [ 121.092379636011358, 14.616552396068373 ], [ 121.092314002858217, 14.615473970396582 ], [ 121.09226424880039, 14.614749182762598 ], [ 121.092110340440456, 14.612185046345026 ], [ 121.09209905013023, 14.612064614424515 ], [ 121.091995006751304, 14.610508290072785 ], [ 121.091963292926309, 14.609908311028628 ], [ 121.091938496109009, 14.609750658319712 ], [ 121.091933860106522, 14.609391541502834 ], [ 121.092068571805015, 14.608844055404093 ], [ 121.092243742657871, 14.608252759409876 ], [ 121.092286409600035, 14.608101651179503 ], [ 121.092257033102385, 14.607731594670918 ], [ 121.092177930333122, 14.606702442398472 ], [ 121.092112493085395, 14.606119993528788 ], [ 121.092026625288923, 14.605038289587576 ], [ 121.092008542897588, 14.604797423939084 ], [ 121.091997215858129, 14.604580643039276 ], [ 121.091990407307719, 14.604418604181093 ], [ 121.09201723834515, 14.604022249968303 ], [ 121.092109190792556, 14.603393758581033 ], [ 121.092221181508833, 14.60225066891765 ], [ 121.092212120841907, 14.60207987186695 ], [ 121.092148949669294, 14.601539027161962 ], [ 121.092000301100157, 14.600921572504507 ], [ 121.091887676986715, 14.600422350986626 ], [ 121.091754873897671, 14.600074229422214 ], [ 121.091518585034535, 14.599596950257924 ], [ 121.091399325905414, 14.599382398220246 ], [ 121.091219304968178, 14.599038672959948 ], [ 121.090042672827479, 14.597430725730293 ], [ 121.0898334473152, 14.597149417620752 ], [ 121.089726603635626, 14.597055296463001 ], [ 121.089614137739716, 14.596958987504907 ], [ 121.089464545152666, 14.596795904311627 ], [ 121.089103430591521, 14.596217938311691 ], [ 121.08845544331372, 14.595151758250719 ], [ 121.088126379435892, 14.594582538392235 ], [ 121.087647710772501, 14.593803153992756 ], [ 121.087493563059027, 14.593471460285716 ], [ 121.086883835200851, 14.592455626535942 ], [ 121.086755587476816, 14.592233410914526 ], [ 121.086720713220316, 14.59217320474229 ], [ 121.086301103690715, 14.591462774248056 ], [ 121.086120546029846, 14.591149701442596 ], [ 121.085895576445864, 14.590825694815543 ], [ 121.085756140834548, 14.590751290586656 ], [ 121.084856695696615, 14.590659624160727 ], [ 121.083379313078339, 14.590377636634454 ], [ 121.081809763971293, 14.590152602963631 ], [ 121.080667449181405, 14.589962459652075 ], [ 121.080053593447772, 14.589936376494071 ], [ 121.078796634458726, 14.589831660344888 ], [ 121.077389019374493, 14.589707275369365 ], [ 121.075693595915837, 14.589585156966995 ], [ 121.073717095437829, 14.589417122397187 ], [ 121.071252672221846, 14.589257965653315 ], [ 121.06453847507791, 14.58878455135055 ], [ 121.063935894636288, 14.588865720863504 ], [ 121.063825707856012, 14.588828522096199 ], [ 121.063769413092032, 14.588511021809135 ], [ 121.063764669171803, 14.587554101199384 ], [ 121.063689660787702, 14.584418393647498 ], [ 121.063024114126748, 14.584418555308027 ], [ 121.061677279865719, 14.584412307392476 ], [ 121.06171896843756, 14.58583592710796 ] ] ] } },
{ "type": "Feature", "properties": { "Name": null, "Agency": null, "Type": "UV", "Route_Code": "UV07B", "Route_Name": "Robinsons Galleria - Pasig", "Route_Begi": "Robinsons Galleria", "Route_End": "F. Manalo, Pasig", "Sched_T": "07:00-22:00", "Sched_D": "Mondays to Sundays" }, "geometry": { "type": "MultiLineString", "coordinates": [ [ [ 121.058911270684661, 14.592271964548504 ], [ 121.05923219000168, 14.59247160952512 ], [ 121.059627402660851, 14.592143702566053 ], [ 121.059835352207386, 14.591972854621744 ], [ 121.059915151318194, 14.591872107837574 ], [ 121.060108489093182, 14.591718780997246 ], [ 121.060773925974203, 14.591179948644145 ], [ 121.062962400511154, 14.589307192844734 ], [ 121.063319276509333, 14.589009300168886 ], [ 121.06370810238964, 14.588360491337898 ], [ 121.063741759984723, 14.588088953821892 ], [ 121.063732398945021, 14.586665617013212 ], [ 121.063717380751541, 14.585102137230797 ], [ 121.063678872985477, 14.584000700888557 ], [ 121.063689805083285, 14.582796333957322 ], [ 121.063676023986829, 14.581668614313003 ], [ 121.063661169003936, 14.58073578290214 ], [ 121.063655381673811, 14.580089806956373 ], [ 121.063655338844129, 14.579923385675473 ], [ 121.063645068815134, 14.579332154627956 ], [ 121.06364502965792, 14.579179966736346 ], [ 121.063633766739486, 14.579098948586861 ], [ 121.063623528916267, 14.57863253347257 ], [ 121.064021494035458, 14.57861929752924 ], [ 121.06423396219499, 14.578594063069362 ], [ 121.064384590495962, 14.578535997400081 ], [ 121.064999430211699, 14.578155922270547 ], [ 121.065422027208825, 14.577767134954183 ], [ 121.065592859942626, 14.577595196202461 ], [ 121.065707453583812, 14.577314878715301 ], [ 121.065748992548961, 14.577103556921671 ], [ 121.065909650235895, 14.576720309212108 ], [ 121.06620738683516, 14.576068781553586 ], [ 121.066436584595706, 14.575559605084072 ], [ 121.066636620920789, 14.575303352519871 ], [ 121.066788331319145, 14.575100761214198 ], [ 121.066862462501518, 14.574860963986001 ], [ 121.066883662816551, 14.574275199133199 ], [ 121.066892548835142, 14.573879946098579 ], [ 121.066919465750786, 14.573646730263114 ], [ 121.066941792372802, 14.573069724075143 ], [ 121.066889980856203, 14.572704048348269 ], [ 121.066825781020071, 14.572255165093015 ], [ 121.067186623034829, 14.572191568988208 ], [ 121.067835203556356, 14.571949432116465 ], [ 121.068116202860651, 14.571792790875687 ], [ 121.068514092149144, 14.571552907682733 ], [ 121.06923340720283, 14.571010751725613 ], [ 121.070129170994363, 14.570324021829855 ], [ 121.070863092183217, 14.569781856868005 ], [ 121.070887808630332, 14.56972984338385 ], [ 121.070869800510735, 14.569655396646946 ], [ 121.070559186510678, 14.568454948283975 ], [ 121.070428643025991, 14.567962288895444 ], [ 121.070322821323927, 14.567434586583728 ], [ 121.070279775704861, 14.566291545664749 ], [ 121.070252732860538, 14.566070387653406 ], [ 121.070420212243405, 14.566009028854834 ], [ 121.070989101776419, 14.566265074444965 ], [ 121.07131961453149, 14.566316442515017 ], [ 121.072380785987448, 14.566252643624562 ], [ 121.073011407314198, 14.566178013756735 ], [ 121.074866773711079, 14.566082772775806 ], [ 121.076089819201101, 14.566018909774684 ], [ 121.075947918160111, 14.565189034353757 ], [ 121.075768759059741, 14.564513205465241 ], [ 121.076237732373968, 14.56451012387155 ], [ 121.076500993067384, 14.56451894125418 ], [ 121.076881907717819, 14.564658834678957 ], [ 121.077601444706389, 14.564944380603219 ], [ 121.078168864671298, 14.565201640912104 ], [ 121.078370457938419, 14.56526822985572 ], [ 121.078890957865042, 14.56534361618707 ], [ 121.079550289480508, 14.565420052988248 ], [ 121.080118639124692, 14.565504043821464 ], [ 121.080249938041717, 14.564825315059371 ], [ 121.080499217295511, 14.56398847593834 ], [ 121.080704652596594, 14.563358582353741 ], [ 121.080767095442212, 14.563309293054981 ], [ 121.081032856935082, 14.563236946712507 ], [ 121.081438149288729, 14.563161270849131 ], [ 121.081810747812355, 14.56301580631634 ], [ 121.081574396306294, 14.562379484245101 ], [ 121.081442821640934, 14.562015753084566 ], [ 121.081327226520514, 14.561743165348428 ], [ 121.081154240200505, 14.561287477446728 ], [ 121.08103116403197, 14.561331038035217 ] ] ] } }
]
}
