{
"type": "FeatureCollection",
"name": "MRT3_Stations",
"crs": { "type": "name", "properties": { "name": "urn:ogc:def:crs:OGC:1.3:CRS84" } },
"features": [
{ "type": "Feature", "properties": { "Id": 0, "X": 284693.65026700002, "Y": 1608131.7152, "Name": "Taft" }, "geometry": { "type": "Point", "coordinates": [ 121.001875189234312, 14.537649941317202 ] } },
{ "type": "Feature", "properties": { "Id": 0, "X": 286597.59574199998, "Y": 1608596.85363, "Name": "Magallanes" }, "geometry": { "type": "Point", "coordinates": [ 121.019499512210729, 14.542003005311427 ] } },
{ "type": "Feature", "properties": { "Id": 0, "X": 287512.37661400001, "Y": 1609378.4857300001, "Name": "Ayala" }, "geometry": { "type": "Point", "coordinates": [ 121.027922922795653, 14.549137606015934 ] } },
{ "type": "Feature", "properties": { "Id": 0, "X": 288197.375015, "Y": 1609945.0908600001, "Name": "Buendia" }, "geometry": { "type": "Point", "coordinates": [ 121.034232325792601, 14.554311033552985 ] } },
{ "type": "Feature", "properties": { "Id": 0, "X": 289434.56915599998, "Y": 1611360.48223, "Name": "Guadalupe" }, "geometry": { "type": "Point", "coordinates": [ 121.045597458674024, 14.567197054067558 ] } },
{ "type": "Feature", "properties": { "Id": 0, "X": 289718.91686900001, "Y": 1612092.4382, "Name": "Boni" }, "geometry": { "type": "Point", "coordinates": [ 121.048177371662547, 14.573833257103455 ] } },
{ "type": "Feature", "properties": { "Id": 0, "X": 290297.523828, "Y": 1612882.3959600001, "Name": "Shaw" }, "geometry": { "type": "Point", "coordinates": [ 121.053483076420676, 14.581016335112938 ] } },
{ "type": "Feature", "properties": { "Id": 0, "X": 290654.71204200003, "Y": 1613631.1682899999, "Name": "Ortigas" }, "geometry": { "type": "Point", "coordinates": [ 121.056737879695959, 14.587810076640242 ] } },
{ "type": "Feature", "properties": { "Id": 0, "X": 290624.28489800001, "Y": 1615911.21973, "Name": "Santolan-Annapolis" }, "geometry": { "type": "Point", "coordinates": [ 121.056274593916726, 14.608410980177332 ] } },
{ "type": "Feature", "properties": { "Id": 0, "X": 290099.97720299999, "Y": 1617105.42456, "Name": "Cubao" }, "geometry": { "type": "Point", "coordinates": [ 121.051314093099705, 14.619161535713204 ] } },
{ "type": "Feature", "properties": { "Id": 0, "X": 289237.98005399999, "Y": 1618932.67136, "Name": "GMA Kamuning" }, "geometry": { "type": "Point", "coordinates": [ 121.043168432575243, 14.635605907565862 ] } },
{ "type": "Feature", "properties": { "Id": 0, "X": 288763.292533, "Y": 1619695.0396799999, "Name": "Quezon Ave" }, "geometry": { "type": "Point", "coordinates": [ 121.038701775706741, 14.642457736337651 ] } },
{ "type": "Feature", "properties": { "Id": 0, "X": 288072.99691400002, "Y": 1620809.0942200001, "Name": "North Ave" }, "geometry": { "type": "Point", "coordinates": [ 121.032205354280322, 14.652470406519884 ] } }
]
}
