{
"type": "FeatureCollection",
"name": "MRT3_Alignment",
"crs": { "type": "name", "properties": { "name": "urn:ogc:def:crs:OGC:1.3:CRS84" } },
"features": [
{ "type": "Feature", "properties": { "fid": 1.0, "full_id": "r109159", "osm_id": "109159", "osm_type": "relation", "type": "route", "height": null, "circuits": null, "abandoned": null, "ferry": null, "abandoned_": null, "proposed_r": null, "contact_fa": null, "short_name": null, "planned_re": null, "planned_ra": null, "reservatio": null, "vehicle": null, "sidewalk_r": null, "status": null, "payment_gc": null, "year_of_co": null, "payment_ep": null, "proposed_1": null, "voltage_le": null, "structure": null, "nhn_class": null, "cycle_netw": null, "evacuation": null, "source_url": null, "name_tl": null, "constructi": null, "timestamp": null, "motor_vehi": null, "interval_c": null, "foot": null, "facebook": null, "check_date": null, "affiliatio": null, "passenger": null, "access": null, "reservat_1": null, "descriptio": null, "not_networ": null, "int_ref_co": null, "int_name": null, "service_ti": null, "state": null, "charge": null, "operator_t": null, "direction": null, "through": null, "start_date": null, "alt_name": null, "payment__1": null, "motor_ve_1": null, "bicycle_co": null, "bicycle": null, "distance": null, "detour": null, "destinatio": null, "payment__2": null, "internet_a": null, "internet_1": null, "duration": null, "sac_scale": null, "opening_ho": null, "interval": null, "fee": null, "network_wi": null, "name_desc": null, "operationa": null, "payment__3": null, "symbol": null, "owner": null, "int_ref": null, "brand": null, "mtb_type": null, "surveillan": null, "surveill_1": null, "payment_ca": null, "old_name": null, "official_n": null, "nat_name": null, "wires": null, "frequency": null, "cables": null, "disused_ro": null, "bus": null, "wheelchair": null, "via": null, "source_ref": null, "source_r_1": null, "smoking": null, "old_ref": null, "network__1": null, "osmc_symbo": null, "voltage": null, "operator_s": null, "related_la": null, "ref_colour": null, "roundtrip": null, "operator_w": null, "operator_1": null, "website": null, "wikipedia": "en:MRT Line 3 (Metro Manila)", "wikidata": "Q13422345", "to": "Taft Avenue", "route": "light_rail", "ref": "3", "public_tra": "2", "operator": "Metro Rail Transit Corporation", "network": "Manila MRT", "name_zh": "马尼拉捷运3号线（北大道→塔虎脱大道）", "name_ko": "마닐라MRT 3 호선: 노스 애비뉴→태프트 애비뉴", "name_ja": "マニラMRT 3号線：ノースアベニュー→タフトアベニュー", "name": "MRT Line 3: North Avenue → Taft Avenue", "from": "North Avenue", "colour": "#FFCC00", "air_condit": "yes" }, "geometry": { "type": "MultiLineString", "coordinates": [ [ [ 121.050783890014046, 14.620024909537172 ], [ 121.051310790013588, 14.618893709536792 ], [ 121.051278390013607, 14.618879409536769 ], [ 121.051237490013563, 14.618861809536734 ], [ 121.051024490013759, 14.619319209536878 ], [ 121.05098079001381, 14.619413209536916 ], [ 121.050710690014014, 14.619993009537112 ], [ 121.050754690014045, 14.620012209537149 ], [ 121.050783890014046, 14.620024909537172 ] ], [ [ 121.053086989993076, 14.580623309513957 ], [ 121.054038189994131, 14.581992509515395 ], [ 121.054074789994146, 14.581969409515409 ], [ 121.05313008999309, 14.580594609513968 ], [ 121.053086989993076, 14.580623309513957 ] ], [ [ 121.045378089982748, 14.566619409500479 ], [ 121.045413289982804, 14.566735509500583 ], [ 121.045699789983445, 14.567680409501348 ] ], [ [ 121.030513390026456, 14.654852509546441 ], [ 121.031078490026161, 14.65397450954624 ], [ 121.031089190026137, 14.653957909546236 ] ], [ [ 121.031089190026137, 14.653957909546236 ], [ 121.031457790025982, 14.653385309546097 ], [ 121.031837190025769, 14.652795909545981 ], [ 121.031934190025723, 14.652645109545945 ] ], [ [ 121.031934190025723, 14.652645109545945 ], [ 121.032593790025416, 14.651669709545734 ] ], [ [ 121.032593790025416, 14.651669709545734 ], [ 121.032607990025411, 14.651648709545734 ] ], [ [ 121.032607990025411, 14.651648709545734 ], [ 121.033500390024926, 14.650298909545439 ], [ 121.033920990024754, 14.649657909545306 ], [ 121.034241290024582, 14.64916990954519 ] ], [ [ 121.034241290024582, 14.64916990954519 ], [ 121.03425569002458, 14.649147709545186 ], [ 121.034440090024461, 14.648862309545123 ], [ 121.034821890024261, 14.648271409544995 ], [ 121.035024690024159, 14.647957509544916 ], [ 121.038274690022533, 14.642990909543823 ] ], [ [ 121.038274690022533, 14.642990909543823 ], [ 121.038625390022318, 14.64243660954369 ], [ 121.03899029002217, 14.641890009543577 ] ], [ [ 121.03899029002217, 14.641890009543577 ], [ 121.039746290021768, 14.640731409543321 ] ], [ [ 121.039746290021768, 14.640731409543321 ], [ 121.042137790020575, 14.637058509542493 ] ], [ [ 121.042137790020575, 14.637058509542493 ], [ 121.042949390020127, 14.635833609542237 ] ], [ [ 121.042949390020127, 14.635833609542237 ], [ 121.043274890019987, 14.635333009542117 ], [ 121.043362090019912, 14.635198809542089 ], [ 121.043600190019816, 14.634832509542006 ] ], [ [ 121.043600190019816, 14.634832509542006 ], [ 121.044664890019263, 14.633221709541665 ], [ 121.044761790019251, 14.633074209541629 ], [ 121.044864490019179, 14.632905509541587 ], [ 121.04496459001912, 14.632721809541527 ], [ 121.04507129001901, 14.632504709541465 ], [ 121.046967890017385, 14.628383409540048 ] ], [ [ 121.046967890017385, 14.628383409540048 ], [ 121.047365990017042, 14.627518309539767 ] ], [ [ 121.047365990017042, 14.627518309539767 ], [ 121.048277490016233, 14.625532209539077 ] ], [ [ 121.048277490016233, 14.625532209539077 ], [ 121.050805690014045, 14.620034409537189 ] ], [ [ 121.050805690014045, 14.620034409537189 ], [ 121.051056990013862, 14.619477709537005 ], [ 121.051318990013598, 14.618897409536798 ] ], [ [ 121.051318990013598, 14.618897409536798 ], [ 121.05233049001275, 14.616734909536072 ], [ 121.056164290009491, 14.608423609533226 ] ], [ [ 121.056164290009491, 14.608423609533226 ], [ 121.05657419000913, 14.607540709532925 ], [ 121.056667490009062, 14.607332309532849 ] ], [ [ 121.056667490009062, 14.607332309532849 ], [ 121.056980390008775, 14.606646709532615 ] ], [ [ 121.056980390008775, 14.606646709532615 ], [ 121.058983690007011, 14.602257109531092 ], [ 121.059128890006846, 14.601904609530957 ], [ 121.059205990006788, 14.601697609530875 ], [ 121.059295490006647, 14.601421309530764 ], [ 121.059380390006524, 14.601125709530628 ], [ 121.059483890006319, 14.600723009530441 ], [ 121.059564590006133, 14.600332909530239 ], [ 121.059632990005966, 14.599923209530031 ], [ 121.059666890005815, 14.599659609529891 ], [ 121.0596862900057, 14.599450509529763 ], [ 121.059707090005588, 14.599178609529607 ], [ 121.059719790005417, 14.598893909529435 ], [ 121.059723890005273, 14.598650509529278 ], [ 121.059723790005108, 14.5983449095291 ], [ 121.059717590004951, 14.598108909528936 ] ], [ [ 121.059717590004951, 14.598108909528936 ], [ 121.059702590004818, 14.597872309528789 ], [ 121.059680490004681, 14.597639109528636 ], [ 121.059651590004563, 14.597394709528459 ], [ 121.059618190004414, 14.597155009528295 ], [ 121.059579490004253, 14.59691670952812 ], [ 121.059526990004116, 14.596681409527932 ], [ 121.05946249000398, 14.596464009527754 ] ], [ [ 121.05946249000398, 14.596464009527754 ], [ 121.05938549000382, 14.596257209527586 ], [ 121.059297190003704, 14.596054909527398 ], [ 121.059198590003561, 14.595856409527221 ], [ 121.059027890003321, 14.59548410952689 ], [ 121.058998090003215, 14.595396109526812 ] ], [ [ 121.058998090003215, 14.595396109526812 ], [ 121.058777890002816, 14.594767509526285 ], [ 121.058557790002382, 14.594123409525746 ], [ 121.058469390002216, 14.59384760952552 ], [ 121.058160490001569, 14.592957209524771 ], [ 121.057950090001185, 14.592323909524247 ], [ 121.057693590000611, 14.591485409523576 ], [ 121.057531490000258, 14.590938409523124 ], [ 121.057461190000083, 14.590641709522904 ], [ 121.05744379000005, 14.590580309522837 ], [ 121.057434390000026, 14.590529309522811 ], [ 121.057419989999985, 14.590462609522765 ], [ 121.057292289999495, 14.589697109522206 ], [ 121.057272489999434, 14.589603909522136 ], [ 121.057258089999422, 14.589535109522084 ], [ 121.057184389999222, 14.589267709521877 ], [ 121.057096389999103, 14.589043809521678 ], [ 121.056889189998671, 14.588429709521172 ], [ 121.056519189997942, 14.587340909520261 ], [ 121.056506689997931, 14.587304309520228 ], [ 121.05558118999609, 14.584563309517945 ], [ 121.055412189995806, 14.584144409517574 ], [ 121.055339489995688, 14.583990009517445 ], [ 121.054904389995144, 14.583232809516705 ] ], [ [ 121.054904389995144, 14.583232809516705 ], [ 121.054650989994883, 14.582896609516343 ], [ 121.054587589994796, 14.582806909516242 ] ], [ [ 121.054587589994796, 14.582806909516242 ], [ 121.054389889994596, 14.582523509515942 ], [ 121.054024089994158, 14.582000009515399 ], [ 121.05361508999367, 14.58139840951476 ], [ 121.053407689993435, 14.581101509514456 ], [ 121.053128989993141, 14.580702409514045 ], [ 121.053069089993059, 14.580616809513955 ], [ 121.052865289992837, 14.58032680951364 ], [ 121.052622989992543, 14.57997660951327 ], [ 121.052365489992255, 14.579538109512837 ] ], [ [ 121.052365489992255, 14.579538109512837 ], [ 121.052221489992064, 14.579339709512636 ], [ 121.052011689991843, 14.579041509512319 ], [ 121.051860189991658, 14.578814209512078 ], [ 121.051680689991471, 14.578551409511805 ], [ 121.051568389991345, 14.578390009511644 ], [ 121.051277789991019, 14.577995309511218 ] ], [ [ 121.051277789991019, 14.577995309511218 ], [ 121.050650489990375, 14.577167809510312 ] ], [ [ 121.050650489990375, 14.577167809510312 ], [ 121.04983798998947, 14.576090209509138 ], [ 121.048734989988262, 14.574608209507534 ], [ 121.047644189987096, 14.573093409505923 ], [ 121.047607589987052, 14.573035209505873 ], [ 121.0474248899868, 14.572739209505571 ], [ 121.047193789986494, 14.572308109505164 ], [ 121.046941189986157, 14.571797409504688 ], [ 121.046755989985812, 14.571335009504281 ], [ 121.046638989985567, 14.570982109503991 ], [ 121.046402289984982, 14.570107209503306 ] ], [ [ 121.046402289984982, 14.570107209503306 ], [ 121.046333089984813, 14.569817409503074 ], [ 121.046129989984351, 14.569054509502466 ], [ 121.045728089983442, 14.567673109501358 ], [ 121.04543808998281, 14.566719409500573 ], [ 121.04540828998276, 14.566611609500498 ], [ 121.045287489982456, 14.566174209500149 ] ], [ [ 121.045287489982456, 14.566174209500149 ], [ 121.044963489981754, 14.565084409499272 ], [ 121.044725889981322, 14.564435409498721 ], [ 121.04456448998107, 14.564080609498397 ], [ 121.044323689980757, 14.563612309497959 ], [ 121.044054189980386, 14.563158909497508 ], [ 121.04370858998, 14.562673109496991 ], [ 121.043007089979326, 14.561848109496042 ], [ 121.042431289978822, 14.561309309495357 ], [ 121.040592789977367, 14.559764209493263 ] ], [ [ 121.040592789977367, 14.559764209493263 ], [ 121.040259589977083, 14.559488209492894 ], [ 121.039191889976237, 14.558569609491663 ] ], [ [ 121.039191889976237, 14.558569609491663 ], [ 121.038735189975839, 14.558182309491148 ], [ 121.038510889975669, 14.557988909490883 ], [ 121.037840489975125, 14.557416509490118 ], [ 121.035526189973254, 14.555440109487469 ], [ 121.035417589973179, 14.555349409487341 ], [ 121.035310189973089, 14.555262109487217 ], [ 121.034849189972718, 14.55489590948671 ], [ 121.034810989972726, 14.554869509486666 ], [ 121.034780489972661, 14.55484990948664 ], [ 121.034746289972617, 14.554830509486607 ] ], [ [ 121.034746289972617, 14.554830509486607 ], [ 121.034714989972628, 14.554812709486576 ], [ 121.034669389972606, 14.554780009486526 ], [ 121.034620889972558, 14.554742109486472 ], [ 121.033683589971815, 14.55395200948541 ], [ 121.03364628997177, 14.55392050948536 ], [ 121.033602189971759, 14.553881709485319 ], [ 121.033560589971685, 14.553845009485268 ], [ 121.033443189971607, 14.553738209485127 ], [ 121.033382889971534, 14.553686309485059 ], [ 121.033318889971511, 14.553630709484981 ], [ 121.033060089971286, 14.553417509484701 ], [ 121.033010389971238, 14.553375209484638 ], [ 121.032853189971163, 14.553241409484455 ], [ 121.032781689971088, 14.553183409484378 ], [ 121.032229089970599, 14.55272380948375 ], [ 121.029509289968445, 14.550418709480649 ] ], [ [ 121.029509289968445, 14.550418709480649 ], [ 121.029114989968164, 14.550093209480199 ] ], [ [ 121.029114989968164, 14.550093209480199 ], [ 121.028481389967638, 14.549567509479486 ] ], [ [ 121.028481389967638, 14.549567509479486 ], [ 121.027540389966859, 14.5487554094784 ], [ 121.027408189966749, 14.548639009478249 ], [ 121.02626608996583, 14.54766190947695 ] ], [ [ 121.02626608996583, 14.54766190947695 ], [ 121.025810589965516, 14.54732750947645 ] ], [ [ 121.025810589965516, 14.54732750947645 ], [ 121.020683089961381, 14.54301130947062 ] ], [ [ 121.020683089961381, 14.54301130947062 ], [ 121.019827989960731, 14.542334209469677 ], [ 121.019028389960127, 14.541771209468825 ], [ 121.018876689960024, 14.541665609468669 ], [ 121.017843189959308, 14.541017409467637 ], [ 121.017448789959062, 14.540809309467273 ] ], [ [ 121.017448789959062, 14.540809309467273 ], [ 121.017245389958958, 14.540702609467077 ], [ 121.016884889958718, 14.540527409466746 ], [ 121.01629618995841, 14.540260109466219 ], [ 121.01559808995799, 14.539971909465615 ], [ 121.014769289957542, 14.539659409464917 ] ], [ [ 121.01360898995695, 14.539294009463978 ], [ 121.014363889957352, 14.539518009464565 ], [ 121.014769289957542, 14.539659409464917 ] ], [ [ 121.01360898995695, 14.539294009463978 ], [ 121.013272089956757, 14.53921100946372 ], [ 121.011812689956145, 14.538934109462664 ], [ 121.011367689955961, 14.538867009462345 ], [ 121.008132489954619, 14.538443609460117 ] ], [ [ 121.008132489954619, 14.538443609460117 ], [ 121.007670589954429, 14.538386609459794 ] ], [ [ 121.007670589954429, 14.538386609459794 ], [ 121.004454989953118, 14.537989909457592 ] ], [ [ 121.004454989953118, 14.537989909457592 ], [ 121.00379108995287, 14.537912209457142 ] ], [ [ 121.001467921977664, 14.537614831370256 ], [ 121.003407916499086, 14.537874227205897 ], [ 121.00379108995287, 14.537912209457142 ] ] ] } },
{ "type": "Feature", "properties": { "fid": 2.0, "full_id": "r8000253", "osm_id": "8000253", "osm_type": "relation", "type": "route", "height": null, "circuits": null, "abandoned": null, "ferry": null, "abandoned_": null, "proposed_r": null, "contact_fa": null, "short_name": null, "planned_re": null, "planned_ra": null, "reservatio": null, "vehicle": null, "sidewalk_r": null, "status": null, "payment_gc": null, "year_of_co": null, "payment_ep": null, "proposed_1": null, "voltage_le": null, "structure": null, "nhn_class": null, "cycle_netw": null, "evacuation": null, "source_url": null, "name_tl": null, "constructi": null, "timestamp": null, "motor_vehi": null, "interval_c": null, "foot": null, "facebook": null, "check_date": null, "affiliatio": null, "passenger": null, "access": null, "reservat_1": null, "descriptio": null, "not_networ": null, "int_ref_co": null, "int_name": null, "service_ti": null, "state": null, "charge": null, "operator_t": null, "direction": null, "through": null, "start_date": null, "alt_name": null, "payment__1": null, "motor_ve_1": null, "bicycle_co": null, "bicycle": null, "distance": null, "detour": null, "destinatio": null, "payment__2": null, "internet_a": null, "internet_1": null, "duration": null, "sac_scale": null, "opening_ho": null, "interval": null, "fee": null, "network_wi": null, "name_desc": null, "operationa": null, "payment__3": null, "symbol": null, "owner": null, "int_ref": null, "brand": null, "mtb_type": null, "surveillan": null, "surveill_1": null, "payment_ca": null, "old_name": null, "official_n": null, "nat_name": null, "wires": null, "frequency": null, "cables": null, "disused_ro": null, "bus": null, "wheelchair": null, "via": null, "source_ref": null, "source_r_1": null, "smoking": null, "old_ref": null, "network__1": null, "osmc_symbo": null, "voltage": null, "operator_s": null, "related_la": null, "ref_colour": null, "roundtrip": null, "operator_w": null, "operator_1": null, "website": null, "wikipedia": "en:MRT Line 3 (Metro Manila)", "wikidata": null, "to": "North Avenue", "route": "light_rail", "ref": "3", "public_tra": "2", "operator": "Metro Rail Transit Corporation", "network": "Manila MRT", "name_zh": "马尼拉捷运3号线（塔虎脱大道→北大道）", "name_ko": "마닐라MRT 3 호선: 태프트 애비뉴→노스 애비뉴", "name_ja": "マニラMRT 3号線：タフトアベニュー→ノースアベニュー", "name": "MRT Line 3: Taft Avenue → North Avenue", "from": "Taft Avenue", "colour": "#FFCC00", "air_condit": "yes" }, "geometry": { "type": "MultiLineString", "coordinates": [ [ [ 121.045497689982753, 14.566588309500535 ], [ 121.045800489983435, 14.567654209501393 ] ], [ [ 121.05415068999416, 14.581921509515418 ], [ 121.053191189993058, 14.580553909513979 ], [ 121.053153389993071, 14.58057910951398 ], [ 121.054112989994152, 14.581947009515419 ], [ 121.05415068999416, 14.581921509515418 ] ], [ [ 121.050843990014087, 14.620051109537229 ], [ 121.05137079001365, 14.618919909536849 ], [ 121.051401290013658, 14.618933609536876 ], [ 121.051431090013679, 14.618946209536904 ], [ 121.051219890013869, 14.619399809537054 ], [ 121.051138090013922, 14.619575609537112 ], [ 121.050973590014067, 14.619928709537236 ], [ 121.050924590014105, 14.620034009537266 ], [ 121.050904290014131, 14.620077409537284 ], [ 121.050867890014075, 14.620061509537255 ], [ 121.050843990014087, 14.620051109537229 ] ], [ [ 121.001478416132883, 14.53755620424158 ], [ 121.003390826017537, 14.537803628034103 ], [ 121.003805689952856, 14.537867509457117 ], [ 121.00484778995326, 14.537994009457824 ] ], [ [ 121.00484778995326, 14.537994009457824 ], [ 121.005317689953458, 14.53805210945815 ], [ 121.006933089954146, 14.538262809459276 ], [ 121.007671089954414, 14.538354909459782 ] ], [ [ 121.007671089954414, 14.538354909459782 ], [ 121.008132889954609, 14.538412509460089 ] ], [ [ 121.008132889954609, 14.538412509460089 ], [ 121.011372589955926, 14.538836909462336 ], [ 121.01182058995613, 14.538899309462639 ], [ 121.013276089956776, 14.539181709463701 ], [ 121.013620189956939, 14.539261309463965 ] ], [ [ 121.013620189956939, 14.539261309463965 ], [ 121.014385189957324, 14.539499109464584 ], [ 121.014791289957543, 14.539634509464909 ] ], [ [ 121.014791289957543, 14.539634509464909 ], [ 121.01562068995797, 14.539943209465616 ], [ 121.016337389958395, 14.540247609466233 ], [ 121.016904289958731, 14.540501309466745 ], [ 121.01726668995893, 14.540681209467074 ], [ 121.017461289959044, 14.540787509467258 ] ], [ [ 121.017461289959044, 14.540787509467258 ], [ 121.017855189959292, 14.540985809467614 ], [ 121.018718289959921, 14.541522409468483 ], [ 121.01990858996075, 14.542349709469732 ], [ 121.02070488996138, 14.542986309470615 ] ], [ [ 121.02070488996138, 14.542986309470615 ], [ 121.025844189965483, 14.547293209476447 ] ], [ [ 121.025844189965483, 14.547293209476447 ], [ 121.026285689965846, 14.547632709476931 ] ], [ [ 121.026285689965846, 14.547632709476931 ], [ 121.028439289967565, 14.549488009479411 ], [ 121.029142089968147, 14.550071809480206 ] ], [ [ 121.029142089968147, 14.550071809480206 ], [ 121.029531389968454, 14.550388709480643 ] ], [ [ 121.029531389968454, 14.550388709480643 ], [ 121.033038689971292, 14.553347009484641 ], [ 121.033354989971542, 14.553616209485 ], [ 121.033405089971538, 14.553653209485049 ], [ 121.033465389971596, 14.553694109485118 ], [ 121.033609589971704, 14.553795709485268 ], [ 121.03365278997174, 14.553827209485316 ], [ 121.033698789971766, 14.553862209485356 ], [ 121.034619289972511, 14.554638309486412 ], [ 121.034673289972545, 14.554683909486469 ], [ 121.03471698997258, 14.55472280948652 ], [ 121.034758889972593, 14.55476440948658 ], [ 121.034788389972647, 14.554794109486613 ] ], [ [ 121.034788389972647, 14.554794109486613 ], [ 121.03481418997265, 14.554820209486648 ], [ 121.03484168997268, 14.554844509486681 ], [ 121.034871489972701, 14.554869009486715 ], [ 121.035333089973079, 14.55523670948722 ], [ 121.03544088997316, 14.555324809487342 ], [ 121.035545589973239, 14.555411609487459 ], [ 121.037862389975103, 14.557389709490122 ], [ 121.038538089975674, 14.557966709490886 ], [ 121.039214189976207, 14.558544309491666 ] ], [ [ 121.039214189976207, 14.558544309491666 ], [ 121.042465689978826, 14.561279209495359 ], [ 121.043029789979329, 14.561826409496041 ], [ 121.043736689980008, 14.562647609496986 ], [ 121.044086189980362, 14.563141809497511 ], [ 121.044356189980746, 14.563595109497962 ], [ 121.044598289981082, 14.564062209498404 ], [ 121.04476388998134, 14.564421409498729 ], [ 121.045005289981745, 14.565065609499285 ], [ 121.045321089982465, 14.56616510950016 ] ], [ [ 121.045321089982465, 14.56616510950016 ], [ 121.045451889982758, 14.566600209500519 ], [ 121.045759689983427, 14.567627709501345 ], [ 121.045770089983435, 14.567662109501383 ], [ 121.046431289985023, 14.570096709503314 ] ], [ [ 121.046431289985023, 14.570096709503314 ], [ 121.046673989985578, 14.570972709504014 ], [ 121.046794389985791, 14.571319109504289 ], [ 121.046976489986108, 14.571787009504705 ], [ 121.047465689986808, 14.572709209505586 ], [ 121.047655189987012, 14.573006409505881 ], [ 121.048749889988244, 14.574557009507515 ], [ 121.048769589988311, 14.574583509507553 ], [ 121.049871489989457, 14.576066509509152 ], [ 121.050680289990325, 14.577146809510321 ] ], [ [ 121.050680289990325, 14.577146809510321 ], [ 121.051300989991006, 14.577979109511212 ] ], [ [ 121.051300989991006, 14.577979109511212 ], [ 121.051568389991345, 14.578390009511644 ], [ 121.052060789991856, 14.579014009512328 ], [ 121.052290689992105, 14.579305709512651 ], [ 121.05249008999229, 14.579560509512927 ], [ 121.052562389992374, 14.579658709513035 ], [ 121.052679489992499, 14.579822209513218 ] ], [ [ 121.054861089995001, 14.583056809516565 ], [ 121.054525789994571, 14.582481309516 ], [ 121.054162189994116, 14.581911909515416 ], [ 121.054128589994107, 14.58186390951537 ], [ 121.054043589993995, 14.581742609515244 ], [ 121.053681789993632, 14.581226309514699 ], [ 121.053535989993449, 14.58101820951449 ], [ 121.053197089993077, 14.580534509513985 ], [ 121.05298868999283, 14.580224209513652 ], [ 121.052679489992499, 14.579822209513218 ] ], [ [ 121.054861089995001, 14.583056809516565 ], [ 121.054969089995154, 14.583251009516752 ], [ 121.055366189995695, 14.583982909517461 ], [ 121.055610889996117, 14.58455430951796 ], [ 121.056543389997913, 14.587292709520247 ], [ 121.056911589998677, 14.588393009521164 ], [ 121.056920489998689, 14.588419809521184 ], [ 121.057211889999209, 14.589260809521882 ], [ 121.057290089999412, 14.58953630952211 ], [ 121.057447989999972, 14.590465109522778 ], [ 121.057553790000284, 14.590929809523134 ], [ 121.058026590001305, 14.59247100952439 ], [ 121.059000490003186, 14.595349509526773 ] ], [ [ 121.059000490003186, 14.595349509526773 ], [ 121.059053190003283, 14.595472309526894 ], [ 121.059230390003549, 14.595840609527237 ], [ 121.059329990003661, 14.596040309527414 ], [ 121.059417790003863, 14.596243009527599 ], [ 121.059495890004001, 14.596453309527771 ] ], [ [ 121.059495890004001, 14.596453309527771 ], [ 121.059562190004129, 14.596673009527944 ], [ 121.05961399000428, 14.596909809528132 ], [ 121.059654490004434, 14.597150009528306 ], [ 121.059688990004602, 14.597389609528472 ], [ 121.059718090004722, 14.597635109528651 ], [ 121.059739790004855, 14.597869409528816 ], [ 121.059755490004974, 14.598107609528968 ] ], [ [ 121.059755490004974, 14.598107609528968 ], [ 121.059762590005107, 14.598344009529121 ], [ 121.059763590005261, 14.598650009529315 ], [ 121.059759890005424, 14.598894809529464 ], [ 121.059748290005601, 14.599180609529641 ], [ 121.059728390005745, 14.599453509529798 ], [ 121.059709090005853, 14.599663509529922 ], [ 121.059674990005945, 14.599929409530059 ], [ 121.059606390006181, 14.600339709530269 ], [ 121.05952639000634, 14.600731809530465 ], [ 121.059421990006555, 14.601135509530661 ], [ 121.05933699000667, 14.601431609530781 ], [ 121.059246490006814, 14.601709809530913 ], [ 121.059169290006864, 14.601919409530998 ], [ 121.059025390007037, 14.602272809531122 ], [ 121.057011390008768, 14.606660009532648 ] ], [ [ 121.057011390008768, 14.606660009532648 ], [ 121.056696890009036, 14.607345109532872 ] ], [ [ 121.056696890009036, 14.607345109532872 ], [ 121.056210690009465, 14.608408009533239 ], [ 121.056196590009478, 14.60843770953325 ] ], [ [ 121.056196590009478, 14.60843770953325 ], [ 121.052356190012759, 14.616745409536088 ], [ 121.05134909001363, 14.618910509536825 ] ], [ [ 121.05134909001363, 14.618910509536825 ], [ 121.051088590013833, 14.619487409537031 ], [ 121.050835790014077, 14.620047509537233 ] ], [ [ 121.050835790014077, 14.620047509537233 ], [ 121.048310590016257, 14.625544209539104 ] ], [ [ 121.048310590016257, 14.625544209539104 ], [ 121.047395890017043, 14.627532809539781 ] ], [ [ 121.047395890017043, 14.627532809539781 ], [ 121.046999490017399, 14.628394609540084 ] ], [ [ 121.046999490017399, 14.628394609540084 ], [ 121.045103190019034, 14.632516709541477 ], [ 121.044996090019126, 14.632736409541561 ], [ 121.044893390019197, 14.632921809541594 ], [ 121.04479149001925, 14.633090509541654 ], [ 121.04363269001982, 14.634851909542034 ] ], [ [ 121.04363269001982, 14.634851909542034 ], [ 121.043393390019958, 14.635218309542127 ], [ 121.043306290019999, 14.635351709542151 ], [ 121.042979690020189, 14.635851709542269 ] ], [ [ 121.042979690020189, 14.635851709542269 ], [ 121.042166690020565, 14.637076309542527 ] ], [ [ 121.042166690020565, 14.637076309542527 ], [ 121.0397782900218, 14.640751509543346 ] ], [ [ 121.0397782900218, 14.640751509543346 ], [ 121.039017590022169, 14.641906809543613 ] ], [ [ 121.039017590022169, 14.641906809543613 ], [ 121.03866099002235, 14.642458909543727 ], [ 121.038305090022561, 14.643009609543851 ] ], [ [ 121.038305090022561, 14.643009609543851 ], [ 121.034572890024421, 14.648720609545128 ], [ 121.034271690024596, 14.649186609545222 ] ], [ [ 121.034271690024596, 14.649186609545222 ], [ 121.034126690024678, 14.649407709545267 ], [ 121.033963590024769, 14.649656409545326 ], [ 121.033655790024895, 14.650125609545432 ], [ 121.033530390024978, 14.650316809545471 ], [ 121.032637990025407, 14.651667109545759 ] ], [ [ 121.032637990025407, 14.651667109545759 ], [ 121.031982390025718, 14.652637709545964 ] ], [ [ 121.031982390025718, 14.652637709545964 ], [ 121.031964690025717, 14.652663809545972 ] ], [ [ 121.031964690025717, 14.652663809545972 ], [ 121.031868890025791, 14.652816109546007 ], [ 121.031497690025986, 14.653406309546144 ], [ 121.031124290026199, 14.653979509546271 ] ], [ [ 121.031124290026199, 14.653979509546271 ], [ 121.030568390026488, 14.654851509546472 ], [ 121.030552390026486, 14.654876609546482 ] ] ] } }
]
}
