{
"type": "FeatureCollection",
"name": "MRT4_Stations",
"crs": { "type": "name", "properties": { "name": "urn:ogc:def:crs:OGC:1.3:CRS84" } },
"features": [
{ "type": "Feature", "properties": { "Name": null, "descriptio": null, "timestamp": null, "begin": null, "end": null, "altitudeMo": null, "tessellate": -1, "extrude": 0, "visibility": -1, "drawOrder": null, "icon": null, "STATION": "N. DOMINGO" }, "geometry": { "type": "Point", "coordinates": [ 121.035904932547993, 14.6118214823833 ] } },
{ "type": "Feature", "properties": { "Name": null, "descriptio": null, "timestamp": null, "begin": null, "end": null, "altitudeMo": null, "tessellate": -1, "extrude": 0, "visibility": -1, "drawOrder": null, "icon": null, "STATION": "BONNY SERRANO" }, "geometry": { "type": "Point", "coordinates": [ 121.039208814060999, 14.6075710748744 ] } },
{ "type": "Feature", "properties": { "Name": null, "descriptio": null, "timestamp": null, "begin": null, "end": null, "altitudeMo": null, "tessellate": -1, "extrude": 0, "visibility": -1, "drawOrder": null, "icon": null, "STATION": "GREENHILLS" }, "geometry": { "type": "Point", "coordinates": [ 121.047843996615001, 14.601027133616499 ] } },
{ "type": "Feature", "properties": { "Name": null, "descriptio": null, "timestamp": null, "begin": null, "end": null, "altitudeMo": null, "tessellate": -1, "extrude": 0, "visibility": -1, "drawOrder": null, "icon": null, "STATION": "EDSA" }, "geometry": { "type": "Point", "coordinates": [ 121.058509443534007, 14.593178766812899 ] } },
{ "type": "Feature", "properties": { "Name": null, "descriptio": null, "timestamp": null, "begin": null, "end": null, "altitudeMo": null, "tessellate": -1, "extrude": 0, "visibility": -1, "drawOrder": null, "icon": null, "STATION": "MERALCO" }, "geometry": { "type": "Point", "coordinates": [ 121.062951641015005, 14.5894145006187 ] } },
{ "type": "Feature", "properties": { "Name": null, "descriptio": null, "timestamp": null, "begin": null, "end": null, "altitudeMo": null, "tessellate": -1, "extrude": 0, "visibility": -1, "drawOrder": null, "icon": null, "STATION": "TIENDESITAS (FUTURE)" }, "geometry": { "type": "Point", "coordinates": [ 121.073965609515, 14.584160986031799 ] } },
{ "type": "Feature", "properties": { "Name": null, "descriptio": null, "timestamp": null, "begin": null, "end": null, "altitudeMo": null, "tessellate": -1, "extrude": 0, "visibility": -1, "drawOrder": null, "icon": null, "STATION": "ROSARIO" }, "geometry": { "type": "Point", "coordinates": [ 121.085935737599996, 14.5906781093981 ] } },
{ "type": "Feature", "properties": { "Name": null, "descriptio": null, "timestamp": null, "begin": null, "end": null, "altitudeMo": null, "tessellate": -1, "extrude": 0, "visibility": -1, "drawOrder": null, "icon": null, "STATION": "SAINT JOSEPH" }, "geometry": { "type": "Point", "coordinates": [ 121.111762740144002, 14.5871380441589 ] } },
{ "type": "Feature", "properties": { "Name": null, "descriptio": null, "timestamp": null, "begin": null, "end": null, "altitudeMo": null, "tessellate": -1, "extrude": 0, "visibility": -1, "drawOrder": null, "icon": null, "STATION": "CAINTA JUNCTION" }, "geometry": { "type": "Point", "coordinates": [ 121.114837426467005, 14.5865196965885 ] } },
{ "type": "Feature", "properties": { "Name": null, "descriptio": null, "timestamp": null, "begin": null, "end": null, "altitudeMo": null, "tessellate": -1, "extrude": 0, "visibility": -1, "drawOrder": null, "icon": null, "STATION": "SAN JUAN (FUTURE)" }, "geometry": { "type": "Point", "coordinates": [ 121.129000407145995, 14.5820820606267 ] } },
{ "type": "Feature", "properties": { "Name": null, "descriptio": null, "timestamp": null, "begin": null, "end": null, "altitudeMo": null, "tessellate": -1, "extrude": 0, "visibility": -1, "drawOrder": null, "icon": null, "STATION": "TIKLING JUNCTION" }, "geometry": { "type": "Point", "coordinates": [ 121.143174052491005, 14.5776047548965 ] } },
{ "type": "Feature", "properties": { "Name": null, "descriptio": null, "timestamp": null, "begin": null, "end": null, "altitudeMo": null, "tessellate": -1, "extrude": 0, "visibility": -1, "drawOrder": null, "icon": null, "STATION": "NORTH MANILA ROAD" }, "geometry": { "type": "Point", "coordinates": [ 121.140212796975007, 14.5653537904128 ] } },
{ "type": "Feature", "properties": { "Name": null, "descriptio": null, "timestamp": null, "begin": null, "end": null, "altitudeMo": null, "tessellate": -1, "extrude": 0, "visibility": -1, "drawOrder": null, "icon": null, "STATION": "TAYTAY" }, "geometry": { "type": "Point", "coordinates": [ 121.136255552471994, 14.5591882495084 ] } }
]
}
