{
"type": "FeatureCollection",
"name": "MRT4_Alignment",
"crs": { "type": "name", "properties": { "name": "urn:ogc:def:crs:OGC:1.3:CRS84" } },
"features": [
{ "type": "Feature", "properties": { "Name": null, "descriptio": null, "timestamp": null, "begin": null, "end": null, "altitudeMo": null, "tessellate": -1, "extrude": 0, "visibility": -1, "drawOrder": null, "icon": null, "Length": 16191.506 }, "geometry": { "type": "MultiLineString", "coordinates": [ [ [ 121.035904922552476, 14.611821491906298 ], [ 121.036455923862036, 14.610676575960607 ], [ 121.03662945723093, 14.610345490350809 ], [ 121.036784763228809, 14.610064288976432 ], [ 121.036898770752742, 14.609893277689896 ], [ 121.037325059756583, 14.609303412672586 ], [ 121.037582815898489, 14.609008480163965 ], [ 121.037815787796418, 14.60875568087085 ], [ 121.038187551462372, 14.608378960355735 ], [ 121.038333778504352, 14.608250082284743 ], [ 121.038586577797304, 14.608061722027189 ], [ 121.039208804064273, 14.607571084396762 ], [ 121.039449755412235, 14.607397725598194 ], [ 121.041196358735093, 14.606061633502829 ], [ 121.042222426454003, 14.60528836507708 ], [ 121.043037828094967, 14.604688586362286 ], [ 121.044170468064834, 14.603761655621108 ], [ 121.044477792695773, 14.603516291601347 ], [ 121.044695894046782, 14.603347758739368 ], [ 121.045142010445758, 14.603025563561937 ], [ 121.046321740480664, 14.60215811500742 ], [ 121.04727593389056, 14.601426979797141 ], [ 121.047843986617579, 14.60102714314004 ], [ 121.048363962220535, 14.600661146644825 ], [ 121.049575911772465, 14.599751564874799 ], [ 121.04982871106543, 14.599548334070519 ], [ 121.049957589136412, 14.599451675517331 ], [ 121.050435925053407, 14.599107174520011 ], [ 121.051117491775344, 14.598596619085008 ], [ 121.052024595121281, 14.597932401334742 ], [ 121.052904435798183, 14.597292967828887 ], [ 121.053823931265143, 14.596611401107424 ], [ 121.054735200377081, 14.595938514357753 ], [ 121.055306029082061, 14.595567984417659 ], [ 121.055752820418078, 14.595276996353361 ], [ 121.056189814203066, 14.594970905448625 ], [ 121.057521740532948, 14.593971879077323 ], [ 121.058509433535846, 14.593178776338029 ], [ 121.0591822849088, 14.592638486727797 ], [ 121.061126835690544, 14.591005658635755 ], [ 121.061442607999496, 14.590730099907582 ], [ 121.06167557989744, 14.590487214312263 ], [ 121.061839155910405, 14.590328595147973 ], [ 121.061981554655375, 14.590222476512098 ], [ 121.062389366136358, 14.589922133539652 ], [ 121.062716518162304, 14.589629679455463 ], [ 121.06295163101629, 14.589414510144181 ], [ 121.063258955647228, 14.589163967954201 ], [ 121.063335234166232, 14.589109719235324 ], [ 121.06343526125022, 14.589038580712343 ], [ 121.063578558895244, 14.588961346304071 ], [ 121.063792154370262, 14.588862158961941 ], [ 121.063985471477267, 14.588796928843212 ], [ 121.064154622457309, 14.588754106631093 ], [ 121.06426160772736, 14.588738807234453 ], [ 121.064391490442375, 14.588722576110214 ], [ 121.064531169028399, 14.588715156605494 ], [ 121.06468438716945, 14.588714128432388 ], [ 121.065507224084755, 14.588767187750843 ], [ 121.067380912963458, 14.588901022671966 ], [ 121.071273239344961, 14.5891787737418 ], [ 121.070872880529123, 14.584275983999083 ], [ 121.073268610537923, 14.584220319138801 ], [ 121.073546452253993, 14.584209658229971 ], [ 121.073778158118046, 14.58418820479579 ], [ 121.073965599517081, 14.584160995560696 ], [ 121.074176375975156, 14.584126117065706 ], [ 121.074360650519196, 14.584078523178077 ], [ 121.074516737157225, 14.584035228580552 ], [ 121.074675218773251, 14.583986954911714 ], [ 121.074883348004306, 14.583908973094497 ], [ 121.075111973842283, 14.583798550764758 ], [ 121.076882544634302, 14.582695958312744 ], [ 121.078215202595828, 14.584661528375795 ], [ 121.078441160763091, 14.584999627205843 ], [ 121.078920734956696, 14.585856009693879 ], [ 121.079196847109088, 14.586370582340752 ], [ 121.079284697514211, 14.586562525246539 ], [ 121.07935694038936, 14.586751023518499 ], [ 121.079686564464069, 14.587820856039373 ], [ 121.079764271708285, 14.588159678586528 ], [ 121.079829235224466, 14.588487320667472 ], [ 121.079858473781613, 14.588682071904124 ], [ 121.079913150584105, 14.589585086252812 ], [ 121.079915737469122, 14.589622213220638 ], [ 121.079920563501148, 14.589657161178362 ], [ 121.079932055557151, 14.589689447014791 ], [ 121.079950534900178, 14.589721506148722 ], [ 121.07997255972721, 14.58974576704815 ], [ 121.079999255436249, 14.589767773993771 ], [ 121.080027296711251, 14.589783118721309 ], [ 121.08005707605129, 14.589796124944732 ], [ 121.080082725000281, 14.589804989933249 ], [ 121.080117074708312, 14.589812783147476 ], [ 121.083296849470671, 14.590300634808125 ], [ 121.085489188638576, 14.59064746971697 ], [ 121.085681165856684, 14.590670417027306 ], [ 121.085819987078693, 14.590676276172996 ], [ 121.085935727609751, 14.590678118938374 ], [ 121.086067246817805, 14.590673161191944 ], [ 121.086292973897869, 14.590654341489463 ], [ 121.092117589091544, 14.590155049790496 ], [ 121.098369181250362, 14.589589837352458 ], [ 121.099356791446681, 14.589517586401021 ], [ 121.101250171161226, 14.589365199285968 ], [ 121.101462862986267, 14.589343627389095 ], [ 121.101761366505357, 14.589301808055643 ], [ 121.10197241056639, 14.589266552965451 ], [ 121.102159612188444, 14.589229639969631 ], [ 121.102352430295497, 14.589191619498132 ], [ 121.103534685946741, 14.588911057972172 ], [ 121.10442808734895, 14.588729172955906 ], [ 121.10719848469553, 14.588082604179291 ], [ 121.109510717412022, 14.587543083213463 ], [ 121.11026227508421, 14.587408876486631 ], [ 121.111429014183472, 14.587200530219507 ], [ 121.111762730160535, 14.587138053712675 ], [ 121.113304491830931, 14.58684941340063 ], [ 121.114531413571171, 14.58659410020692 ], [ 121.114837416484264, 14.586519706143761 ], [ 121.115942149892447, 14.586198562711536 ], [ 121.117834755189747, 14.585607658796107 ], [ 121.122484912096539, 14.584160372394633 ], [ 121.126621715508236, 14.58287013774134 ], [ 121.129000397165598, 14.582082070187804 ], [ 121.130740439273879, 14.581505586687594 ], [ 121.140999901473592, 14.578341253401453 ], [ 121.142971954328928, 14.577735425116572 ], [ 121.143029030446954, 14.577716049073389 ], [ 121.143090510427939, 14.577689971972616 ], [ 121.143133018748927, 14.577661212659017 ], [ 121.143155844384935, 14.577640090240918 ], [ 121.143174042512953, 14.577604764463407 ], [ 121.143185688566902, 14.577562274563991 ], [ 121.143192874978908, 14.57752903816468 ], [ 121.144134261374148, 14.571926948570017 ], [ 121.144147522337065, 14.571761023804932 ], [ 121.144144036403958, 14.571604287177028 ], [ 121.144134261373864, 14.571417400989805 ], [ 121.144112265545758, 14.571246107121384 ], [ 121.144065750774601, 14.571040592695118 ], [ 121.144004933515504, 14.570877239702194 ], [ 121.143938595412408, 14.570712108010445 ], [ 121.143838809415243, 14.570501071727637 ], [ 121.143709787097038, 14.570262162501418 ], [ 121.143618876979943, 14.57010332327447 ], [ 121.143549053811867, 14.56999245840495 ], [ 121.140212786989196, 14.565353799970206 ], [ 121.138636285799421, 14.563161873804255 ], [ 121.136763722318364, 14.560591344968193 ], [ 121.136707773770311, 14.560504762349105 ], [ 121.136645555660238, 14.560400117070094 ], [ 121.136572246018119, 14.560279016123081 ], [ 121.136516739141072, 14.560164535095765 ], [ 121.136461074278955, 14.56003607772257 ], [ 121.136384416552815, 14.559813252535964 ], [ 121.136347817944724, 14.559685529348073 ], [ 121.13630427215962, 14.559496070518332 ], [ 121.136255542481408, 14.559188259059509 ] ] ] } }
]
}
