{
"type": "FeatureCollection",
"name": "MRT7_Alignment",
"crs": { "type": "name", "properties": { "name": "urn:ogc:def:crs:OGC:1.3:CRS84" } },
"features": [
{ "type": "Feature", "properties": { "Layer": null, "LenM": 0.0, "Name": null, "Line": null, "Descript": "Recto-Commonwealth-Banaba", "Id": 0, "Remarks": null, "Length": 0.0, "FromSta": null, "ToSta": null, "ProjCode": null, "Status": null, "Plan2016": 0, "Code": null, "Code3": null, "Category": null }, "geometry": { "type": "MultiLineString", "coordinates": [ [ [ 121.081422252427018, 14.747197521928625, 0.0 ], [ 121.081808576695735, 14.747593107974552, 0.0 ], [ 121.082159924337802, 14.747952888782978, 0.0 ], [ 121.082564092275362, 14.748421127058576, 0.0 ], [ 121.082633198458979, 14.748513340563191, 0.0 ], [ 121.082713134651186, 14.748637374420076, 0.0 ], [ 121.083342427688535, 14.749600457321581, 0.0 ], [ 121.08361825330401, 14.749978975875624, 0.0 ], [ 121.083849876216846, 14.750306986238943, 0.0 ], [ 121.084285724312224, 14.750913873054857, 0.0 ], [ 121.084490102939668, 14.751231688046563, 0.0 ], [ 121.084563387184517, 14.751360328252749, 0.0 ], [ 121.084610084100817, 14.751444958049762, 0.0 ], [ 121.084656985781507, 14.75155108972328, 0.0 ], [ 121.084709415127691, 14.75168379622308, 0.0 ], [ 121.084748204943438, 14.751818483587511, 0.0 ], [ 121.084777360900418, 14.751957524010908, 0.0 ], [ 121.084789778263016, 14.752043470675458, 0.0 ], [ 121.084805185296787, 14.752343792664629, 0.0 ], [ 121.084855057320979, 14.753092989738139, 0.0 ], [ 121.084943144434391, 14.754355084030752, 0.0 ], [ 121.084993390096756, 14.755036330486327, 0.0 ], [ 121.085008553762819, 14.755240009765332, 0.0 ], [ 121.085037895216857, 14.755433630922461, 0.0 ], [ 121.085074124924077, 14.755661128530592, 0.0 ], [ 121.085116341911331, 14.755864728232334, 0.0 ], [ 121.085263140132696, 14.756409260271242, 0.0 ], [ 121.08557636739927, 14.75759221900787, 0.0 ], [ 121.0858213850331, 14.758495650752042, 0.0 ], [ 121.085884133783708, 14.758669388751523, 0.0 ], [ 121.086345574134782, 14.759837488968076, 0.0 ], [ 121.086541792248141, 14.760338850628818, 0.0 ], [ 121.086902679262607, 14.761293581383757, 0.0 ], [ 121.087130288780088, 14.761724649235267, 0.0 ], [ 121.08750205735231, 14.7627159671674, 0.0 ], [ 121.087689096358076, 14.763299049973313, 0.0 ], [ 121.087839041294728, 14.763580020084392, 0.0 ], [ 121.087933716986328, 14.763786387150793, 0.0 ], [ 121.08848472409224, 14.765185469445365, 0.0 ], [ 121.088667520492152, 14.765792886363444, 0.0 ], [ 121.088710874100357, 14.765913626977405, 0.0 ], [ 121.089783962273117, 14.768592003416192, 0.0 ], [ 121.089836004005903, 14.768674184796456, 0.0 ], [ 121.090135783094212, 14.769467260717892, 0.0 ], [ 121.090759587500742, 14.771055429427097, 0.0 ], [ 121.091926394047888, 14.77392397527213, 0.0 ] ] ] } },
{ "type": "Feature", "properties": { "Layer": null, "LenM": 24495.49, "Name": "Recto-Quezon-Commonwealth Line", "Line": "MRT-7", "Descript": "Recto-Commonwealth-Banaba", "Id": 0, "Remarks": null, "Length": 26.8, "FromSta": null, "ToSta": null, "ProjCode": null, "Status": null, "Plan2016": 0, "Code": "MRT-7-2", "Code3": "T-R-7", "Category": "Main Line" }, "geometry": { "type": "MultiLineString", "coordinates": [ [ [ 121.02964652999249, 14.653854197047664, 0.0 ], [ 121.029850658456539, 14.654755894755516, 0.0 ], [ 121.029910652344611, 14.655077751950371, 0.0 ], [ 121.029918117394416, 14.655121809391781, 0.0 ], [ 121.029926735703512, 14.655146748694795, 0.0 ], [ 121.029946116417534, 14.655176561161369, 0.0 ], [ 121.030070549734376, 14.655322987530143, 0.0 ], [ 121.030101700828482, 14.655354812499198, 0.0 ], [ 121.030139762132166, 14.655382870425603, 0.0 ], [ 121.030206181561681, 14.655425514522639, 0.0 ], [ 121.030286267571299, 14.655477838334447, 0.0 ], [ 121.030309782642917, 14.655484732306912, 0.0 ], [ 121.030345110808867, 14.655488857160286, 0.0 ], [ 121.030481563332287, 14.655499576979256, 0.0 ], [ 121.030518898813952, 14.655498936831018, 0.0 ], [ 121.03068610992851, 14.655475486815362, 0.0 ], [ 121.030814055147317, 14.655448834945734, 0.0 ], [ 121.032002221717363, 14.655173888392493, 0.0 ], [ 121.033776058264095, 14.654768080142015, 0.0 ], [ 121.035132480112637, 14.654462021831726, 0.0 ], [ 121.036301838954302, 14.654202195463689, 0.0 ], [ 121.037836946357331, 14.65390719338486, 0.0 ], [ 121.03859072147722, 14.653762441339564, 0.0 ], [ 121.039480485013371, 14.65357005683973, 0.0 ], [ 121.040811237312255, 14.653277136750177, 0.0 ], [ 121.041788633647272, 14.653061571176849, 0.0 ], [ 121.043074272319572, 14.65278183842565, 0.0 ], [ 121.044872490847126, 14.652392596018643, 0.0 ], [ 121.045489789358285, 14.652261210374181, 0.0 ], [ 121.045801236280312, 14.652190184551937, 0.0 ], [ 121.045958305209837, 14.652158030193265, 0.0 ], [ 121.046010621953116, 14.652151774934058, 0.0 ], [ 121.046168828700814, 14.652146409293831, 0.0 ], [ 121.04650310788702, 14.652137166721687, 0.0 ], [ 121.046648866715273, 14.652139729985846, 0.0 ], [ 121.046772563116505, 14.652148802694656, 0.0 ], [ 121.047157404391754, 14.652176135909169, 0.0 ], [ 121.047279690092992, 14.652189213405336, 0.0 ], [ 121.047628430101867, 14.652249577547321, 0.0 ], [ 121.047636318036282, 14.652250650470485, 0.0 ], [ 121.04814359803035, 14.652319650527934, 0.0 ], [ 121.049051454524559, 14.652457148076982, 0.0 ], [ 121.049849450522103, 14.652576314397811, 0.0 ], [ 121.050173618933314, 14.6526218795064, 0.0 ], [ 121.050905666094295, 14.652733794544778, 0.0 ], [ 121.051177624776301, 14.652773564841979, 0.0 ], [ 121.05124625472385, 14.652788868609072, 0.0 ], [ 121.051318939276499, 14.652812240145776, 0.0 ], [ 121.051416282826324, 14.652846530032734, 0.0 ], [ 121.05154791183071, 14.65289181889711, 0.0 ], [ 121.051617763210942, 14.65292453939373, 0.0 ], [ 121.05194347630453, 14.65310668994433, 0.0 ], [ 121.052303309881296, 14.653318583203861, 0.0 ], [ 121.052711995376882, 14.653587024316368, 0.0 ], [ 121.053301511976358, 14.653972325098543, 0.0 ], [ 121.053923699029241, 14.654377885110328, 0.0 ], [ 121.054429668620458, 14.654706149994237, 0.0 ], [ 121.055418292848756, 14.6553557871054, 0.0 ], [ 121.056136175246792, 14.655827751975966, 0.0 ], [ 121.057044108196763, 14.656427166634407, 0.0 ], [ 121.057939681021836, 14.657025136061021, 0.0 ], [ 121.058233693095701, 14.65721638702747, 0.0 ], [ 121.059155284327261, 14.657827959513753, 0.0 ], [ 121.059292086443378, 14.657920148717293, 0.0 ], [ 121.060072696256071, 14.658446188894356, 0.0 ], [ 121.061203450928971, 14.65920277007673, 0.0 ], [ 121.06214826223912, 14.659834610779065, 0.0 ], [ 121.063730197067514, 14.66089888990253, 0.0 ], [ 121.065079751179795, 14.661801887129807, 0.0 ], [ 121.066510117452765, 14.662744380385346, 0.0 ], [ 121.067627330075609, 14.66348207668025, 0.0 ], [ 121.068633797904567, 14.664145204165823, 0.0 ], [ 121.069391424078219, 14.664640227186021, 0.0 ], [ 121.069997158674354, 14.665046952888643, 0.0 ], [ 121.070721889723657, 14.665529648184373, 0.0 ], [ 121.071267596957696, 14.665880974463903, 0.0 ], [ 121.071725661735115, 14.666188724946981, 0.0 ], [ 121.072520189799306, 14.666712164123242, 0.0 ], [ 121.073455640932764, 14.667321125420768, 0.0 ], [ 121.074843389122435, 14.668269916565716, 0.0 ], [ 121.075140019178761, 14.668479916791743, 0.0 ], [ 121.075213818324485, 14.668534087559356, 0.0 ], [ 121.075443350891305, 14.668710056974717, 0.0 ], [ 121.075932405199836, 14.669093040249127, 0.0 ], [ 121.076641779054299, 14.669672448204066, 0.0 ], [ 121.076664409928242, 14.669690932747264, 0.0 ], [ 121.076680371641075, 14.669705027793466, 0.0 ], [ 121.077256777819315, 14.670214023474829, 0.0 ], [ 121.077577479189557, 14.670503220477038, 0.0 ], [ 121.077652467928829, 14.670578824215374, 0.0 ], [ 121.078218393586624, 14.671137846777134, 0.0 ], [ 121.078376553907731, 14.671297155519037, 0.0 ], [ 121.079054069785954, 14.671993676151537, 0.0 ], [ 121.07922173023772, 14.672167791859437, 0.0 ], [ 121.079337548286176, 14.672293275293132, 0.0 ], [ 121.07985342100524, 14.672914813246315, 0.0 ], [ 121.080361917667588, 14.673593865825769, 0.0 ], [ 121.080802466521178, 14.674178627028326, 0.0 ], [ 121.081202258619044, 14.674705474442925, 0.0 ], [ 121.081594159697786, 14.67524116269907, 0.0 ], [ 121.081686158331607, 14.675366914892072, 0.0 ], [ 121.081811070169593, 14.675554065961345, 0.0 ], [ 121.081858566295665, 14.675628102593603, 0.0 ], [ 121.082009151301378, 14.675894382315699, 0.0 ], [ 121.082118218702277, 14.676087245978406, 0.0 ], [ 121.082346221236705, 14.676490421288104, 0.0 ], [ 121.082854148817859, 14.677394415344377, 0.0 ], [ 121.083084313076455, 14.677815418899243, 0.0 ], [ 121.083146496078314, 14.6779404581651, 0.0 ], [ 121.083467750413419, 14.678642062036362, 0.0 ], [ 121.083843019565805, 14.679459264478163, 0.0 ], [ 121.084305442168727, 14.680535610604503, 0.0 ], [ 121.084903999362524, 14.681933097748352, 0.0 ], [ 121.085352875020149, 14.682986568165077, 0.0 ], [ 121.085896239866315, 14.68424702174894, 0.0 ], [ 121.086411238634525, 14.685448325204527, 0.0 ], [ 121.086605422235976, 14.685895809844068, 0.0 ], [ 121.086641755291183, 14.685988499696075, 0.0 ], [ 121.086700771916711, 14.686161715952661, 0.0 ], [ 121.086857470163977, 14.686649061146532, 0.0 ], [ 121.08701274694404, 14.687141750537126, 0.0 ], [ 121.087034055227534, 14.687222265594535, 0.0 ], [ 121.087146216147474, 14.687769498127203, 0.0 ], [ 121.087164540660126, 14.687876768387973, 0.0 ], [ 121.087218361162414, 14.688331129686262, 0.0 ], [ 121.087229738562215, 14.688446376621075, 0.0 ], [ 121.087247167287941, 14.688814742566395, 0.0 ], [ 121.08725699552437, 14.689108062409826, 0.0 ], [ 121.087272188678114, 14.689891496821815, 0.0 ], [ 121.087290052703878, 14.691000327764957, 0.0 ], [ 121.087310772760389, 14.6922551320667, 0.0 ], [ 121.087320042143332, 14.692770719547141, 0.0 ], [ 121.087328961885149, 14.693326473819475, 0.0 ], [ 121.087331355945707, 14.694474007667909, 0.0 ], [ 121.087332863190213, 14.695565296548487, 0.0 ], [ 121.087338030128976, 14.696710175094355, 0.0 ], [ 121.087333659224882, 14.696896258565033, 0.0 ], [ 121.087322601850047, 14.697261932578193, 0.0 ], [ 121.087314927572123, 14.697515723319839, 0.0 ], [ 121.087297373578735, 14.698220219662463, 0.0 ], [ 121.087290519654516, 14.698533486591263, 0.0 ], [ 121.08728260470761, 14.698652591339778, 0.0 ], [ 121.087267031195779, 14.698861345184971, 0.0 ], [ 121.087239928920454, 14.699130258434476, 0.0 ], [ 121.087220753256716, 14.699278728042984, 0.0 ], [ 121.087203361067765, 14.699380347742768, 0.0 ], [ 121.087157444196478, 14.699598224176087, 0.0 ], [ 121.087104777812712, 14.699801316029404, 0.0 ], [ 121.087007068482961, 14.700121867270896, 0.0 ], [ 121.086957811402939, 14.700267733253993, 0.0 ], [ 121.086899753423666, 14.700439661200761, 0.0 ], [ 121.086887153531535, 14.700471024849088, 0.0 ], [ 121.086825229593245, 14.700625165735156, 0.0 ], [ 121.086693247641392, 14.700932044059003, 0.0 ], [ 121.08654478218557, 14.701236108251496, 0.0 ], [ 121.086375391640487, 14.701573474296728, 0.0 ], [ 121.086269019555814, 14.701782817464599, 0.0 ], [ 121.086122371655122, 14.702036014695695, 0.0 ], [ 121.086013492977926, 14.702217218249492, 0.0 ], [ 121.085910396286209, 14.702366333758139, 0.0 ], [ 121.085762792040185, 14.702571319208468, 0.0 ], [ 121.08568771928536, 14.702661750505472, 0.0 ], [ 121.085508418755154, 14.702873168958797, 0.0 ], [ 121.085334783449639, 14.703065888196239, 0.0 ], [ 121.085219539392057, 14.70318812322329, 0.0 ], [ 121.085123809654192, 14.70328106164466, 0.0 ], [ 121.084911623333994, 14.703477479016554, 0.0 ], [ 121.084735562830346, 14.703632686016924, 0.0 ], [ 121.084682883353736, 14.703679115332132, 0.0 ], [ 121.084637198358507, 14.703712212553995, 0.0 ], [ 121.084302213582703, 14.703950462218947, 0.0 ], [ 121.084093255868979, 14.704092006914662, 0.0 ], [ 121.083996465088489, 14.704148783366408, 0.0 ], [ 121.083579086090751, 14.704370282973747, 0.0 ], [ 121.083338758598799, 14.704480770875138, 0.0 ], [ 121.083083440044064, 14.704575066707255, 0.0 ], [ 121.082565041710069, 14.704743914304041, 0.0 ], [ 121.082501273592243, 14.70476306578262, 0.0 ], [ 121.082326128221069, 14.704813167868805, 0.0 ], [ 121.082243031018763, 14.704834934101646, 0.0 ], [ 121.082179310248208, 14.704848775340631, 0.0 ], [ 121.082122142927204, 14.704857675267622, 0.0 ], [ 121.081915229209869, 14.704883077712973, 0.0 ], [ 121.081768210525468, 14.704902280687756, 0.0 ], [ 121.081583275318806, 14.704924543757304, 0.0 ], [ 121.081133366821788, 14.704978704482214, 0.0 ], [ 121.080761663173874, 14.705010440861248, 0.0 ], [ 121.080193068102474, 14.705061969809092, 0.0 ], [ 121.079631420952964, 14.705105520989846, 0.0 ], [ 121.079460746989099, 14.705116157843682, 0.0 ], [ 121.079137386644987, 14.705125529378028, 0.0 ], [ 121.07826934270237, 14.705126368564668, 0.0 ], [ 121.077119217350031, 14.705135576580727, 0.0 ], [ 121.076088871088999, 14.70513372220559, 0.0 ], [ 121.075326951562516, 14.705139985387108, 0.0 ], [ 121.075197385542097, 14.705141050204691, 0.0 ], [ 121.075101004127404, 14.705149276888381, 0.0 ], [ 121.075011533762279, 14.705156913639133, 0.0 ], [ 121.074696227715577, 14.705189108481415, 0.0 ], [ 121.074502028699456, 14.705215614004901, 0.0 ], [ 121.074259462346575, 14.705267158155943, 0.0 ], [ 121.07408988225194, 14.705309935596995, 0.0 ], [ 121.073958899706483, 14.705343660762079, 0.0 ], [ 121.073694019002573, 14.705429832333786, 0.0 ], [ 121.073369750719777, 14.705535198443116, 0.0 ], [ 121.072179234284633, 14.705922033933978, 0.0 ], [ 121.072023879336939, 14.705973790821242, 0.0 ], [ 121.071583208682966, 14.706120600617695, 0.0 ], [ 121.070665819453382, 14.706414236233508, 0.0 ], [ 121.070540279344527, 14.706454699512241, 0.0 ], [ 121.070489254427969, 14.706469003502162, 0.0 ], [ 121.070197248654026, 14.706510758722336, 0.0 ], [ 121.070135289877001, 14.706516937737018, 0.0 ], [ 121.070055706578458, 14.706516845726952, 0.0 ], [ 121.06938831697795, 14.706516073049746, 0.0 ], [ 121.06934722267998, 14.70651620435531, 0.0 ], [ 121.068110298539466, 14.706520153193974, 0.0 ], [ 121.067187232251328, 14.70652049156803, 0.0 ], [ 121.065958746931514, 14.70652363389074, 0.0 ], [ 121.065537734038983, 14.706530832296609, 0.0 ], [ 121.065383601599265, 14.70653757969839, 0.0 ], [ 121.065303772483503, 14.706542269271674, 0.0 ], [ 121.065115062529372, 14.706570151440365, 0.0 ], [ 121.06496757187098, 14.70660373346338, 0.0 ], [ 121.064861394897349, 14.706632304425577, 0.0 ], [ 121.064687556310602, 14.706689767790357, 0.0 ], [ 121.064592301077283, 14.706727802622154, 0.0 ], [ 121.064430677104511, 14.706804113386555, 0.0 ], [ 121.064154023924246, 14.706971174217843, 0.0 ], [ 121.064148541972841, 14.706974484563371, 0.0 ], [ 121.06403496760079, 14.707061908106841, 0.0 ], [ 121.063883875431628, 14.707191865291968, 0.0 ], [ 121.063810357193844, 14.707260877695884, 0.0 ], [ 121.063717028671292, 14.707364985155138, 0.0 ], [ 121.061511391004103, 14.710014038169826, 0.0 ], [ 121.061356801618928, 14.710200869676735, 0.0 ], [ 121.061311171330161, 14.71025601681286, 0.0 ], [ 121.061281206375838, 14.710299952129466, 0.0 ], [ 121.061257425566467, 14.710344608664991, 0.0 ], [ 121.061242698290044, 14.710376620728921, 0.0 ], [ 121.061230668942287, 14.710414680728594, 0.0 ], [ 121.061212924462581, 14.71047679436926, 0.0 ], [ 121.061200587662725, 14.710549665011412, 0.0 ], [ 121.061199601590985, 14.710566731033573, 0.0 ], [ 121.061191656259751, 14.710704241308001, 0.0 ], [ 121.061194809375223, 14.710892392959156, 0.0 ], [ 121.061195066764014, 14.710973226691054, 0.0 ], [ 121.061195902970894, 14.711235847878903, 0.0 ], [ 121.061195652093957, 14.713366816114164, 0.0 ], [ 121.061193515016953, 14.715321693737957, 0.0 ], [ 121.061194248484256, 14.717418525830544, 0.0 ], [ 121.061191967818971, 14.719544789674565, 0.0 ], [ 121.061191944766037, 14.720792708524058, 0.0 ], [ 121.061192484919204, 14.723066281984154, 0.0 ], [ 121.061190383934658, 14.72501580257606, 0.0 ], [ 121.061187764031274, 14.730601955742078, 0.0 ], [ 121.061192202066067, 14.732899996315096, 0.0 ], [ 121.061191118896033, 14.733566793101735, 0.0 ], [ 121.061192567483786, 14.733714091669951, 0.0 ], [ 121.061204867833936, 14.733878887739998, 0.0 ], [ 121.061213479265078, 14.733994111101852, 0.0 ], [ 121.061233084613335, 14.734110765547367, 0.0 ], [ 121.061252855793114, 14.734208675836529, 0.0 ], [ 121.061269994965656, 14.734280830076823, 0.0 ], [ 121.061312536570824, 14.734460901784368, 0.0 ], [ 121.061377197375151, 14.73461676378732, 0.0 ], [ 121.061398829952083, 14.734659791997256, 0.0 ], [ 121.061480437757865, 14.734766254169571, 0.0 ], [ 121.061511771498161, 14.734801329843842, 0.0 ], [ 121.061569101907011, 14.734852690922379, 0.0 ], [ 121.061670088445183, 14.73494592571684, 0.0 ], [ 121.061742551915614, 14.734997413535517, 0.0 ], [ 121.061944892426098, 14.735142378039738, 0.0 ], [ 121.062114405176473, 14.735265643956227, 0.0 ], [ 121.062170537717307, 14.735296910359622, 0.0 ], [ 121.062252749921456, 14.735335090011727, 0.0 ], [ 121.062319935687569, 14.735361093081577, 0.0 ], [ 121.062358709118726, 14.735369251220462, 0.0 ], [ 121.062481963909988, 14.735397263150375, 0.0 ], [ 121.062608448134995, 14.735407695085426, 0.0 ], [ 121.062728053733693, 14.735418069357616, 0.0 ], [ 121.062890366145837, 14.735422106286604, 0.0 ], [ 121.063869862265861, 14.735432982829664, 0.0 ], [ 121.065428447456526, 14.735459409699518, 0.0 ], [ 121.065589396279009, 14.735462094368858, 0.0 ], [ 121.066590835030084, 14.73548117668903, 0.0 ], [ 121.067412124223068, 14.735490716169243, 0.0 ], [ 121.068095816815529, 14.735501781808939, 0.0 ], [ 121.068966621501488, 14.735513068193235, 0.0 ], [ 121.069197605140204, 14.735518398083697, 0.0 ], [ 121.06922797728204, 14.735519098896249, 0.0 ], [ 121.069244997583738, 14.735519743044559, 0.0 ], [ 121.069261651833727, 14.735522894711233, 0.0 ], [ 121.069318785591378, 14.735538267550472, 0.0 ], [ 121.06934828575902, 14.735547384411737, 0.0 ], [ 121.069371220221058, 14.735559961287036, 0.0 ], [ 121.069410416352966, 14.735581209804955, 0.0 ], [ 121.069431966240131, 14.735594779351565, 0.0 ], [ 121.069442637133804, 14.735604675278562, 0.0 ], [ 121.069588223064585, 14.735739687997912, 0.0 ], [ 121.070465428181322, 14.736547711606217, 0.0 ], [ 121.070716560853697, 14.736777431507093, 0.0 ], [ 121.071192865373575, 14.737216569600903, 0.0 ], [ 121.071287037695228, 14.737303049076212, 0.0 ], [ 121.071345805961769, 14.737347725167799, 0.0 ], [ 121.071391951693613, 14.737380579994054, 0.0 ], [ 121.071402947893986, 14.737387366535643, 0.0 ], [ 121.071407346374301, 14.737390081152119, 0.0 ], [ 121.071454920904642, 14.737416922494786, 0.0 ], [ 121.071577935170893, 14.737482654018587, 0.0 ], [ 121.071612745412622, 14.737501254527951, 0.0 ], [ 121.071695000465667, 14.73754383016494, 0.0 ], [ 121.072013699560202, 14.737708790038738, 0.0 ], [ 121.072434235454281, 14.737919166048217, 0.0 ], [ 121.072523247159097, 14.737966771830484, 0.0 ], [ 121.07264102606878, 14.738028676496077, 0.0 ], [ 121.072658116993296, 14.738040869663866, 0.0 ], [ 121.072719613716899, 14.738088246139345, 0.0 ], [ 121.072794156838114, 14.738146338402748, 0.0 ], [ 121.07307216798479, 14.738362995054997, 0.0 ], [ 121.073851722602981, 14.73897403485423, 0.0 ], [ 121.074024549911215, 14.739112718906785, 0.0 ], [ 121.074251202240418, 14.73931076590584, 0.0 ], [ 121.074314669180296, 14.739368870241675, 0.0 ], [ 121.074360386558396, 14.739411428578268, 0.0 ], [ 121.074468101069613, 14.739522790783399, 0.0 ], [ 121.074571588370418, 14.739645499060025, 0.0 ], [ 121.074621256647049, 14.739708174886646, 0.0 ], [ 121.074859779810666, 14.740042895808228, 0.0 ], [ 121.07523622097203, 14.740574924346069, 0.0 ], [ 121.075642366361748, 14.741171470483305, 0.0 ], [ 121.075768026103532, 14.741354616805548, 0.0 ], [ 121.075823839036048, 14.741422699476617, 0.0 ], [ 121.075892610167983, 14.741503610220768, 0.0 ], [ 121.075932836931457, 14.741544783668974, 0.0 ], [ 121.075999691475133, 14.741608941232949, 0.0 ], [ 121.07607420104469, 14.741663120132724, 0.0 ], [ 121.076124134767809, 14.741695670951032, 0.0 ], [ 121.076180070523293, 14.741725171417379, 0.0 ], [ 121.0762569798312, 14.741765733282836, 0.0 ], [ 121.076368700272866, 14.741812857235484, 0.0 ], [ 121.07644481506928, 14.741840939327865, 0.0 ], [ 121.076621203200645, 14.741887931512455, 0.0 ], [ 121.077065922069337, 14.742009459520766, 0.0 ], [ 121.077256189232514, 14.742062924876349, 0.0 ], [ 121.077263561705337, 14.742064996548605, 0.0 ], [ 121.077392853188954, 14.742108918679472, 0.0 ], [ 121.077455245677228, 14.742132869455943, 0.0 ], [ 121.077511403085879, 14.742161789554995, 0.0 ], [ 121.077514910848365, 14.742163731157067, 0.0 ], [ 121.077550083896341, 14.742183199991251, 0.0 ], [ 121.077577073487589, 14.742204178496795, 0.0 ], [ 121.077613831763244, 14.742239917330028, 0.0 ], [ 121.077615272293457, 14.742241317908697, 0.0 ], [ 121.077673843493372, 14.742308753656101, 0.0 ], [ 121.077715299665073, 14.742366674290121, 0.0 ], [ 121.077757908389202, 14.742450045082132, 0.0 ], [ 121.077787476547527, 14.742529960037185, 0.0 ], [ 121.077806820323218, 14.742599078185721, 0.0 ], [ 121.077813340881164, 14.742639971213549, 0.0 ], [ 121.077823060033168, 14.74270833987755, 0.0 ], [ 121.077832244560227, 14.742837627601526, 0.0 ], [ 121.077861057440174, 14.743395551452492, 0.0 ], [ 121.077925251623256, 14.744703597058392, 0.0 ], [ 121.07793786977156, 14.74483358280429, 0.0 ], [ 121.077948218118365, 14.744908651586625, 0.0 ], [ 121.077964210689501, 14.744967699548322, 0.0 ], [ 121.078001875326194, 14.745065758008424, 0.0 ], [ 121.078030144386616, 14.745136958811038, 0.0 ], [ 121.078076251904591, 14.745213663792088, 0.0 ], [ 121.078135999989243, 14.74530387192106, 0.0 ], [ 121.078206836807254, 14.745384799353806, 0.0 ], [ 121.078273652007397, 14.745453642543573, 0.0 ], [ 121.078341960546979, 14.745509108347298, 0.0 ], [ 121.078417888923994, 14.745558612056316, 0.0 ], [ 121.078468428745154, 14.745585712290262, 0.0 ], [ 121.078507931099494, 14.74560689405201, 0.0 ], [ 121.078574405124385, 14.745636234476205, 0.0 ], [ 121.078689643951577, 14.745674683447044, 0.0 ], [ 121.079027809037029, 14.745783136596678, 0.0 ], [ 121.079156826099918, 14.74582451359168, 0.0 ], [ 121.080076070458034, 14.746122706727371, 0.0 ], [ 121.080210530160898, 14.746166001023564, 0.0 ], [ 121.080339858105575, 14.746211695718673, 0.0 ], [ 121.080339858105603, 14.74621169571868, 0.0 ], [ 121.080440833124115, 14.746262980645236, 0.0 ], [ 121.080501780945042, 14.746294952644895, 0.0 ], [ 121.08054555460275, 14.746324104099473, 0.0 ], [ 121.080635683409639, 14.746401843621994, 0.0 ], [ 121.080693721244486, 14.746451867647558, 0.0 ], [ 121.080950869727914, 14.74671693532698, 0.0 ], [ 121.081073482599834, 14.746843323908502, 0.0 ], [ 121.081285503766239, 14.747064006726866, 0.0 ], [ 121.081331729638279, 14.747106879198803, 0.0 ], [ 121.081422252427018, 14.747197521928625, 0.0 ] ] ] } }
]
}
