{
"type": "FeatureCollection",
"name": "Intracity Routes",
"crs": { "type": "name", "properties": { "name": "urn:ogc:def:crs:OGC:1.3:CRS84" } },
"xy_coordinate_resolution": 1e-15,
"features": [
{ "type": "Feature", "properties": { "route name": "Intracity Routes", "weight": 5, "Color": "#81dd2b" }, "geometry": { "type": "MultiLineString", "coordinates": [ [ [ 121.092494890027425, 14.618643309561753 ], [ 121.092504090027276, 14.618411609561596 ], [ 121.092255342753049, 14.614354846670969 ], [ 121.091953856278181, 14.609719122178937 ], [ 121.091946118992226, 14.609455176047081 ], [ 121.091993390022068, 14.609260409555594 ], [ 121.092299690021605, 14.608248409555141 ], [ 121.092312118122777, 14.60816132009087 ], [ 121.092309990021533, 14.608068109555038 ], [ 121.092296691815008, 14.607759825875224 ], [ 121.092273654690246, 14.607421533498512 ], [ 121.092030790019336, 14.604343609552531 ], [ 121.092041490019241, 14.604119109552393 ], [ 121.092022456091954, 14.604057142229113 ], [ 121.092069963442412, 14.603915918716019 ], [ 121.092154644909641, 14.603242073967781 ], [ 121.092209390018553, 14.602760909551639 ], [ 121.092256290018256, 14.602187309551324 ], [ 121.092256490018201, 14.60208910955126 ], [ 121.09223714877794, 14.601874898795632 ], [ 121.092208465140573, 14.601741075954672 ], [ 121.091922567534525, 14.600357306387885 ], [ 121.091800490016936, 14.60009240954974 ], [ 121.091182290016093, 14.598943509548636 ], [ 121.089926797661292, 14.597274590316713 ], [ 121.08587830500737, 14.590794247485267 ] ] ] } },
{ "type": "Feature", "properties": { "route name": "Intracity Routes", "weight": 5, "Color": "#81dd2b" }, "geometry": { "type": "MultiLineString", "coordinates": [ [ [ 121.101893187348949, 14.620565984144651 ], [ 121.101680660030794, 14.618984283567626 ], [ 121.101697280956529, 14.617792744218729 ], [ 121.101650545029784, 14.61707699656643 ], [ 121.101750930137896, 14.616538636764977 ], [ 121.10205968902882, 14.61521664456547 ], [ 121.103088555027298, 14.611889181564059 ], [ 121.105590898023678, 14.603731974560484 ], [ 121.106312639023201, 14.602412930560083 ], [ 121.110089659419543, 14.596431934440167 ], [ 121.114741828570743, 14.588948900969349 ], [ 121.114874590017308, 14.586590809555334 ] ] ] } },
{ "type": "Feature", "properties": { "route name": "Intracity Routes", "weight": 5, "Color": "#81dd2b" }, "geometry": { "type": "MultiLineString", "coordinates": [ [ [ 121.077855973775584, 14.632229675711192 ], [ 121.078248890029982, 14.632032009561406 ], [ 121.079563690030469, 14.632150209562285 ], [ 121.080181790030778, 14.632241109562704 ], [ 121.082029490031601, 14.632666709564111 ], [ 121.084046090032643, 14.633283709565708 ], [ 121.085512990033479, 14.63380830956693 ], [ 121.087830390034853, 14.634943109569065 ], [ 121.090409290036419, 14.636186509571424 ], [ 121.090618290036517, 14.636211309571536 ], [ 121.091928090036888, 14.636114609572292 ], [ 121.094417890037604, 14.635903409573672 ], [ 121.097383790038521, 14.635684309575343 ], [ 121.099295648782487, 14.635511721283653 ], [ 121.102170475517411, 14.634934333879418 ], [ 121.115948811583166, 14.632158673479005 ], [ 121.119758096362318, 14.629851953441532 ], [ 121.120287201946482, 14.629552605824152 ], [ 121.120708937682039, 14.629433224031374 ], [ 121.123403274399621, 14.62892401731612 ], [ 121.123681887215071, 14.628784533698472 ], [ 121.123979168081107, 14.628340684242538 ], [ 121.124507890041869, 14.625197609585362 ] ] ] } },
{ "type": "Feature", "properties": { "route name": "Intracity Routes", "weight": 5, "Color": "#81dd2b" }, "geometry": { "type": "MultiLineString", "coordinates": [ [ [ 121.060388340134068, 14.626532882831533 ], [ 121.062987868068078, 14.621192694772168 ], [ 121.066355590015704, 14.613511609542599 ] ] ] } },
{ "type": "Feature", "properties": { "route name": "Intracity Routes", "weight": 5, "Color": "#81dd2b" }, "geometry": { "type": "MultiLineString", "coordinates": [ [ [ 121.053950190016863, 14.623197709541078 ], [ 121.054737290016647, 14.622309309541 ], [ 121.056530290015203, 14.618589809539799 ], [ 121.057792090016079, 14.619414909541078 ], [ 121.059478292531878, 14.620081590551701 ], [ 121.062948597491342, 14.621157763384126 ] ] ] } },
{ "type": "Feature", "properties": { "route name": "Intracity Routes", "weight": 5, "Color": "#81dd2b" }, "geometry": { "type": "MultiLineString", "coordinates": [ [ [ 121.057105737530847, 14.624944000928748 ], [ 121.061107273165192, 14.6166941900452 ], [ 121.062734490014094, 14.612749209539929 ] ] ] } },
{ "type": "Feature", "properties": { "route name": "Intracity Routes", "weight": 5, "Color": "#81dd2b" }, "geometry": { "type": "MultiLineString", "coordinates": [ [ [ 121.066583522470921, 14.62825150954321 ], [ 121.065833285370957, 14.62617326088454 ], [ 121.06570245815746, 14.62601183973346 ], [ 121.066837094056069, 14.624611898820216 ], [ 121.067431442071012, 14.624559442285147 ], [ 121.067393522337582, 14.622549231129563 ], [ 121.066347269870988, 14.622558597740309 ], [ 121.062948597491342, 14.621157763384126 ] ] ] } },
{ "type": "Feature", "properties": { "route name": "Intracity Routes", "weight": 5, "Color": "#81dd2b" }, "geometry": { "type": "MultiLineString", "coordinates": [ [ [ 121.054363991844653, 14.618145926640908 ], [ 121.054701143434045, 14.617844860485567 ], [ 121.054976514259565, 14.617740822778389 ], [ 121.056387942934336, 14.614786651813288 ], [ 121.061107273165192, 14.6166941900452 ] ] ] } },
{ "type": "Feature", "properties": { "route name": "Intracity Routes", "weight": 5, "Color": "#81dd2b" }, "geometry": { "type": "MultiLineString", "coordinates": [ [ [ 121.064051090017827, 14.618713609544447 ], [ 121.064947103584117, 14.619026154508962 ], [ 121.066568522637894, 14.61534034619719 ], [ 121.066712127758734, 14.615130473108271 ], [ 121.066870616539248, 14.615002600999446 ], [ 121.066979586979542, 14.614949510800615 ], [ 121.067130656576964, 14.614865054803895 ], [ 121.067472465434179, 14.614838434815994 ], [ 121.069507401047289, 14.615326306294765 ], [ 121.069730594048309, 14.616268096455141 ], [ 121.070451826543035, 14.617797050203432 ], [ 121.071997853747803, 14.62125228306852 ], [ 121.071538931290661, 14.623161436298908 ], [ 121.069420062416526, 14.629260501271292 ] ] ] } },
{ "type": "Feature", "properties": { "route name": "Intracity Routes", "weight": 5, "Color": "#81dd2b" }, "geometry": { "type": "MultiLineString", "coordinates": [ [ [ 121.055267639172584, 14.611014507153033 ], [ 121.070797266961478, 14.614438499148932 ], [ 121.072243394794782, 14.614512327976815 ], [ 121.072629690018431, 14.614570909547089 ], [ 121.073120490018795, 14.614881009547586 ], [ 121.073564090019232, 14.615431109548201 ], [ 121.073852630570016, 14.615825659433218 ], [ 121.074113590019792, 14.616088809548955 ], [ 121.074305390019873, 14.616153009549114 ], [ 121.074464891978209, 14.616153434034183 ], [ 121.0745178525776, 14.616104443829055 ], [ 121.075071090531594, 14.613361167719969 ], [ 121.075484681365623, 14.611529880535075 ], [ 121.075833490017231, 14.610413809546458 ], [ 121.076357590016983, 14.609698209546313 ], [ 121.078388190016483, 14.607486709546183 ], [ 121.078694090016242, 14.606888909545997 ], [ 121.078979571919788, 14.605598824344113 ], [ 121.079302390014561, 14.603437709544208 ], [ 121.079607532978955, 14.595073900424127 ], [ 121.079968190007889, 14.590982209536827 ], [ 121.080036087499565, 14.590045887060729 ] ] ] } }
]
}
