{
"type": "FeatureCollection",
"name": "Marcos Hwy-C5-Araneta Cubao",
"crs": { "type": "name", "properties": { "name": "urn:ogc:def:crs:OGC:1.3:CRS84" } },
"xy_coordinate_resolution": 1e-15,
"features": [
{ "type": "Feature", "properties": { "route name": "Marcos Hwy-C5-Araneta Cubao", "weight": 5, "Color": "#0000ba" }, "geometry": { "type": "MultiLineString", "coordinates": [ [ [ 121.120465249291684, 14.624965970608178 ], [ 121.12051195321331, 14.62462763459485 ], [ 121.111228036621924, 14.622636187620648 ], [ 121.107033771912199, 14.621758013441626 ], [ 121.103049220438137, 14.62101091003511 ], [ 121.098540385875197, 14.620080307546834 ], [ 121.095460222728931, 14.619372525373075 ], [ 121.092837588468868, 14.618942849432504 ], [ 121.091848004139351, 14.618728221042518 ], [ 121.09128112305001, 14.618728221042172 ], [ 121.090645429805363, 14.618793756427857 ], [ 121.090055611330996, 14.618965786815936 ], [ 121.089326530161429, 14.619444195133797 ], [ 121.087694699049649, 14.621082579784566 ], [ 121.084581348645969, 14.624130394391482 ], [ 121.081504881840488, 14.627321548534727 ], [ 121.080413717663461, 14.628687961333624 ], [ 121.079112840251256, 14.630404988447884 ], [ 121.078346076235093, 14.631597732473898 ], [ 121.077585865757356, 14.632423478337937 ], [ 121.077041922053283, 14.632692173420487 ], [ 121.076366907576983, 14.63278392296057 ], [ 121.075796749718251, 14.632639745110875 ], [ 121.075301537986945, 14.632309210566836 ], [ 121.073768009951991, 14.631562107163294 ], [ 121.069796565553773, 14.629648473884007 ], [ 121.067830503970455, 14.628678550167153 ], [ 121.067004758105625, 14.628363980312821 ], [ 121.065746478692745, 14.628128052921289 ], [ 121.06408187988616, 14.627865911374801 ], [ 121.063007099554341, 14.627669305215171 ], [ 121.062076497071729, 14.627341628283478 ], [ 121.056427346789022, 14.62454982082825 ], [ 121.050375153881959, 14.621656433524068 ] ] ] } },
{ "type": "Feature", "properties": { "route name": "Marcos Hwy-C5-Araneta Cubao", "weight": 5, "Color": "#0000ba" }, "geometry": { "type": "MultiLineString", "coordinates": [ [ [ 121.120465249291684, 14.624965970608178 ], [ 121.12051195321331, 14.62462763459485 ], [ 121.111228036621924, 14.622636187620648 ], [ 121.107033771912199, 14.621758013441626 ], [ 121.103049220438137, 14.62101091003511 ], [ 121.098540385875197, 14.620080307546834 ], [ 121.095460222728931, 14.619372525373075 ], [ 121.092837588468868, 14.618942849432504 ], [ 121.091848004139351, 14.618728221042518 ], [ 121.09128112305001, 14.618728221042172 ], [ 121.090645429805363, 14.618793756427857 ], [ 121.090055611330996, 14.618965786815936 ], [ 121.089326530161429, 14.619444195133797 ], [ 121.087694699049649, 14.621082579784566 ], [ 121.084581348645969, 14.624130394391482 ], [ 121.081504881840488, 14.627321548534727 ], [ 121.080413717663461, 14.628687961333624 ], [ 121.079112840251256, 14.630404988447884 ], [ 121.078346076235093, 14.631597732473898 ], [ 121.077585865757356, 14.632423478337937 ], [ 121.077041922053283, 14.632692173420487 ], [ 121.076366907576983, 14.63278392296057 ], [ 121.075796749718251, 14.632639745110875 ], [ 121.075301537986945, 14.632309210566836 ], [ 121.073768009951991, 14.631562107163294 ], [ 121.069796565553773, 14.629648473884007 ], [ 121.067830503970455, 14.628678550167153 ], [ 121.067004758105625, 14.628363980312821 ], [ 121.065746478692745, 14.628128052921289 ], [ 121.06408187988616, 14.627865911374801 ], [ 121.063007099554341, 14.627669305215171 ], [ 121.062076497071729, 14.627341628283478 ], [ 121.056427346789022, 14.62454982082825 ], [ 121.050375153881959, 14.621656433524068 ] ] ] } }
]
}
